<?xml version="1.0" encoding="UTF-8"?>
<gpx version="1.1" creator="route-planner"
  xmlns="http://www.topografix.com/GPX/1/1"
  xmlns:xsi="http://www.w3.org/2001/XMLSchema-instance"
  xsi:schemaLocation="http://www.topografix.com/GPX/1/1 http://www.topografix.com/GPX/1/1/gpx.xsd">
  <metadata>
    <name>Lakeland Way — Anticlockwise day 11 (2026-09-10)</name>
    <desc>Base 12.8km, +420m; with 9 detour(s): +13.5km, +1317m ascent. Total 26.3km.</desc>
  </metadata>
  <wpt lat="54.432701" lon="-3.282570">
    <ele>609.0</ele>
    <name>Illgill Head 609m</name>
    <desc>A 609m fell forming the top of the Wast Water Screes, which fall 500m straight into the deepest lake in England. Grassy and gentle from behind, spectacular at the edge. Detour: +4.4km, +325m ascent.</desc>
    <type>peaks</type>
  </wpt>
  <wpt lat="54.481889" lon="-3.219281">
    <ele>899.0</ele>
    <name>Great Gable 899m</name>
    <desc>The 899m fell on the Lake District National Park emblem, with the war memorial of the Fell and Rock Climbing Club on its summit rocks. Steep on every side; the usual line from Styhead is the Breast Route. Detour: +4.6km, +567m ascent.</desc>
    <type>peaks</type>
  </wpt>
  <wpt lat="54.454098" lon="-3.212285">
    <ele>978.0</ele>
    <name>Scafell Pike 978m</name>
    <desc>England&apos;s highest ground at 978m. A boulder-strewn summit plateau with a huge cairn; cairned throughout but genuinely serious in mist, where the plateau defeats casual navigation. Usual approach from the route is via Lingmell Col. Detour: +5.9km, +474m ascent.</desc>
    <type>peaks</type>
  </wpt>
  <wpt lat="54.466099" lon="-3.180239">
    <ele>785.0</ele>
    <name>Allen Crags 785m</name>
    <desc>A 785m top on the Esk Hause crossing, an easy addition to a Scafell day. Detour: +0.6km, +52m ascent.</desc>
    <type>peaks</type>
  </wpt>
  <wpt lat="54.457129" lon="-3.178438">
    <ele>885.0</ele>
    <name>Esk Pike 885m</name>
    <desc>An 885m rocky top between Bowfell and Great End, on the Esk Hause crossing. Detour: +3.6km, +287m ascent.</desc>
    <type>peaks</type>
  </wpt>
  <wpt lat="54.447366" lon="-3.165820">
    <ele>902.0</ele>
    <name>Bowfell 902m</name>
    <desc>A 902m pyramid at the head of Langdale with a genuinely rocky top and the Great Slab on its flank. The Band gives a long but never technical ascent. Detour: +3.1km, +336m ascent.</desc>
    <type>peaks</type>
  </wpt>
  <wpt lat="54.428301" lon="-3.259506">
    <ele>254.0</ele>
    <name>Burnmoor Tarn</name>
    <desc>A wide shallow tarn on the moor between Eskdale and Wasdale at 254m. Peaty and comparatively mild; the surrounding ground is boggy, so use the firmer northern shore. Detour: +0.0km, +0m ascent.</desc>
    <type>wild-swim-spots</type>
  </wpt>
  <wpt lat="54.472261" lon="-3.219753">
    <ele>217.0</ele>
    <name>Emerald Pools</name>
    <desc>Green-tinted pools in the bed of Lingmell Beck below Wasdale Head, where the water has cut into clean rock. Cold and clear; easy entry from the shingle. Detour: +2.6km, +163m ascent.</desc>
    <type>wild-swim-spots</type>
  </wpt>
  <wpt lat="54.458658" lon="-3.167308">
    <ele>557.0</ele>
    <name>Angle Tarn</name>
    <desc>Sitting at 557m under Bowfell and Rossett Pike, dark and deep with a boulder shore. Reached directly by the route over Rossett Gill. Detour: +0.0km, +0m ascent.</desc>
    <type>wild-swim-spots</type>
  </wpt>
  <wpt lat="54.422524" lon="-3.256495">
    <name>Night 1 — camp</name>
    <type>camp</type>
  </wpt>
  <trk>
    <name>Day 11</name>
    <trkseg>
      <trkpt lat="54.460007" lon="-3.162841"><ele>564.0</ele></trkpt>
      <trkpt lat="54.459954" lon="-3.163838"><ele>558.0</ele></trkpt>
      <trkpt lat="54.459800" lon="-3.164981"><ele>562.0</ele></trkpt>
      <trkpt lat="54.459827" lon="-3.165390"><ele>562.0</ele></trkpt>
      <trkpt lat="54.459773" lon="-3.165807"><ele>561.0</ele></trkpt>
      <trkpt lat="54.459765" lon="-3.165813"><ele>560.3</ele></trkpt>
      <trkpt lat="54.459695" lon="-3.165431"><ele>561.0</ele></trkpt>
      <trkpt lat="54.459597" lon="-3.165297"><ele>563.0</ele></trkpt>
      <trkpt lat="54.459343" lon="-3.164541"><ele>575.5</ele></trkpt>
      <trkpt lat="54.459144" lon="-3.164330"><ele>581.0</ele></trkpt>
      <trkpt lat="54.459027" lon="-3.164381"><ele>582.5</ele></trkpt>
      <trkpt lat="54.458368" lon="-3.164204"><ele>600.5</ele></trkpt>
      <trkpt lat="54.458183" lon="-3.163995"><ele>606.3</ele></trkpt>
      <trkpt lat="54.458161" lon="-3.163826"><ele>608.3</ele></trkpt>
      <trkpt lat="54.457755" lon="-3.163253"><ele>608.8</ele></trkpt>
      <trkpt lat="54.457705" lon="-3.163064"><ele>607.5</ele></trkpt>
      <trkpt lat="54.457545" lon="-3.163281"><ele>606.8</ele></trkpt>
      <trkpt lat="54.456846" lon="-3.163550"><ele>617.3</ele></trkpt>
      <trkpt lat="54.456565" lon="-3.163309"><ele>625.3</ele></trkpt>
      <trkpt lat="54.456516" lon="-3.163330"><ele>627.3</ele></trkpt>
      <trkpt lat="54.456266" lon="-3.163067"><ele>632.3</ele></trkpt>
      <trkpt lat="54.456097" lon="-3.163065"><ele>635.0</ele></trkpt>
      <trkpt lat="54.455708" lon="-3.163366"><ele>641.5</ele></trkpt>
      <trkpt lat="54.455583" lon="-3.163612"><ele>646.5</ele></trkpt>
      <trkpt lat="54.455556" lon="-3.163896"><ele>653.0</ele></trkpt>
      <trkpt lat="54.455247" lon="-3.164093"><ele>668.0</ele></trkpt>
      <trkpt lat="54.454668" lon="-3.164098"><ele>693.0</ele></trkpt>
      <trkpt lat="54.454235" lon="-3.164350"><ele>712.0</ele></trkpt>
      <trkpt lat="54.454095" lon="-3.164560"><ele>723.0</ele></trkpt>
      <trkpt lat="54.453812" lon="-3.164652"><ele>736.5</ele></trkpt>
      <trkpt lat="54.453685" lon="-3.165033"><ele>756.0</ele></trkpt>
      <trkpt lat="54.453536" lon="-3.164977"><ele>761.8</ele></trkpt>
      <trkpt lat="54.453408" lon="-3.165060"><ele>771.3</ele></trkpt>
      <trkpt lat="54.452974" lon="-3.165090"><ele>793.0</ele></trkpt>
      <trkpt lat="54.452891" lon="-3.165214"><ele>801.0</ele></trkpt>
      <trkpt lat="54.452604" lon="-3.165261"><ele>812.5</ele></trkpt>
      <trkpt lat="54.452194" lon="-3.165516"><ele>829.3</ele></trkpt>
      <trkpt lat="54.451830" lon="-3.165484"><ele>834.8</ele></trkpt>
      <trkpt lat="54.451145" lon="-3.165638"><ele>848.3</ele></trkpt>
      <trkpt lat="54.450762" lon="-3.166001"><ele>850.8</ele></trkpt>
      <trkpt lat="54.450554" lon="-3.166291"><ele>853.3</ele></trkpt>
      <trkpt lat="54.449480" lon="-3.166753"><ele>858.8</ele></trkpt>
      <trkpt lat="54.448876" lon="-3.166566"><ele>879.5</ele></trkpt>
      <trkpt lat="54.448651" lon="-3.166254"><ele>882.5</ele></trkpt>
      <trkpt lat="54.448254" lon="-3.166125"><ele>886.5</ele></trkpt>
      <trkpt lat="54.448227" lon="-3.166300"><ele>887.0</ele></trkpt>
      <trkpt lat="54.448097" lon="-3.166591"><ele>888.5</ele></trkpt>
      <trkpt lat="54.447962" lon="-3.166447"><ele>893.8</ele></trkpt>
      <trkpt lat="54.447941" lon="-3.166314"><ele>894.5</ele></trkpt>
      <trkpt lat="54.447776" lon="-3.166291"><ele>898.5</ele></trkpt>
      <trkpt lat="54.447941" lon="-3.166314"><ele>894.5</ele></trkpt>
      <trkpt lat="54.447962" lon="-3.166447"><ele>893.8</ele></trkpt>
      <trkpt lat="54.448097" lon="-3.166591"><ele>888.5</ele></trkpt>
      <trkpt lat="54.448227" lon="-3.166300"><ele>887.0</ele></trkpt>
      <trkpt lat="54.448784" lon="-3.167517"><ele>867.8</ele></trkpt>
      <trkpt lat="54.449663" lon="-3.167646"><ele>845.0</ele></trkpt>
      <trkpt lat="54.450044" lon="-3.167840"><ele>838.8</ele></trkpt>
      <trkpt lat="54.450079" lon="-3.167947"><ele>836.5</ele></trkpt>
      <trkpt lat="54.450436" lon="-3.168283"><ele>828.8</ele></trkpt>
      <trkpt lat="54.450544" lon="-3.168277"><ele>829.0</ele></trkpt>
      <trkpt lat="54.451061" lon="-3.168687"><ele>821.0</ele></trkpt>
      <trkpt lat="54.451940" lon="-3.169159"><ele>809.0</ele></trkpt>
      <trkpt lat="54.453206" lon="-3.170650"><ele>782.8</ele></trkpt>
      <trkpt lat="54.454328" lon="-3.173105"><ele>771.5</ele></trkpt>
      <trkpt lat="54.454382" lon="-3.172551"><ele>773.8</ele></trkpt>
      <trkpt lat="54.454680" lon="-3.172610"><ele>772.5</ele></trkpt>
      <trkpt lat="54.454987" lon="-3.172774"><ele>768.0</ele></trkpt>
      <trkpt lat="54.455686" lon="-3.172690"><ele>757.8</ele></trkpt>
      <trkpt lat="54.456001" lon="-3.172979"><ele>755.0</ele></trkpt>
      <trkpt lat="54.456229" lon="-3.173301"><ele>754.5</ele></trkpt>
      <trkpt lat="54.456924" lon="-3.173746"><ele>745.5</ele></trkpt>
      <trkpt lat="54.457205" lon="-3.173837"><ele>738.8</ele></trkpt>
      <trkpt lat="54.457489" lon="-3.174068"><ele>729.5</ele></trkpt>
      <trkpt lat="54.457938" lon="-3.174266"><ele>722.0</ele></trkpt>
      <trkpt lat="54.458646" lon="-3.174434"><ele>707.5</ele></trkpt>
      <trkpt lat="54.459295" lon="-3.174840"><ele>694.5</ele></trkpt>
      <trkpt lat="54.459698" lon="-3.175927"><ele>698.0</ele></trkpt>
      <trkpt lat="54.459963" lon="-3.176377"><ele>697.5</ele></trkpt>
      <trkpt lat="54.460106" lon="-3.176495"><ele>692.8</ele></trkpt>
      <trkpt lat="54.460327" lon="-3.176828"><ele>688.5</ele></trkpt>
      <trkpt lat="54.460485" lon="-3.177354"><ele>694.8</ele></trkpt>
      <trkpt lat="54.460594" lon="-3.177499"><ele>693.0</ele></trkpt>
      <trkpt lat="54.460654" lon="-3.177778"><ele>700.0</ele></trkpt>
      <trkpt lat="54.460800" lon="-3.177939"><ele>697.5</ele></trkpt>
      <trkpt lat="54.461012" lon="-3.178448"><ele>703.8</ele></trkpt>
      <trkpt lat="54.461287" lon="-3.178749"><ele>704.3</ele></trkpt>
      <trkpt lat="54.462499" lon="-3.180707"><ele>710.8</ele></trkpt>
      <trkpt lat="54.462653" lon="-3.181190"><ele>715.0</ele></trkpt>
      <trkpt lat="54.462653" lon="-3.181399"><ele>719.3</ele></trkpt>
      <trkpt lat="54.463189" lon="-3.182075"><ele>725.8</ele></trkpt>
      <trkpt lat="54.463887" lon="-3.182501"><ele>727.0</ele></trkpt>
      <trkpt lat="54.463879" lon="-3.182589"><ele>727.5</ele></trkpt>
      <trkpt lat="54.463739" lon="-3.182738"><ele>730.3</ele></trkpt>
      <trkpt lat="54.463560" lon="-3.183197"><ele>736.3</ele></trkpt>
      <trkpt lat="54.463250" lon="-3.183736"><ele>745.0</ele></trkpt>
      <trkpt lat="54.462921" lon="-3.184461"><ele>752.0</ele></trkpt>
      <trkpt lat="54.462737" lon="-3.185411"><ele>761.0</ele></trkpt>
      <trkpt lat="54.462579" lon="-3.185373"><ele>761.0</ele></trkpt>
      <trkpt lat="54.462588" lon="-3.185884"><ele>763.0</ele></trkpt>
      <trkpt lat="54.462748" lon="-3.187670"><ele>776.5</ele></trkpt>
      <trkpt lat="54.462675" lon="-3.188961"><ele>790.5</ele></trkpt>
      <trkpt lat="54.462359" lon="-3.189644"><ele>793.8</ele></trkpt>
      <trkpt lat="54.462210" lon="-3.190181"><ele>797.0</ele></trkpt>
      <trkpt lat="54.462036" lon="-3.191225"><ele>800.0</ele></trkpt>
      <trkpt lat="54.461957" lon="-3.192185"><ele>803.8</ele></trkpt>
      <trkpt lat="54.461771" lon="-3.192604"><ele>806.3</ele></trkpt>
      <trkpt lat="54.461887" lon="-3.194289"><ele>824.0</ele></trkpt>
      <trkpt lat="54.461848" lon="-3.194508"><ele>829.8</ele></trkpt>
      <trkpt lat="54.461728" lon="-3.194612"><ele>835.8</ele></trkpt>
      <trkpt lat="54.461636" lon="-3.195156"><ele>847.5</ele></trkpt>
      <trkpt lat="54.461561" lon="-3.195292"><ele>850.3</ele></trkpt>
      <trkpt lat="54.461407" lon="-3.195321"><ele>852.3</ele></trkpt>
      <trkpt lat="54.461308" lon="-3.195551"><ele>854.5</ele></trkpt>
      <trkpt lat="54.461296" lon="-3.195781"><ele>856.0</ele></trkpt>
      <trkpt lat="54.461182" lon="-3.196174"><ele>858.3</ele></trkpt>
      <trkpt lat="54.460880" lon="-3.196647"><ele>859.5</ele></trkpt>
      <trkpt lat="54.460722" lon="-3.197421"><ele>866.5</ele></trkpt>
      <trkpt lat="54.460654" lon="-3.197566"><ele>868.5</ele></trkpt>
      <trkpt lat="54.460452" lon="-3.197784"><ele>875.5</ele></trkpt>
      <trkpt lat="54.460299" lon="-3.197722"><ele>880.8</ele></trkpt>
      <trkpt lat="54.459801" lon="-3.197935"><ele>892.8</ele></trkpt>
      <trkpt lat="54.459470" lon="-3.198530"><ele>897.8</ele></trkpt>
      <trkpt lat="54.459036" lon="-3.199095"><ele>901.3</ele></trkpt>
      <trkpt lat="54.458913" lon="-3.199047"><ele>903.5</ele></trkpt>
      <trkpt lat="54.458638" lon="-3.199164"><ele>907.5</ele></trkpt>
      <trkpt lat="54.458505" lon="-3.199308"><ele>909.3</ele></trkpt>
      <trkpt lat="54.458273" lon="-3.199415"><ele>911.3</ele></trkpt>
      <trkpt lat="54.457980" lon="-3.199791"><ele>913.0</ele></trkpt>
      <trkpt lat="54.457884" lon="-3.200112"><ele>912.8</ele></trkpt>
      <trkpt lat="54.457876" lon="-3.200346"><ele>912.0</ele></trkpt>
      <trkpt lat="54.457726" lon="-3.201133"><ele>908.0</ele></trkpt>
      <trkpt lat="54.457639" lon="-3.201307"><ele>906.5</ele></trkpt>
      <trkpt lat="54.457649" lon="-3.201493"><ele>903.0</ele></trkpt>
      <trkpt lat="54.457546" lon="-3.201756"><ele>898.8</ele></trkpt>
      <trkpt lat="54.457503" lon="-3.202245"><ele>891.3</ele></trkpt>
      <trkpt lat="54.457523" lon="-3.202582"><ele>884.3</ele></trkpt>
      <trkpt lat="54.457426" lon="-3.203286"><ele>882.5</ele></trkpt>
      <trkpt lat="54.457325" lon="-3.203558"><ele>885.3</ele></trkpt>
      <trkpt lat="54.457220" lon="-3.203656"><ele>886.5</ele></trkpt>
      <trkpt lat="54.457036" lon="-3.204062"><ele>891.0</ele></trkpt>
      <trkpt lat="54.457003" lon="-3.204276"><ele>894.0</ele></trkpt>
      <trkpt lat="54.457031" lon="-3.204990"><ele>904.3</ele></trkpt>
      <trkpt lat="54.456998" lon="-3.205124"><ele>906.0</ele></trkpt>
      <trkpt lat="54.457102" lon="-3.205819"><ele>916.5</ele></trkpt>
      <trkpt lat="54.456814" lon="-3.206326"><ele>914.3</ele></trkpt>
      <trkpt lat="54.456787" lon="-3.206959"><ele>914.3</ele></trkpt>
      <trkpt lat="54.456722" lon="-3.207321"><ele>910.8</ele></trkpt>
      <trkpt lat="54.456862" lon="-3.207704"><ele>907.5</ele></trkpt>
      <trkpt lat="54.456854" lon="-3.207891"><ele>905.8</ele></trkpt>
      <trkpt lat="54.456756" lon="-3.208043"><ele>901.5</ele></trkpt>
      <trkpt lat="54.456618" lon="-3.208094"><ele>896.3</ele></trkpt>
      <trkpt lat="54.456509" lon="-3.208480"><ele>885.3</ele></trkpt>
      <trkpt lat="54.456397" lon="-3.208510"><ele>882.3</ele></trkpt>
      <trkpt lat="54.456292" lon="-3.208703"><ele>877.5</ele></trkpt>
      <trkpt lat="54.456266" lon="-3.208943"><ele>876.0</ele></trkpt>
      <trkpt lat="54.455775" lon="-3.209266"><ele>900.3</ele></trkpt>
      <trkpt lat="54.455430" lon="-3.209628"><ele>923.3</ele></trkpt>
      <trkpt lat="54.454676" lon="-3.210012"><ele>945.8</ele></trkpt>
      <trkpt lat="54.454404" lon="-3.210387"><ele>957.3</ele></trkpt>
      <trkpt lat="54.454332" lon="-3.210614"><ele>963.0</ele></trkpt>
      <trkpt lat="54.454332" lon="-3.210989"><ele>969.8</ele></trkpt>
      <trkpt lat="54.454279" lon="-3.211132"><ele>971.8</ele></trkpt>
      <trkpt lat="54.454249" lon="-3.211620"><ele>974.5</ele></trkpt>
      <trkpt lat="54.454312" lon="-3.211811"><ele>972.3</ele></trkpt>
      <trkpt lat="54.454256" lon="-3.211714"><ele>974.0</ele></trkpt>
      <trkpt lat="54.454332" lon="-3.210614"><ele>963.0</ele></trkpt>
      <trkpt lat="54.454404" lon="-3.210387"><ele>957.3</ele></trkpt>
      <trkpt lat="54.454676" lon="-3.210012"><ele>945.8</ele></trkpt>
      <trkpt lat="54.455430" lon="-3.209628"><ele>923.3</ele></trkpt>
      <trkpt lat="54.455775" lon="-3.209266"><ele>900.3</ele></trkpt>
      <trkpt lat="54.456266" lon="-3.208943"><ele>876.0</ele></trkpt>
      <trkpt lat="54.456292" lon="-3.208703"><ele>877.5</ele></trkpt>
      <trkpt lat="54.456397" lon="-3.208510"><ele>882.3</ele></trkpt>
      <trkpt lat="54.456509" lon="-3.208480"><ele>885.3</ele></trkpt>
      <trkpt lat="54.456618" lon="-3.208094"><ele>896.3</ele></trkpt>
      <trkpt lat="54.456756" lon="-3.208043"><ele>901.5</ele></trkpt>
      <trkpt lat="54.456854" lon="-3.207891"><ele>905.8</ele></trkpt>
      <trkpt lat="54.456862" lon="-3.207704"><ele>907.5</ele></trkpt>
      <trkpt lat="54.456722" lon="-3.207321"><ele>910.8</ele></trkpt>
      <trkpt lat="54.456787" lon="-3.206959"><ele>914.3</ele></trkpt>
      <trkpt lat="54.456814" lon="-3.206326"><ele>914.3</ele></trkpt>
      <trkpt lat="54.457102" lon="-3.205819"><ele>916.5</ele></trkpt>
      <trkpt lat="54.456998" lon="-3.205124"><ele>906.0</ele></trkpt>
      <trkpt lat="54.457031" lon="-3.204990"><ele>904.3</ele></trkpt>
      <trkpt lat="54.457003" lon="-3.204276"><ele>894.0</ele></trkpt>
      <trkpt lat="54.457036" lon="-3.204062"><ele>891.0</ele></trkpt>
      <trkpt lat="54.457220" lon="-3.203656"><ele>886.5</ele></trkpt>
      <trkpt lat="54.457325" lon="-3.203558"><ele>885.3</ele></trkpt>
      <trkpt lat="54.457426" lon="-3.203286"><ele>882.5</ele></trkpt>
      <trkpt lat="54.457523" lon="-3.202582"><ele>884.3</ele></trkpt>
      <trkpt lat="54.457503" lon="-3.202245"><ele>891.3</ele></trkpt>
      <trkpt lat="54.457546" lon="-3.201756"><ele>898.8</ele></trkpt>
      <trkpt lat="54.457649" lon="-3.201493"><ele>903.0</ele></trkpt>
      <trkpt lat="54.457639" lon="-3.201307"><ele>906.5</ele></trkpt>
      <trkpt lat="54.457726" lon="-3.201133"><ele>908.0</ele></trkpt>
      <trkpt lat="54.457876" lon="-3.200346"><ele>912.0</ele></trkpt>
      <trkpt lat="54.457884" lon="-3.200112"><ele>912.8</ele></trkpt>
      <trkpt lat="54.457980" lon="-3.199791"><ele>913.0</ele></trkpt>
      <trkpt lat="54.458273" lon="-3.199415"><ele>911.3</ele></trkpt>
      <trkpt lat="54.458505" lon="-3.199308"><ele>909.3</ele></trkpt>
      <trkpt lat="54.458638" lon="-3.199164"><ele>907.5</ele></trkpt>
      <trkpt lat="54.458913" lon="-3.199047"><ele>903.5</ele></trkpt>
      <trkpt lat="54.459036" lon="-3.199095"><ele>901.3</ele></trkpt>
      <trkpt lat="54.459470" lon="-3.198530"><ele>897.8</ele></trkpt>
      <trkpt lat="54.459801" lon="-3.197935"><ele>892.8</ele></trkpt>
      <trkpt lat="54.460299" lon="-3.197722"><ele>880.8</ele></trkpt>
      <trkpt lat="54.460452" lon="-3.197784"><ele>875.5</ele></trkpt>
      <trkpt lat="54.460654" lon="-3.197566"><ele>868.5</ele></trkpt>
      <trkpt lat="54.460722" lon="-3.197421"><ele>866.5</ele></trkpt>
      <trkpt lat="54.460880" lon="-3.196647"><ele>859.5</ele></trkpt>
      <trkpt lat="54.461182" lon="-3.196174"><ele>858.3</ele></trkpt>
      <trkpt lat="54.461296" lon="-3.195781"><ele>856.0</ele></trkpt>
      <trkpt lat="54.461308" lon="-3.195551"><ele>854.5</ele></trkpt>
      <trkpt lat="54.461407" lon="-3.195321"><ele>852.3</ele></trkpt>
      <trkpt lat="54.461561" lon="-3.195292"><ele>850.3</ele></trkpt>
      <trkpt lat="54.461636" lon="-3.195156"><ele>847.5</ele></trkpt>
      <trkpt lat="54.461728" lon="-3.194612"><ele>835.8</ele></trkpt>
      <trkpt lat="54.461848" lon="-3.194508"><ele>829.8</ele></trkpt>
      <trkpt lat="54.461887" lon="-3.194289"><ele>824.0</ele></trkpt>
      <trkpt lat="54.461771" lon="-3.192604"><ele>806.3</ele></trkpt>
      <trkpt lat="54.461957" lon="-3.192185"><ele>803.8</ele></trkpt>
      <trkpt lat="54.462036" lon="-3.191225"><ele>800.0</ele></trkpt>
      <trkpt lat="54.462210" lon="-3.190181"><ele>797.0</ele></trkpt>
      <trkpt lat="54.462359" lon="-3.189644"><ele>793.8</ele></trkpt>
      <trkpt lat="54.462675" lon="-3.188961"><ele>790.5</ele></trkpt>
      <trkpt lat="54.462748" lon="-3.187670"><ele>776.5</ele></trkpt>
      <trkpt lat="54.462588" lon="-3.185884"><ele>763.0</ele></trkpt>
      <trkpt lat="54.462579" lon="-3.185373"><ele>761.0</ele></trkpt>
      <trkpt lat="54.463198" lon="-3.185443"><ele>753.5</ele></trkpt>
      <trkpt lat="54.463539" lon="-3.185627"><ele>745.5</ele></trkpt>
      <trkpt lat="54.464243" lon="-3.185692"><ele>731.0</ele></trkpt>
      <trkpt lat="54.464359" lon="-3.185808"><ele>727.8</ele></trkpt>
      <trkpt lat="54.464501" lon="-3.185779"><ele>723.3</ele></trkpt>
      <trkpt lat="54.464654" lon="-3.185906"><ele>719.3</ele></trkpt>
      <trkpt lat="54.464816" lon="-3.185898"><ele>714.0</ele></trkpt>
      <trkpt lat="54.464947" lon="-3.186005"><ele>710.3</ele></trkpt>
      <trkpt lat="54.465302" lon="-3.186084"><ele>699.0</ele></trkpt>
      <trkpt lat="54.465661" lon="-3.186362"><ele>683.5</ele></trkpt>
      <trkpt lat="54.465695" lon="-3.186769"><ele>680.0</ele></trkpt>
      <trkpt lat="54.465802" lon="-3.187018"><ele>677.0</ele></trkpt>
      <trkpt lat="54.466538" lon="-3.187649"><ele>660.5</ele></trkpt>
      <trkpt lat="54.466793" lon="-3.188499"><ele>649.0</ele></trkpt>
      <trkpt lat="54.466808" lon="-3.188777"><ele>650.0</ele></trkpt>
      <trkpt lat="54.466871" lon="-3.188855"><ele>648.8</ele></trkpt>
      <trkpt lat="54.466933" lon="-3.189160"><ele>645.3</ele></trkpt>
      <trkpt lat="54.467391" lon="-3.189940"><ele>631.0</ele></trkpt>
      <trkpt lat="54.467550" lon="-3.190385"><ele>626.5</ele></trkpt>
      <trkpt lat="54.467754" lon="-3.190626"><ele>622.5</ele></trkpt>
      <trkpt lat="54.468403" lon="-3.190912"><ele>619.3</ele></trkpt>
      <trkpt lat="54.468701" lon="-3.191321"><ele>620.8</ele></trkpt>
      <trkpt lat="54.469168" lon="-3.191642"><ele>624.0</ele></trkpt>
      <trkpt lat="54.469468" lon="-3.191940"><ele>625.3</ele></trkpt>
      <trkpt lat="54.469589" lon="-3.192235"><ele>622.3</ele></trkpt>
      <trkpt lat="54.469896" lon="-3.192668"><ele>615.3</ele></trkpt>
      <trkpt lat="54.470255" lon="-3.193476"><ele>608.0</ele></trkpt>
      <trkpt lat="54.470835" lon="-3.194296"><ele>601.3</ele></trkpt>
      <trkpt lat="54.470941" lon="-3.194338"><ele>599.8</ele></trkpt>
      <trkpt lat="54.471125" lon="-3.194865"><ele>597.0</ele></trkpt>
      <trkpt lat="54.471337" lon="-3.195200"><ele>595.3</ele></trkpt>
      <trkpt lat="54.471798" lon="-3.195727"><ele>585.8</ele></trkpt>
      <trkpt lat="54.471873" lon="-3.195985"><ele>582.5</ele></trkpt>
      <trkpt lat="54.472231" lon="-3.196343"><ele>578.5</ele></trkpt>
      <trkpt lat="54.472306" lon="-3.196710"><ele>571.8</ele></trkpt>
      <trkpt lat="54.472641" lon="-3.197157"><ele>564.0</ele></trkpt>
      <trkpt lat="54.473057" lon="-3.197445"><ele>555.5</ele></trkpt>
      <trkpt lat="54.473288" lon="-3.197892"><ele>550.5</ele></trkpt>
      <trkpt lat="54.473565" lon="-3.198280"><ele>543.5</ele></trkpt>
      <trkpt lat="54.473576" lon="-3.198409"><ele>543.5</ele></trkpt>
      <trkpt lat="54.473848" lon="-3.198796"><ele>535.0</ele></trkpt>
      <trkpt lat="54.474153" lon="-3.199045"><ele>525.0</ele></trkpt>
      <trkpt lat="54.474500" lon="-3.199621"><ele>515.3</ele></trkpt>
      <trkpt lat="54.474592" lon="-3.199978"><ele>510.3</ele></trkpt>
      <trkpt lat="54.474558" lon="-3.201060"><ele>501.0</ele></trkpt>
      <trkpt lat="54.474464" lon="-3.201593"><ele>495.3</ele></trkpt>
      <trkpt lat="54.474518" lon="-3.201879"><ele>490.0</ele></trkpt>
      <trkpt lat="54.474494" lon="-3.202461"><ele>485.5</ele></trkpt>
      <trkpt lat="54.474617" lon="-3.202795"><ele>485.3</ele></trkpt>
      <trkpt lat="54.474656" lon="-3.203070"><ele>486.3</ele></trkpt>
      <trkpt lat="54.474725" lon="-3.203165"><ele>488.0</ele></trkpt>
      <trkpt lat="54.474724" lon="-3.203314"><ele>489.8</ele></trkpt>
      <trkpt lat="54.474788" lon="-3.203495"><ele>488.3</ele></trkpt>
      <trkpt lat="54.474716" lon="-3.204513"><ele>483.0</ele></trkpt>
      <trkpt lat="54.474780" lon="-3.204959"><ele>480.3</ele></trkpt>
      <trkpt lat="54.474905" lon="-3.205150"><ele>476.0</ele></trkpt>
      <trkpt lat="54.474823" lon="-3.205360"><ele>474.0</ele></trkpt>
      <trkpt lat="54.474943" lon="-3.207142"><ele>479.3</ele></trkpt>
      <trkpt lat="54.475142" lon="-3.207604"><ele>490.0</ele></trkpt>
      <trkpt lat="54.475174" lon="-3.208060"><ele>498.0</ele></trkpt>
      <trkpt lat="54.475268" lon="-3.208205"><ele>501.3</ele></trkpt>
      <trkpt lat="54.475264" lon="-3.208483"><ele>503.0</ele></trkpt>
      <trkpt lat="54.475560" lon="-3.208803"><ele>513.8</ele></trkpt>
      <trkpt lat="54.475818" lon="-3.208843"><ele>521.0</ele></trkpt>
      <trkpt lat="54.475967" lon="-3.209089"><ele>526.5</ele></trkpt>
      <trkpt lat="54.476161" lon="-3.209136"><ele>532.0</ele></trkpt>
      <trkpt lat="54.476253" lon="-3.209283"><ele>536.5</ele></trkpt>
      <trkpt lat="54.476421" lon="-3.209379"><ele>542.0</ele></trkpt>
      <trkpt lat="54.476739" lon="-3.209453"><ele>552.5</ele></trkpt>
      <trkpt lat="54.476793" lon="-3.209346"><ele>553.0</ele></trkpt>
      <trkpt lat="54.476838" lon="-3.209358"><ele>555.3</ele></trkpt>
      <trkpt lat="54.476853" lon="-3.209447"><ele>557.8</ele></trkpt>
      <trkpt lat="54.477026" lon="-3.209635"><ele>568.3</ele></trkpt>
      <trkpt lat="54.477277" lon="-3.209754"><ele>580.3</ele></trkpt>
      <trkpt lat="54.477414" lon="-3.210051"><ele>594.3</ele></trkpt>
      <trkpt lat="54.477604" lon="-3.209928"><ele>598.0</ele></trkpt>
      <trkpt lat="54.477712" lon="-3.210070"><ele>604.8</ele></trkpt>
      <trkpt lat="54.477834" lon="-3.210115"><ele>608.0</ele></trkpt>
      <trkpt lat="54.477953" lon="-3.210286"><ele>613.8</ele></trkpt>
      <trkpt lat="54.478057" lon="-3.210724"><ele>626.0</ele></trkpt>
      <trkpt lat="54.478304" lon="-3.211182"><ele>641.8</ele></trkpt>
      <trkpt lat="54.478451" lon="-3.211428"><ele>651.0</ele></trkpt>
      <trkpt lat="54.478568" lon="-3.211466"><ele>653.8</ele></trkpt>
      <trkpt lat="54.478623" lon="-3.212016"><ele>664.5</ele></trkpt>
      <trkpt lat="54.478712" lon="-3.212062"><ele>668.8</ele></trkpt>
      <trkpt lat="54.478923" lon="-3.212009"><ele>675.0</ele></trkpt>
      <trkpt lat="54.479118" lon="-3.212108"><ele>685.8</ele></trkpt>
      <trkpt lat="54.479177" lon="-3.212210"><ele>691.0</ele></trkpt>
      <trkpt lat="54.479799" lon="-3.212478"><ele>720.0</ele></trkpt>
      <trkpt lat="54.479815" lon="-3.212727"><ele>728.0</ele></trkpt>
      <trkpt lat="54.479893" lon="-3.212770"><ele>731.5</ele></trkpt>
      <trkpt lat="54.479906" lon="-3.212925"><ele>736.0</ele></trkpt>
      <trkpt lat="54.479952" lon="-3.212914"><ele>737.0</ele></trkpt>
      <trkpt lat="54.480074" lon="-3.213339"><ele>749.3</ele></trkpt>
      <trkpt lat="54.480002" lon="-3.213816"><ele>759.3</ele></trkpt>
      <trkpt lat="54.480210" lon="-3.214068"><ele>767.3</ele></trkpt>
      <trkpt lat="54.480370" lon="-3.214577"><ele>777.5</ele></trkpt>
      <trkpt lat="54.480590" lon="-3.215034"><ele>787.0</ele></trkpt>
      <trkpt lat="54.480785" lon="-3.215243"><ele>794.3</ele></trkpt>
      <trkpt lat="54.480793" lon="-3.215436"><ele>798.3</ele></trkpt>
      <trkpt lat="54.480955" lon="-3.215722"><ele>807.5</ele></trkpt>
      <trkpt lat="54.481019" lon="-3.215818"><ele>810.0</ele></trkpt>
      <trkpt lat="54.481255" lon="-3.215903"><ele>815.3</ele></trkpt>
      <trkpt lat="54.481331" lon="-3.215857"><ele>816.3</ele></trkpt>
      <trkpt lat="54.481645" lon="-3.216053"><ele>822.5</ele></trkpt>
      <trkpt lat="54.481829" lon="-3.216047"><ele>824.3</ele></trkpt>
      <trkpt lat="54.482076" lon="-3.216167"><ele>830.3</ele></trkpt>
      <trkpt lat="54.482165" lon="-3.216503"><ele>841.8</ele></trkpt>
      <trkpt lat="54.482153" lon="-3.216686"><ele>846.5</ele></trkpt>
      <trkpt lat="54.482000" lon="-3.217024"><ele>852.8</ele></trkpt>
      <trkpt lat="54.481967" lon="-3.217817"><ele>868.5</ele></trkpt>
      <trkpt lat="54.482030" lon="-3.218096"><ele>876.3</ele></trkpt>
      <trkpt lat="54.481901" lon="-3.218708"><ele>885.8</ele></trkpt>
      <trkpt lat="54.481910" lon="-3.218813"><ele>888.3</ele></trkpt>
      <trkpt lat="54.482087" lon="-3.219083"><ele>893.8</ele></trkpt>
      <trkpt lat="54.482081" lon="-3.219158"><ele>894.3</ele></trkpt>
      <trkpt lat="54.482087" lon="-3.219083"><ele>893.8</ele></trkpt>
      <trkpt lat="54.481910" lon="-3.218813"><ele>888.3</ele></trkpt>
      <trkpt lat="54.481901" lon="-3.218708"><ele>885.8</ele></trkpt>
      <trkpt lat="54.482030" lon="-3.218096"><ele>876.3</ele></trkpt>
      <trkpt lat="54.481967" lon="-3.217817"><ele>868.5</ele></trkpt>
      <trkpt lat="54.482000" lon="-3.217024"><ele>852.8</ele></trkpt>
      <trkpt lat="54.482153" lon="-3.216686"><ele>846.5</ele></trkpt>
      <trkpt lat="54.482165" lon="-3.216503"><ele>841.8</ele></trkpt>
      <trkpt lat="54.482076" lon="-3.216167"><ele>830.3</ele></trkpt>
      <trkpt lat="54.481829" lon="-3.216047"><ele>824.3</ele></trkpt>
      <trkpt lat="54.481645" lon="-3.216053"><ele>822.5</ele></trkpt>
      <trkpt lat="54.481331" lon="-3.215857"><ele>816.3</ele></trkpt>
      <trkpt lat="54.481255" lon="-3.215903"><ele>815.3</ele></trkpt>
      <trkpt lat="54.481019" lon="-3.215818"><ele>810.0</ele></trkpt>
      <trkpt lat="54.480955" lon="-3.215722"><ele>807.5</ele></trkpt>
      <trkpt lat="54.480793" lon="-3.215436"><ele>798.3</ele></trkpt>
      <trkpt lat="54.480785" lon="-3.215243"><ele>794.3</ele></trkpt>
      <trkpt lat="54.480590" lon="-3.215034"><ele>787.0</ele></trkpt>
      <trkpt lat="54.480370" lon="-3.214577"><ele>777.5</ele></trkpt>
      <trkpt lat="54.480210" lon="-3.214068"><ele>767.3</ele></trkpt>
      <trkpt lat="54.480002" lon="-3.213816"><ele>759.3</ele></trkpt>
      <trkpt lat="54.480074" lon="-3.213339"><ele>749.3</ele></trkpt>
      <trkpt lat="54.479952" lon="-3.212914"><ele>737.0</ele></trkpt>
      <trkpt lat="54.479906" lon="-3.212925"><ele>736.0</ele></trkpt>
      <trkpt lat="54.479893" lon="-3.212770"><ele>731.5</ele></trkpt>
      <trkpt lat="54.479815" lon="-3.212727"><ele>728.0</ele></trkpt>
      <trkpt lat="54.479799" lon="-3.212478"><ele>720.0</ele></trkpt>
      <trkpt lat="54.479177" lon="-3.212210"><ele>691.0</ele></trkpt>
      <trkpt lat="54.479118" lon="-3.212108"><ele>685.8</ele></trkpt>
      <trkpt lat="54.478923" lon="-3.212009"><ele>675.0</ele></trkpt>
      <trkpt lat="54.478712" lon="-3.212062"><ele>668.8</ele></trkpt>
      <trkpt lat="54.478623" lon="-3.212016"><ele>664.5</ele></trkpt>
      <trkpt lat="54.478568" lon="-3.211466"><ele>653.8</ele></trkpt>
      <trkpt lat="54.478451" lon="-3.211428"><ele>651.0</ele></trkpt>
      <trkpt lat="54.478304" lon="-3.211182"><ele>641.8</ele></trkpt>
      <trkpt lat="54.478057" lon="-3.210724"><ele>626.0</ele></trkpt>
      <trkpt lat="54.477953" lon="-3.210286"><ele>613.8</ele></trkpt>
      <trkpt lat="54.477834" lon="-3.210115"><ele>608.0</ele></trkpt>
      <trkpt lat="54.477712" lon="-3.210070"><ele>604.8</ele></trkpt>
      <trkpt lat="54.477604" lon="-3.209928"><ele>598.0</ele></trkpt>
      <trkpt lat="54.477414" lon="-3.210051"><ele>594.3</ele></trkpt>
      <trkpt lat="54.477277" lon="-3.209754"><ele>580.3</ele></trkpt>
      <trkpt lat="54.477026" lon="-3.209635"><ele>568.3</ele></trkpt>
      <trkpt lat="54.476853" lon="-3.209447"><ele>557.8</ele></trkpt>
      <trkpt lat="54.476838" lon="-3.209358"><ele>555.3</ele></trkpt>
      <trkpt lat="54.476793" lon="-3.209346"><ele>553.0</ele></trkpt>
      <trkpt lat="54.476739" lon="-3.209453"><ele>552.5</ele></trkpt>
      <trkpt lat="54.476421" lon="-3.209379"><ele>542.0</ele></trkpt>
      <trkpt lat="54.476253" lon="-3.209283"><ele>536.5</ele></trkpt>
      <trkpt lat="54.476161" lon="-3.209136"><ele>532.0</ele></trkpt>
      <trkpt lat="54.475967" lon="-3.209089"><ele>526.5</ele></trkpt>
      <trkpt lat="54.475818" lon="-3.208843"><ele>521.0</ele></trkpt>
      <trkpt lat="54.475560" lon="-3.208803"><ele>513.8</ele></trkpt>
      <trkpt lat="54.475361" lon="-3.208604"><ele>506.5</ele></trkpt>
      <trkpt lat="54.475264" lon="-3.208483"><ele>503.0</ele></trkpt>
      <trkpt lat="54.475268" lon="-3.208205"><ele>501.3</ele></trkpt>
      <trkpt lat="54.475174" lon="-3.208060"><ele>498.0</ele></trkpt>
      <trkpt lat="54.475142" lon="-3.207604"><ele>490.0</ele></trkpt>
      <trkpt lat="54.474943" lon="-3.207142"><ele>479.3</ele></trkpt>
      <trkpt lat="54.474940" lon="-3.206763"><ele>476.5</ele></trkpt>
      <trkpt lat="54.474820" lon="-3.206826"><ele>476.8</ele></trkpt>
      <trkpt lat="54.474526" lon="-3.207228"><ele>477.5</ele></trkpt>
      <trkpt lat="54.474188" lon="-3.206997"><ele>471.5</ele></trkpt>
      <trkpt lat="54.473810" lon="-3.206858"><ele>464.3</ele></trkpt>
      <trkpt lat="54.473714" lon="-3.206628"><ele>461.3</ele></trkpt>
      <trkpt lat="54.473499" lon="-3.206520"><ele>451.8</ele></trkpt>
      <trkpt lat="54.473326" lon="-3.206118"><ele>444.8</ele></trkpt>
      <trkpt lat="54.473210" lon="-3.206278"><ele>441.0</ele></trkpt>
      <trkpt lat="54.473072" lon="-3.206185"><ele>436.5</ele></trkpt>
      <trkpt lat="54.472961" lon="-3.206231"><ele>432.8</ele></trkpt>
      <trkpt lat="54.472901" lon="-3.206335"><ele>430.8</ele></trkpt>
      <trkpt lat="54.472876" lon="-3.206562"><ele>428.3</ele></trkpt>
      <trkpt lat="54.472796" lon="-3.206555"><ele>425.8</ele></trkpt>
      <trkpt lat="54.472692" lon="-3.206303"><ele>423.8</ele></trkpt>
      <trkpt lat="54.472586" lon="-3.206474"><ele>418.5</ele></trkpt>
      <trkpt lat="54.472507" lon="-3.206495"><ele>415.5</ele></trkpt>
      <trkpt lat="54.472337" lon="-3.207048"><ele>410.8</ele></trkpt>
      <trkpt lat="54.472335" lon="-3.207229"><ele>409.8</ele></trkpt>
      <trkpt lat="54.472249" lon="-3.207344"><ele>407.8</ele></trkpt>
      <trkpt lat="54.472108" lon="-3.207379"><ele>408.0</ele></trkpt>
      <trkpt lat="54.472088" lon="-3.207584"><ele>405.8</ele></trkpt>
      <trkpt lat="54.471903" lon="-3.207791"><ele>403.0</ele></trkpt>
      <trkpt lat="54.471792" lon="-3.208224"><ele>398.8</ele></trkpt>
      <trkpt lat="54.471566" lon="-3.208594"><ele>395.5</ele></trkpt>
      <trkpt lat="54.471666" lon="-3.208977"><ele>388.0</ele></trkpt>
      <trkpt lat="54.471490" lon="-3.209140"><ele>381.5</ele></trkpt>
      <trkpt lat="54.471409" lon="-3.209113"><ele>381.0</ele></trkpt>
      <trkpt lat="54.471200" lon="-3.209260"><ele>375.3</ele></trkpt>
      <trkpt lat="54.471091" lon="-3.209455"><ele>369.3</ele></trkpt>
      <trkpt lat="54.471020" lon="-3.209440"><ele>368.0</ele></trkpt>
      <trkpt lat="54.470889" lon="-3.209576"><ele>362.0</ele></trkpt>
      <trkpt lat="54.471156" lon="-3.209995"><ele>354.8</ele></trkpt>
      <trkpt lat="54.471221" lon="-3.210006"><ele>355.3</ele></trkpt>
      <trkpt lat="54.471348" lon="-3.210375"><ele>346.3</ele></trkpt>
      <trkpt lat="54.471337" lon="-3.210593"><ele>339.8</ele></trkpt>
      <trkpt lat="54.471613" lon="-3.211237"><ele>328.5</ele></trkpt>
      <trkpt lat="54.471822" lon="-3.212015"><ele>315.3</ele></trkpt>
      <trkpt lat="54.471787" lon="-3.212209"><ele>310.3</ele></trkpt>
      <trkpt lat="54.471836" lon="-3.212445"><ele>308.8</ele></trkpt>
      <trkpt lat="54.471738" lon="-3.212749"><ele>300.8</ele></trkpt>
      <trkpt lat="54.471698" lon="-3.213064"><ele>292.8</ele></trkpt>
      <trkpt lat="54.471760" lon="-3.213501"><ele>287.8</ele></trkpt>
      <trkpt lat="54.471668" lon="-3.213632"><ele>283.5</ele></trkpt>
      <trkpt lat="54.471640" lon="-3.213791"><ele>280.8</ele></trkpt>
      <trkpt lat="54.471585" lon="-3.214657"><ele>269.5</ele></trkpt>
      <trkpt lat="54.471604" lon="-3.215049"><ele>265.3</ele></trkpt>
      <trkpt lat="54.471885" lon="-3.216108"><ele>251.0</ele></trkpt>
      <trkpt lat="54.471823" lon="-3.216559"><ele>245.5</ele></trkpt>
      <trkpt lat="54.471861" lon="-3.216934"><ele>241.3</ele></trkpt>
      <trkpt lat="54.471928" lon="-3.217071"><ele>239.0</ele></trkpt>
      <trkpt lat="54.471951" lon="-3.217709"><ele>231.8</ele></trkpt>
      <trkpt lat="54.472069" lon="-3.217939"><ele>232.0</ele></trkpt>
      <trkpt lat="54.472086" lon="-3.218130"><ele>230.8</ele></trkpt>
      <trkpt lat="54.472278" lon="-3.218652"><ele>228.0</ele></trkpt>
      <trkpt lat="54.472303" lon="-3.218943"><ele>224.3</ele></trkpt>
      <trkpt lat="54.472432" lon="-3.219368"><ele>222.5</ele></trkpt>
      <trkpt lat="54.472382" lon="-3.219565"><ele>219.3</ele></trkpt>
      <trkpt lat="54.472353" lon="-3.220392"><ele>210.3</ele></trkpt>
      <trkpt lat="54.472418" lon="-3.220562"><ele>209.3</ele></trkpt>
      <trkpt lat="54.472602" lon="-3.221565"><ele>203.5</ele></trkpt>
      <trkpt lat="54.472676" lon="-3.221729"><ele>202.8</ele></trkpt>
      <trkpt lat="54.472711" lon="-3.222221"><ele>199.8</ele></trkpt>
      <trkpt lat="54.472662" lon="-3.222474"><ele>197.8</ele></trkpt>
      <trkpt lat="54.472726" lon="-3.222649"><ele>197.0</ele></trkpt>
      <trkpt lat="54.472719" lon="-3.223007"><ele>195.8</ele></trkpt>
      <trkpt lat="54.472774" lon="-3.223429"><ele>193.5</ele></trkpt>
      <trkpt lat="54.472703" lon="-3.223854"><ele>191.3</ele></trkpt>
      <trkpt lat="54.472706" lon="-3.224487"><ele>188.5</ele></trkpt>
      <trkpt lat="54.472776" lon="-3.224856"><ele>187.0</ele></trkpt>
      <trkpt lat="54.472740" lon="-3.225167"><ele>184.8</ele></trkpt>
      <trkpt lat="54.472829" lon="-3.225572"><ele>183.8</ele></trkpt>
      <trkpt lat="54.472820" lon="-3.225694"><ele>183.3</ele></trkpt>
      <trkpt lat="54.472680" lon="-3.226009"><ele>180.3</ele></trkpt>
      <trkpt lat="54.472786" lon="-3.227082"><ele>177.5</ele></trkpt>
      <trkpt lat="54.472775" lon="-3.227576"><ele>177.3</ele></trkpt>
      <trkpt lat="54.472899" lon="-3.228247"><ele>174.5</ele></trkpt>
      <trkpt lat="54.472937" lon="-3.229351"><ele>170.0</ele></trkpt>
      <trkpt lat="54.473018" lon="-3.229543"><ele>170.0</ele></trkpt>
      <trkpt lat="54.473123" lon="-3.230112"><ele>168.3</ele></trkpt>
      <trkpt lat="54.473157" lon="-3.230748"><ele>166.8</ele></trkpt>
      <trkpt lat="54.473047" lon="-3.231366"><ele>166.5</ele></trkpt>
      <trkpt lat="54.473078" lon="-3.231622"><ele>166.8</ele></trkpt>
      <trkpt lat="54.473037" lon="-3.232106"><ele>165.0</ele></trkpt>
      <trkpt lat="54.473059" lon="-3.232405"><ele>165.5</ele></trkpt>
      <trkpt lat="54.472957" lon="-3.232899"><ele>162.5</ele></trkpt>
      <trkpt lat="54.472883" lon="-3.233907"><ele>156.3</ele></trkpt>
      <trkpt lat="54.472887" lon="-3.235466"><ele>147.3</ele></trkpt>
      <trkpt lat="54.472657" lon="-3.236367"><ele>141.0</ele></trkpt>
      <trkpt lat="54.472496" lon="-3.236596"><ele>136.8</ele></trkpt>
      <trkpt lat="54.472480" lon="-3.236982"><ele>137.0</ele></trkpt>
      <trkpt lat="54.472267" lon="-3.237587"><ele>134.3</ele></trkpt>
      <trkpt lat="54.471997" lon="-3.237917"><ele>130.8</ele></trkpt>
      <trkpt lat="54.471709" lon="-3.238751"><ele>127.0</ele></trkpt>
      <trkpt lat="54.471562" lon="-3.240121"><ele>122.8</ele></trkpt>
      <trkpt lat="54.471293" lon="-3.241914"><ele>117.0</ele></trkpt>
      <trkpt lat="54.471193" lon="-3.243880"><ele>110.3</ele></trkpt>
      <trkpt lat="54.470907" lon="-3.243801"><ele>110.8</ele></trkpt>
      <trkpt lat="54.469822" lon="-3.242805"><ele>109.8</ele></trkpt>
      <trkpt lat="54.469494" lon="-3.242808"><ele>108.8</ele></trkpt>
      <trkpt lat="54.469212" lon="-3.242316"><ele>124.0</ele></trkpt>
      <trkpt lat="54.468262" lon="-3.244639"><ele>113.0</ele></trkpt>
      <trkpt lat="54.468000" lon="-3.245463"><ele>103.0</ele></trkpt>
      <trkpt lat="54.467951" lon="-3.245798"><ele>99.5</ele></trkpt>
      <trkpt lat="54.467491" lon="-3.246409"><ele>98.0</ele></trkpt>
      <trkpt lat="54.467207" lon="-3.246937"><ele>96.3</ele></trkpt>
      <trkpt lat="54.466945" lon="-3.247175"><ele>95.8</ele></trkpt>
      <trkpt lat="54.466628" lon="-3.247632"><ele>94.5</ele></trkpt>
      <trkpt lat="54.466100" lon="-3.248693"><ele>89.8</ele></trkpt>
      <trkpt lat="54.465610" lon="-3.249433"><ele>87.8</ele></trkpt>
      <trkpt lat="54.464642" lon="-3.250096"><ele>85.8</ele></trkpt>
      <trkpt lat="54.464432" lon="-3.250437"><ele>83.3</ele></trkpt>
      <trkpt lat="54.464077" lon="-3.250823"><ele>80.8</ele></trkpt>
      <trkpt lat="54.462831" lon="-3.251872"><ele>80.8</ele></trkpt>
      <trkpt lat="54.462499" lon="-3.252245"><ele>77.8</ele></trkpt>
      <trkpt lat="54.462516" lon="-3.252402"><ele>76.0</ele></trkpt>
      <trkpt lat="54.462387" lon="-3.252434"><ele>77.3</ele></trkpt>
      <trkpt lat="54.461835" lon="-3.253081"><ele>74.8</ele></trkpt>
      <trkpt lat="54.461158" lon="-3.253344"><ele>73.8</ele></trkpt>
      <trkpt lat="54.460874" lon="-3.253615"><ele>73.8</ele></trkpt>
      <trkpt lat="54.460388" lon="-3.254273"><ele>72.8</ele></trkpt>
      <trkpt lat="54.459798" lon="-3.254742"><ele>71.5</ele></trkpt>
      <trkpt lat="54.459432" lon="-3.255289"><ele>71.0</ele></trkpt>
      <trkpt lat="54.459254" lon="-3.255965"><ele>69.3</ele></trkpt>
      <trkpt lat="54.459124" lon="-3.256262"><ele>68.5</ele></trkpt>
      <trkpt lat="54.458624" lon="-3.256837"><ele>68.0</ele></trkpt>
      <trkpt lat="54.458533" lon="-3.257218"><ele>67.5</ele></trkpt>
      <trkpt lat="54.458475" lon="-3.257799"><ele>67.0</ele></trkpt>
      <trkpt lat="54.457881" lon="-3.259350"><ele>66.0</ele></trkpt>
      <trkpt lat="54.457698" lon="-3.259446"><ele>66.0</ele></trkpt>
      <trkpt lat="54.456888" lon="-3.260251"><ele>69.3</ele></trkpt>
      <trkpt lat="54.456161" lon="-3.261110"><ele>71.5</ele></trkpt>
      <trkpt lat="54.455935" lon="-3.260945"><ele>73.3</ele></trkpt>
      <trkpt lat="54.455604" lon="-3.261264"><ele>74.3</ele></trkpt>
      <trkpt lat="54.455223" lon="-3.261213"><ele>73.8</ele></trkpt>
      <trkpt lat="54.454983" lon="-3.260083"><ele>79.8</ele></trkpt>
      <trkpt lat="54.454902" lon="-3.259921"><ele>80.5</ele></trkpt>
      <trkpt lat="54.454446" lon="-3.259928"><ele>84.0</ele></trkpt>
      <trkpt lat="54.453082" lon="-3.259495"><ele>89.0</ele></trkpt>
      <trkpt lat="54.452800" lon="-3.259555"><ele>93.5</ele></trkpt>
      <trkpt lat="54.452517" lon="-3.259724"><ele>97.5</ele></trkpt>
      <trkpt lat="54.452405" lon="-3.259710"><ele>98.5</ele></trkpt>
      <trkpt lat="54.452280" lon="-3.259574"><ele>101.0</ele></trkpt>
      <trkpt lat="54.452093" lon="-3.259703"><ele>101.5</ele></trkpt>
      <trkpt lat="54.451883" lon="-3.259667"><ele>105.8</ele></trkpt>
      <trkpt lat="54.451529" lon="-3.259825"><ele>109.5</ele></trkpt>
      <trkpt lat="54.451260" lon="-3.259758"><ele>114.8</ele></trkpt>
      <trkpt lat="54.450932" lon="-3.259959"><ele>117.3</ele></trkpt>
      <trkpt lat="54.450665" lon="-3.259828"><ele>122.5</ele></trkpt>
      <trkpt lat="54.449761" lon="-3.259838"><ele>140.8</ele></trkpt>
      <trkpt lat="54.449458" lon="-3.259974"><ele>149.0</ele></trkpt>
      <trkpt lat="54.449312" lon="-3.259900"><ele>153.0</ele></trkpt>
      <trkpt lat="54.448168" lon="-3.260513"><ele>172.5</ele></trkpt>
      <trkpt lat="54.447937" lon="-3.260544"><ele>176.0</ele></trkpt>
      <trkpt lat="54.447715" lon="-3.260467"><ele>183.0</ele></trkpt>
      <trkpt lat="54.447584" lon="-3.260714"><ele>182.8</ele></trkpt>
      <trkpt lat="54.447443" lon="-3.260781"><ele>187.5</ele></trkpt>
      <trkpt lat="54.447246" lon="-3.261121"><ele>188.8</ele></trkpt>
      <trkpt lat="54.446816" lon="-3.261548"><ele>195.5</ele></trkpt>
      <trkpt lat="54.446598" lon="-3.261884"><ele>197.3</ele></trkpt>
      <trkpt lat="54.446346" lon="-3.262005"><ele>203.0</ele></trkpt>
      <trkpt lat="54.446176" lon="-3.262218"><ele>205.0</ele></trkpt>
      <trkpt lat="54.445962" lon="-3.262323"><ele>207.3</ele></trkpt>
      <trkpt lat="54.445617" lon="-3.262351"><ele>212.8</ele></trkpt>
      <trkpt lat="54.444828" lon="-3.263116"><ele>226.5</ele></trkpt>
      <trkpt lat="54.444568" lon="-3.263128"><ele>231.8</ele></trkpt>
      <trkpt lat="54.444157" lon="-3.263486"><ele>236.5</ele></trkpt>
      <trkpt lat="54.443748" lon="-3.264066"><ele>240.3</ele></trkpt>
      <trkpt lat="54.443724" lon="-3.264223"><ele>240.3</ele></trkpt>
      <trkpt lat="54.443608" lon="-3.264248"><ele>242.5</ele></trkpt>
      <trkpt lat="54.443509" lon="-3.264441"><ele>246.0</ele></trkpt>
      <trkpt lat="54.443297" lon="-3.264476"><ele>251.0</ele></trkpt>
      <trkpt lat="54.443224" lon="-3.264764"><ele>255.3</ele></trkpt>
      <trkpt lat="54.442897" lon="-3.264877"><ele>264.0</ele></trkpt>
      <trkpt lat="54.442520" lon="-3.264814"><ele>269.0</ele></trkpt>
      <trkpt lat="54.442328" lon="-3.265239"><ele>276.0</ele></trkpt>
      <trkpt lat="54.442198" lon="-3.265334"><ele>278.0</ele></trkpt>
      <trkpt lat="54.441907" lon="-3.265359"><ele>283.5</ele></trkpt>
      <trkpt lat="54.441416" lon="-3.265647"><ele>294.5</ele></trkpt>
      <trkpt lat="54.441199" lon="-3.265987"><ele>298.8</ele></trkpt>
      <trkpt lat="54.441013" lon="-3.266967"><ele>310.3</ele></trkpt>
      <trkpt lat="54.440977" lon="-3.267713"><ele>320.3</ele></trkpt>
      <trkpt lat="54.441018" lon="-3.268478"><ele>333.5</ele></trkpt>
      <trkpt lat="54.440856" lon="-3.268930"><ele>345.5</ele></trkpt>
      <trkpt lat="54.440671" lon="-3.269097"><ele>349.3</ele></trkpt>
      <trkpt lat="54.440619" lon="-3.269627"><ele>360.5</ele></trkpt>
      <trkpt lat="54.440491" lon="-3.270219"><ele>374.8</ele></trkpt>
      <trkpt lat="54.440237" lon="-3.271068"><ele>397.0</ele></trkpt>
      <trkpt lat="54.439973" lon="-3.271420"><ele>408.0</ele></trkpt>
      <trkpt lat="54.439664" lon="-3.272149"><ele>425.8</ele></trkpt>
      <trkpt lat="54.439320" lon="-3.272497"><ele>438.0</ele></trkpt>
      <trkpt lat="54.438842" lon="-3.273434"><ele>458.5</ele></trkpt>
      <trkpt lat="54.438389" lon="-3.274092"><ele>474.0</ele></trkpt>
      <trkpt lat="54.437923" lon="-3.274527"><ele>491.3</ele></trkpt>
      <trkpt lat="54.437406" lon="-3.274816"><ele>507.5</ele></trkpt>
      <trkpt lat="54.436970" lon="-3.275300"><ele>523.8</ele></trkpt>
      <trkpt lat="54.436703" lon="-3.275337"><ele>533.0</ele></trkpt>
      <trkpt lat="54.436570" lon="-3.275549"><ele>538.0</ele></trkpt>
      <trkpt lat="54.436393" lon="-3.275643"><ele>544.0</ele></trkpt>
      <trkpt lat="54.436377" lon="-3.275852"><ele>545.3</ele></trkpt>
      <trkpt lat="54.436304" lon="-3.276040"><ele>547.3</ele></trkpt>
      <trkpt lat="54.436231" lon="-3.277442"><ele>550.8</ele></trkpt>
      <trkpt lat="54.436132" lon="-3.278062"><ele>554.0</ele></trkpt>
      <trkpt lat="54.435523" lon="-3.279133"><ele>570.0</ele></trkpt>
      <trkpt lat="54.435146" lon="-3.279956"><ele>574.3</ele></trkpt>
      <trkpt lat="54.434780" lon="-3.280336"><ele>580.3</ele></trkpt>
      <trkpt lat="54.433674" lon="-3.282592"><ele>605.5</ele></trkpt>
      <trkpt lat="54.433206" lon="-3.282934"><ele>604.5</ele></trkpt>
      <trkpt lat="54.432773" lon="-3.283049"><ele>607.8</ele></trkpt>
      <trkpt lat="54.433206" lon="-3.282934"><ele>604.5</ele></trkpt>
      <trkpt lat="54.433674" lon="-3.282592"><ele>605.5</ele></trkpt>
      <trkpt lat="54.434780" lon="-3.280336"><ele>580.3</ele></trkpt>
      <trkpt lat="54.435146" lon="-3.279956"><ele>574.3</ele></trkpt>
      <trkpt lat="54.435523" lon="-3.279133"><ele>570.0</ele></trkpt>
      <trkpt lat="54.436132" lon="-3.278062"><ele>554.0</ele></trkpt>
      <trkpt lat="54.436231" lon="-3.277442"><ele>550.8</ele></trkpt>
      <trkpt lat="54.436304" lon="-3.276040"><ele>547.3</ele></trkpt>
      <trkpt lat="54.436377" lon="-3.275852"><ele>545.3</ele></trkpt>
      <trkpt lat="54.436393" lon="-3.275643"><ele>544.0</ele></trkpt>
      <trkpt lat="54.436570" lon="-3.275549"><ele>538.0</ele></trkpt>
      <trkpt lat="54.436703" lon="-3.275337"><ele>533.0</ele></trkpt>
      <trkpt lat="54.436970" lon="-3.275300"><ele>523.8</ele></trkpt>
      <trkpt lat="54.437406" lon="-3.274816"><ele>507.5</ele></trkpt>
      <trkpt lat="54.437923" lon="-3.274527"><ele>491.3</ele></trkpt>
      <trkpt lat="54.438389" lon="-3.274092"><ele>474.0</ele></trkpt>
      <trkpt lat="54.438842" lon="-3.273434"><ele>458.5</ele></trkpt>
      <trkpt lat="54.439320" lon="-3.272497"><ele>438.0</ele></trkpt>
      <trkpt lat="54.439664" lon="-3.272149"><ele>425.8</ele></trkpt>
      <trkpt lat="54.439973" lon="-3.271420"><ele>408.0</ele></trkpt>
      <trkpt lat="54.440171" lon="-3.271132"><ele>399.3</ele></trkpt>
      <trkpt lat="54.440088" lon="-3.270915"><ele>394.8</ele></trkpt>
      <trkpt lat="54.439983" lon="-3.270832"><ele>394.5</ele></trkpt>
      <trkpt lat="54.439867" lon="-3.269943"><ele>379.5</ele></trkpt>
      <trkpt lat="54.439622" lon="-3.269440"><ele>371.3</ele></trkpt>
      <trkpt lat="54.439548" lon="-3.269130"><ele>365.0</ele></trkpt>
      <trkpt lat="54.439530" lon="-3.268680"><ele>357.3</ele></trkpt>
      <trkpt lat="54.439406" lon="-3.268226"><ele>348.5</ele></trkpt>
      <trkpt lat="54.439140" lon="-3.267657"><ele>336.3</ele></trkpt>
      <trkpt lat="54.438944" lon="-3.266900"><ele>329.0</ele></trkpt>
      <trkpt lat="54.438418" lon="-3.266066"><ele>322.8</ele></trkpt>
      <trkpt lat="54.437606" lon="-3.263469"><ele>302.0</ele></trkpt>
      <trkpt lat="54.436991" lon="-3.262702"><ele>294.8</ele></trkpt>
      <trkpt lat="54.436322" lon="-3.261528"><ele>286.3</ele></trkpt>
      <trkpt lat="54.435827" lon="-3.261145"><ele>279.3</ele></trkpt>
      <trkpt lat="54.435815" lon="-3.260966"><ele>279.5</ele></trkpt>
      <trkpt lat="54.435870" lon="-3.260738"><ele>281.3</ele></trkpt>
      <trkpt lat="54.435523" lon="-3.260231"><ele>285.8</ele></trkpt>
      <trkpt lat="54.435423" lon="-3.259911"><ele>284.8</ele></trkpt>
      <trkpt lat="54.435113" lon="-3.259809"><ele>279.0</ele></trkpt>
      <trkpt lat="54.435147" lon="-3.259746"><ele>279.0</ele></trkpt>
      <trkpt lat="54.435138" lon="-3.259730"><ele>280.0</ele></trkpt>
      <trkpt lat="54.433880" lon="-3.258865"><ele>268.0</ele></trkpt>
      <trkpt lat="54.432959" lon="-3.257989"><ele>261.0</ele></trkpt>
      <trkpt lat="54.432448" lon="-3.257340"><ele>258.0</ele></trkpt>
      <trkpt lat="54.432265" lon="-3.256916"><ele>257.0</ele></trkpt>
      <trkpt lat="54.432266" lon="-3.256165"><ele>257.0</ele></trkpt>
      <trkpt lat="54.431035" lon="-3.255129"><ele>255.0</ele></trkpt>
      <trkpt lat="54.430371" lon="-3.254722"><ele>254.0</ele></trkpt>
      <trkpt lat="54.429662" lon="-3.254497"><ele>257.0</ele></trkpt>
      <trkpt lat="54.428410" lon="-3.254898"><ele>257.0</ele></trkpt>
      <trkpt lat="54.427731" lon="-3.255886"><ele>257.0</ele></trkpt>
      <trkpt lat="54.427375" lon="-3.256540"><ele>254.0</ele></trkpt>
      <trkpt lat="54.427321" lon="-3.256422"><ele>262.3</ele></trkpt>
      <trkpt lat="54.427225" lon="-3.256535"><ele>262.8</ele></trkpt>
      <trkpt lat="54.427321" lon="-3.256422"><ele>262.3</ele></trkpt>
      <trkpt lat="54.426841" lon="-3.256846"><ele>258.0</ele></trkpt>
      <trkpt lat="54.426206" lon="-3.256128"><ele>264.0</ele></trkpt>
      <trkpt lat="54.425799" lon="-3.256156"><ele>266.0</ele></trkpt>
      <trkpt lat="54.424902" lon="-3.255979"><ele>267.0</ele></trkpt>
      <trkpt lat="54.422782" lon="-3.256321"><ele>271.0</ele></trkpt>
      <trkpt lat="54.422524" lon="-3.256495"><ele>275.0</ele></trkpt>
    </trkseg>
  </trk>
</gpx>
