<?xml version="1.0" encoding="UTF-8"?>
<gpx version="1.1" creator="route-planner"
  xmlns="http://www.topografix.com/GPX/1/1"
  xmlns:xsi="http://www.w3.org/2001/XMLSchema-instance"
  xsi:schemaLocation="http://www.topografix.com/GPX/1/1 http://www.topografix.com/GPX/1/1/gpx.xsd">
  <metadata>
    <name>Lakeland Way — Anticlockwise day 4 (2026-09-03)</name>
    <desc>Base 18.4km, +657m; with 3 detour(s): +5.3km, +77m ascent. Total 23.6km.</desc>
  </metadata>
  <wpt lat="54.427755" lon="-3.029350">
    <ele>56.0</ele>
    <name>Elter Water</name>
    <desc>Shallow and reed-fringed at 56m, with the Langdale Pikes filling the view. Warmest water on the route by some margin. Detour: +2.1km, +13m ascent.</desc>
    <type>wild-swim-spots</type>
  </wpt>
  <wpt lat="54.419693" lon="-3.066548">
    <ele>104.0</ele>
    <name>Little Langdale Tarn</name>
    <desc>A quiet valley tarn at 104m with a reedy shore; much less visited than Elter Water. Detour: +2.3km, +64m ascent.</desc>
    <type>wild-swim-spots</type>
  </wpt>
  <wpt lat="54.384129" lon="-3.111418">
    <ele>413.0</ele>
    <name>Levers Water</name>
    <desc>A dammed tarn at 413m in the Coppermines valley above Coniston, surrounded by mine workings. Deep, clear and cold. Detour: +0.8km, +0m ascent.</desc>
    <type>wild-swim-spots</type>
  </wpt>
  <wpt lat="54.444492" lon="-3.037079">
    <name>Night 8 — camp</name>
    <type>camp</type>
  </wpt>
  <trk>
    <name>Day 4</name>
    <trkseg>
      <trkpt lat="54.381255" lon="-3.110080"><ele>437.0</ele></trkpt>
      <trkpt lat="54.381543" lon="-3.110045"><ele>431.0</ele></trkpt>
      <trkpt lat="54.381815" lon="-3.110299"><ele>422.0</ele></trkpt>
      <trkpt lat="54.381945" lon="-3.109809"><ele>420.0</ele></trkpt>
      <trkpt lat="54.382091" lon="-3.109566"><ele>417.0</ele></trkpt>
      <trkpt lat="54.382334" lon="-3.109482"><ele>412.0</ele></trkpt>
      <trkpt lat="54.382525" lon="-3.109036"><ele>407.0</ele></trkpt>
      <trkpt lat="54.383038" lon="-3.108352"><ele>413.0</ele></trkpt>
      <trkpt lat="54.383052" lon="-3.108390"><ele>411.3</ele></trkpt>
      <trkpt lat="54.382777" lon="-3.108600"><ele>411.8</ele></trkpt>
      <trkpt lat="54.382676" lon="-3.108791"><ele>412.5</ele></trkpt>
      <trkpt lat="54.382596" lon="-3.109114"><ele>413.8</ele></trkpt>
      <trkpt lat="54.382254" lon="-3.109698"><ele>413.0</ele></trkpt>
      <trkpt lat="54.382114" lon="-3.110074"><ele>413.8</ele></trkpt>
      <trkpt lat="54.382053" lon="-3.110545"><ele>415.3</ele></trkpt>
      <trkpt lat="54.381966" lon="-3.110742"><ele>417.0</ele></trkpt>
      <trkpt lat="54.381904" lon="-3.111178"><ele>414.5</ele></trkpt>
      <trkpt lat="54.381898" lon="-3.111398"><ele>414.0</ele></trkpt>
      <trkpt lat="54.381995" lon="-3.111809"><ele>414.8</ele></trkpt>
      <trkpt lat="54.382264" lon="-3.112577"><ele>413.8</ele></trkpt>
      <trkpt lat="54.382381" lon="-3.112870"><ele>414.0</ele></trkpt>
      <trkpt lat="54.382775" lon="-3.113371"><ele>412.5</ele></trkpt>
      <trkpt lat="54.382381" lon="-3.112870"><ele>414.0</ele></trkpt>
      <trkpt lat="54.382264" lon="-3.112577"><ele>413.8</ele></trkpt>
      <trkpt lat="54.381995" lon="-3.111809"><ele>414.8</ele></trkpt>
      <trkpt lat="54.381898" lon="-3.111398"><ele>414.0</ele></trkpt>
      <trkpt lat="54.381904" lon="-3.111178"><ele>414.5</ele></trkpt>
      <trkpt lat="54.381966" lon="-3.110742"><ele>417.0</ele></trkpt>
      <trkpt lat="54.382053" lon="-3.110545"><ele>415.3</ele></trkpt>
      <trkpt lat="54.382114" lon="-3.110074"><ele>413.8</ele></trkpt>
      <trkpt lat="54.382254" lon="-3.109698"><ele>413.0</ele></trkpt>
      <trkpt lat="54.382596" lon="-3.109114"><ele>413.8</ele></trkpt>
      <trkpt lat="54.382676" lon="-3.108791"><ele>412.5</ele></trkpt>
      <trkpt lat="54.382777" lon="-3.108600"><ele>411.8</ele></trkpt>
      <trkpt lat="54.383052" lon="-3.108390"><ele>411.3</ele></trkpt>
      <trkpt lat="54.383295" lon="-3.107490"><ele>411.0</ele></trkpt>
      <trkpt lat="54.382842" lon="-3.105804"><ele>415.0</ele></trkpt>
      <trkpt lat="54.382864" lon="-3.105418"><ele>418.0</ele></trkpt>
      <trkpt lat="54.382585" lon="-3.104585"><ele>413.0</ele></trkpt>
      <trkpt lat="54.382544" lon="-3.104240"><ele>410.0</ele></trkpt>
      <trkpt lat="54.382685" lon="-3.104013"><ele>405.0</ele></trkpt>
      <trkpt lat="54.382855" lon="-3.103953"><ele>401.0</ele></trkpt>
      <trkpt lat="54.382834" lon="-3.103438"><ele>383.0</ele></trkpt>
      <trkpt lat="54.382816" lon="-3.103153"><ele>374.0</ele></trkpt>
      <trkpt lat="54.382680" lon="-3.103021"><ele>374.0</ele></trkpt>
      <trkpt lat="54.382365" lon="-3.099879"><ele>302.0</ele></trkpt>
      <trkpt lat="54.382231" lon="-3.099467"><ele>295.0</ele></trkpt>
      <trkpt lat="54.382167" lon="-3.098961"><ele>295.0</ele></trkpt>
      <trkpt lat="54.382183" lon="-3.098565"><ele>296.0</ele></trkpt>
      <trkpt lat="54.382039" lon="-3.097960"><ele>294.0</ele></trkpt>
      <trkpt lat="54.382061" lon="-3.096222"><ele>315.0</ele></trkpt>
      <trkpt lat="54.382029" lon="-3.096973"><ele>301.0</ele></trkpt>
      <trkpt lat="54.381777" lon="-3.097223"><ele>286.0</ele></trkpt>
      <trkpt lat="54.381033" lon="-3.096506"><ele>252.0</ele></trkpt>
      <trkpt lat="54.380769" lon="-3.096048"><ele>244.0</ele></trkpt>
      <trkpt lat="54.380772" lon="-3.096403"><ele>242.0</ele></trkpt>
      <trkpt lat="54.380701" lon="-3.096604"><ele>239.0</ele></trkpt>
      <trkpt lat="54.379924" lon="-3.095425"><ele>222.0</ele></trkpt>
      <trkpt lat="54.379676" lon="-3.095300"><ele>216.0</ele></trkpt>
      <trkpt lat="54.379033" lon="-3.095229"><ele>205.0</ele></trkpt>
      <trkpt lat="54.378429" lon="-3.094934"><ele>195.0</ele></trkpt>
      <trkpt lat="54.378221" lon="-3.095143"><ele>193.0</ele></trkpt>
      <trkpt lat="54.377902" lon="-3.095124"><ele>193.0</ele></trkpt>
      <trkpt lat="54.377686" lon="-3.094904"><ele>193.0</ele></trkpt>
      <trkpt lat="54.377311" lon="-3.093531"><ele>186.0</ele></trkpt>
      <trkpt lat="54.375398" lon="-3.090722"><ele>176.0</ele></trkpt>
      <trkpt lat="54.375017" lon="-3.090058"><ele>176.0</ele></trkpt>
      <trkpt lat="54.374713" lon="-3.089835"><ele>175.0</ele></trkpt>
      <trkpt lat="54.374038" lon="-3.089066"><ele>169.0</ele></trkpt>
      <trkpt lat="54.373511" lon="-3.088666"><ele>162.0</ele></trkpt>
      <trkpt lat="54.372968" lon="-3.087858"><ele>153.0</ele></trkpt>
      <trkpt lat="54.372792" lon="-3.087993"><ele>155.0</ele></trkpt>
      <trkpt lat="54.372656" lon="-3.087764"><ele>153.0</ele></trkpt>
      <trkpt lat="54.372301" lon="-3.086263"><ele>140.0</ele></trkpt>
      <trkpt lat="54.371335" lon="-3.084563"><ele>122.0</ele></trkpt>
      <trkpt lat="54.370975" lon="-3.083545"><ele>109.0</ele></trkpt>
      <trkpt lat="54.370319" lon="-3.082841"><ele>99.0</ele></trkpt>
      <trkpt lat="54.370154" lon="-3.082365"><ele>95.0</ele></trkpt>
      <trkpt lat="54.369944" lon="-3.080696"><ele>86.0</ele></trkpt>
      <trkpt lat="54.369558" lon="-3.079806"><ele>82.0</ele></trkpt>
      <trkpt lat="54.369517" lon="-3.079548"><ele>80.0</ele></trkpt>
      <trkpt lat="54.369117" lon="-3.078861"><ele>78.0</ele></trkpt>
      <trkpt lat="54.368976" lon="-3.078471"><ele>77.0</ele></trkpt>
      <trkpt lat="54.369127" lon="-3.077713"><ele>70.0</ele></trkpt>
      <trkpt lat="54.369101" lon="-3.076468"><ele>61.0</ele></trkpt>
      <trkpt lat="54.368898" lon="-3.076033"><ele>59.0</ele></trkpt>
      <trkpt lat="54.368975" lon="-3.075721"><ele>59.0</ele></trkpt>
      <trkpt lat="54.369306" lon="-3.075794"><ele>60.0</ele></trkpt>
      <trkpt lat="54.369807" lon="-3.076419"><ele>61.0</ele></trkpt>
      <trkpt lat="54.370101" lon="-3.076309"><ele>62.0</ele></trkpt>
      <trkpt lat="54.370465" lon="-3.076887"><ele>64.0</ele></trkpt>
      <trkpt lat="54.370801" lon="-3.077733"><ele>67.0</ele></trkpt>
      <trkpt lat="54.371067" lon="-3.078094"><ele>71.0</ele></trkpt>
      <trkpt lat="54.371910" lon="-3.078191"><ele>85.0</ele></trkpt>
      <trkpt lat="54.372190" lon="-3.078360"><ele>92.0</ele></trkpt>
      <trkpt lat="54.372392" lon="-3.078773"><ele>96.0</ele></trkpt>
      <trkpt lat="54.372401" lon="-3.079181"><ele>100.0</ele></trkpt>
      <trkpt lat="54.372188" lon="-3.079915"><ele>102.0</ele></trkpt>
      <trkpt lat="54.372240" lon="-3.080368"><ele>105.0</ele></trkpt>
      <trkpt lat="54.372608" lon="-3.081826"><ele>123.0</ele></trkpt>
      <trkpt lat="54.372328" lon="-3.083771"><ele>129.0</ele></trkpt>
      <trkpt lat="54.372271" lon="-3.084596"><ele>138.0</ele></trkpt>
      <trkpt lat="54.372615" lon="-3.086708"><ele>145.0</ele></trkpt>
      <trkpt lat="54.372784" lon="-3.087346"><ele>147.0</ele></trkpt>
      <trkpt lat="54.373176" lon="-3.088236"><ele>156.0</ele></trkpt>
      <trkpt lat="54.373503" lon="-3.088653"><ele>162.0</ele></trkpt>
      <trkpt lat="54.374043" lon="-3.089086"><ele>169.0</ele></trkpt>
      <trkpt lat="54.374622" lon="-3.089316"><ele>179.0</ele></trkpt>
      <trkpt lat="54.374881" lon="-3.089677"><ele>179.0</ele></trkpt>
      <trkpt lat="54.375223" lon="-3.089933"><ele>184.0</ele></trkpt>
      <trkpt lat="54.376413" lon="-3.090308"><ele>198.0</ele></trkpt>
      <trkpt lat="54.376840" lon="-3.090147"><ele>205.0</ele></trkpt>
      <trkpt lat="54.377066" lon="-3.089949"><ele>213.0</ele></trkpt>
      <trkpt lat="54.377050" lon="-3.089702"><ele>217.0</ele></trkpt>
      <trkpt lat="54.376895" lon="-3.089526"><ele>219.0</ele></trkpt>
      <trkpt lat="54.376640" lon="-3.089423"><ele>219.0</ele></trkpt>
      <trkpt lat="54.377327" lon="-3.088755"><ele>243.0</ele></trkpt>
      <trkpt lat="54.377790" lon="-3.088724"><ele>256.0</ele></trkpt>
      <trkpt lat="54.378587" lon="-3.089013"><ele>276.0</ele></trkpt>
      <trkpt lat="54.379959" lon="-3.090026"><ele>317.0</ele></trkpt>
      <trkpt lat="54.380399" lon="-3.090467"><ele>330.0</ele></trkpt>
      <trkpt lat="54.380582" lon="-3.090311"><ele>341.0</ele></trkpt>
      <trkpt lat="54.380718" lon="-3.090401"><ele>345.0</ele></trkpt>
      <trkpt lat="54.381783" lon="-3.090182"><ele>381.0</ele></trkpt>
      <trkpt lat="54.381997" lon="-3.089909"><ele>391.0</ele></trkpt>
      <trkpt lat="54.382910" lon="-3.089171"><ele>410.0</ele></trkpt>
      <trkpt lat="54.383322" lon="-3.088495"><ele>412.0</ele></trkpt>
      <trkpt lat="54.383682" lon="-3.088129"><ele>413.0</ele></trkpt>
      <trkpt lat="54.383973" lon="-3.087687"><ele>412.0</ele></trkpt>
      <trkpt lat="54.385822" lon="-3.085665"><ele>408.0</ele></trkpt>
      <trkpt lat="54.386240" lon="-3.085107"><ele>399.0</ele></trkpt>
      <trkpt lat="54.386532" lon="-3.084546"><ele>390.0</ele></trkpt>
      <trkpt lat="54.386961" lon="-3.084118"><ele>382.0</ele></trkpt>
      <trkpt lat="54.387203" lon="-3.083566"><ele>378.0</ele></trkpt>
      <trkpt lat="54.387846" lon="-3.082945"><ele>358.0</ele></trkpt>
      <trkpt lat="54.388818" lon="-3.081168"><ele>340.0</ele></trkpt>
      <trkpt lat="54.389356" lon="-3.080367"><ele>331.0</ele></trkpt>
      <trkpt lat="54.389902" lon="-3.080048"><ele>326.0</ele></trkpt>
      <trkpt lat="54.390199" lon="-3.079691"><ele>323.0</ele></trkpt>
      <trkpt lat="54.390657" lon="-3.078813"><ele>323.0</ele></trkpt>
      <trkpt lat="54.390885" lon="-3.079119"><ele>320.0</ele></trkpt>
      <trkpt lat="54.391395" lon="-3.078768"><ele>319.0</ele></trkpt>
      <trkpt lat="54.391895" lon="-3.078706"><ele>321.0</ele></trkpt>
      <trkpt lat="54.392191" lon="-3.078456"><ele>324.0</ele></trkpt>
      <trkpt lat="54.392787" lon="-3.078161"><ele>318.0</ele></trkpt>
      <trkpt lat="54.393112" lon="-3.078169"><ele>317.0</ele></trkpt>
      <trkpt lat="54.393701" lon="-3.078657"><ele>316.0</ele></trkpt>
      <trkpt lat="54.394025" lon="-3.078784"><ele>316.0</ele></trkpt>
      <trkpt lat="54.395810" lon="-3.080301"><ele>306.0</ele></trkpt>
      <trkpt lat="54.396185" lon="-3.080322"><ele>304.0</ele></trkpt>
      <trkpt lat="54.396563" lon="-3.079977"><ele>299.0</ele></trkpt>
      <trkpt lat="54.396804" lon="-3.079512"><ele>297.0</ele></trkpt>
      <trkpt lat="54.396714" lon="-3.079069"><ele>295.0</ele></trkpt>
      <trkpt lat="54.396258" lon="-3.077705"><ele>293.0</ele></trkpt>
      <trkpt lat="54.396181" lon="-3.077274"><ele>289.0</ele></trkpt>
      <trkpt lat="54.395843" lon="-3.076589"><ele>290.0</ele></trkpt>
      <trkpt lat="54.395778" lon="-3.076234"><ele>289.0</ele></trkpt>
      <trkpt lat="54.395829" lon="-3.075387"><ele>285.0</ele></trkpt>
      <trkpt lat="54.396015" lon="-3.074856"><ele>279.0</ele></trkpt>
      <trkpt lat="54.396943" lon="-3.073056"><ele>236.0</ele></trkpt>
      <trkpt lat="54.397231" lon="-3.072945"><ele>225.0</ele></trkpt>
      <trkpt lat="54.398350" lon="-3.072148"><ele>199.0</ele></trkpt>
      <trkpt lat="54.398606" lon="-3.071501"><ele>194.0</ele></trkpt>
      <trkpt lat="54.398871" lon="-3.071186"><ele>183.0</ele></trkpt>
      <trkpt lat="54.399405" lon="-3.070127"><ele>162.0</ele></trkpt>
      <trkpt lat="54.399702" lon="-3.069748"><ele>154.0</ele></trkpt>
      <trkpt lat="54.400312" lon="-3.070612"><ele>156.0</ele></trkpt>
      <trkpt lat="54.400538" lon="-3.071262"><ele>160.0</ele></trkpt>
      <trkpt lat="54.400731" lon="-3.071363"><ele>163.0</ele></trkpt>
      <trkpt lat="54.401353" lon="-3.070886"><ele>163.0</ele></trkpt>
      <trkpt lat="54.402493" lon="-3.069156"><ele>156.0</ele></trkpt>
      <trkpt lat="54.403412" lon="-3.066926"><ele>156.0</ele></trkpt>
      <trkpt lat="54.403372" lon="-3.065799"><ele>161.0</ele></trkpt>
      <trkpt lat="54.403540" lon="-3.065095"><ele>164.0</ele></trkpt>
      <trkpt lat="54.403849" lon="-3.064813"><ele>165.0</ele></trkpt>
      <trkpt lat="54.404149" lon="-3.064778"><ele>168.0</ele></trkpt>
      <trkpt lat="54.404490" lon="-3.064358"><ele>166.0</ele></trkpt>
      <trkpt lat="54.404781" lon="-3.063947"><ele>161.0</ele></trkpt>
      <trkpt lat="54.405132" lon="-3.063033"><ele>154.0</ele></trkpt>
      <trkpt lat="54.405751" lon="-3.062309"><ele>151.0</ele></trkpt>
      <trkpt lat="54.407622" lon="-3.061864"><ele>152.0</ele></trkpt>
      <trkpt lat="54.407893" lon="-3.061560"><ele>150.0</ele></trkpt>
      <trkpt lat="54.408492" lon="-3.061597"><ele>151.0</ele></trkpt>
      <trkpt lat="54.408763" lon="-3.061368"><ele>148.0</ele></trkpt>
      <trkpt lat="54.409110" lon="-3.060905"><ele>145.0</ele></trkpt>
      <trkpt lat="54.409015" lon="-3.060376"><ele>138.0</ele></trkpt>
      <trkpt lat="54.409182" lon="-3.059801"><ele>132.0</ele></trkpt>
      <trkpt lat="54.408645" lon="-3.059154"><ele>128.0</ele></trkpt>
      <trkpt lat="54.408377" lon="-3.058375"><ele>132.0</ele></trkpt>
      <trkpt lat="54.407561" lon="-3.057452"><ele>142.0</ele></trkpt>
      <trkpt lat="54.407357" lon="-3.056428"><ele>148.0</ele></trkpt>
      <trkpt lat="54.407186" lon="-3.056005"><ele>152.0</ele></trkpt>
      <trkpt lat="54.407202" lon="-3.055630"><ele>155.0</ele></trkpt>
      <trkpt lat="54.407617" lon="-3.055318"><ele>154.0</ele></trkpt>
      <trkpt lat="54.407700" lon="-3.055009"><ele>154.0</ele></trkpt>
      <trkpt lat="54.407667" lon="-3.054526"><ele>153.0</ele></trkpt>
      <trkpt lat="54.407552" lon="-3.054104"><ele>153.0</ele></trkpt>
      <trkpt lat="54.407628" lon="-3.053301"><ele>157.0</ele></trkpt>
      <trkpt lat="54.407606" lon="-3.053000"><ele>157.0</ele></trkpt>
      <trkpt lat="54.407858" lon="-3.052739"><ele>161.0</ele></trkpt>
      <trkpt lat="54.407908" lon="-3.052000"><ele>167.0</ele></trkpt>
      <trkpt lat="54.407685" lon="-3.051822"><ele>165.0</ele></trkpt>
      <trkpt lat="54.407313" lon="-3.052188"><ele>156.0</ele></trkpt>
      <trkpt lat="54.406966" lon="-3.052576"><ele>161.0</ele></trkpt>
      <trkpt lat="54.406401" lon="-3.053635"><ele>164.0</ele></trkpt>
      <trkpt lat="54.406966" lon="-3.052566"><ele>161.0</ele></trkpt>
      <trkpt lat="54.407691" lon="-3.051812"><ele>165.0</ele></trkpt>
      <trkpt lat="54.408274" lon="-3.052299"><ele>167.0</ele></trkpt>
      <trkpt lat="54.409509" lon="-3.051751"><ele>158.0</ele></trkpt>
      <trkpt lat="54.410805" lon="-3.051387"><ele>157.0</ele></trkpt>
      <trkpt lat="54.411194" lon="-3.051794"><ele>150.0</ele></trkpt>
      <trkpt lat="54.411638" lon="-3.052525"><ele>144.0</ele></trkpt>
      <trkpt lat="54.412792" lon="-3.052565"><ele>151.0</ele></trkpt>
      <trkpt lat="54.413115" lon="-3.052767"><ele>153.0</ele></trkpt>
      <trkpt lat="54.413434" lon="-3.052786"><ele>156.0</ele></trkpt>
      <trkpt lat="54.413997" lon="-3.052607"><ele>154.0</ele></trkpt>
      <trkpt lat="54.414503" lon="-3.052609"><ele>146.0</ele></trkpt>
      <trkpt lat="54.414722" lon="-3.052497"><ele>144.0</ele></trkpt>
      <trkpt lat="54.415037" lon="-3.052280"><ele>140.0</ele></trkpt>
      <trkpt lat="54.415127" lon="-3.051917"><ele>144.0</ele></trkpt>
      <trkpt lat="54.415323" lon="-3.051686"><ele>143.0</ele></trkpt>
      <trkpt lat="54.416226" lon="-3.051184"><ele>130.0</ele></trkpt>
      <trkpt lat="54.416460" lon="-3.051544"><ele>125.0</ele></trkpt>
      <trkpt lat="54.416401" lon="-3.051939"><ele>121.0</ele></trkpt>
      <trkpt lat="54.415754" lon="-3.053092"><ele>115.0</ele></trkpt>
      <trkpt lat="54.415562" lon="-3.053559"><ele>113.0</ele></trkpt>
      <trkpt lat="54.415527" lon="-3.053966"><ele>110.0</ele></trkpt>
      <trkpt lat="54.415625" lon="-3.054269"><ele>111.0</ele></trkpt>
      <trkpt lat="54.415525" lon="-3.054943"><ele>112.0</ele></trkpt>
      <trkpt lat="54.415553" lon="-3.055330"><ele>113.0</ele></trkpt>
      <trkpt lat="54.415776" lon="-3.055571"><ele>116.0</ele></trkpt>
      <trkpt lat="54.416124" lon="-3.055688"><ele>119.0</ele></trkpt>
      <trkpt lat="54.416699" lon="-3.055713"><ele>113.0</ele></trkpt>
      <trkpt lat="54.417011" lon="-3.056397"><ele>113.0</ele></trkpt>
      <trkpt lat="54.417087" lon="-3.056957"><ele>114.0</ele></trkpt>
      <trkpt lat="54.416985" lon="-3.057244"><ele>119.0</ele></trkpt>
      <trkpt lat="54.416939" lon="-3.058166"><ele>124.0</ele></trkpt>
      <trkpt lat="54.416424" lon="-3.058539"><ele>146.0</ele></trkpt>
      <trkpt lat="54.416933" lon="-3.058166"><ele>125.0</ele></trkpt>
      <trkpt lat="54.417180" lon="-3.059192"><ele>115.0</ele></trkpt>
      <trkpt lat="54.417406" lon="-3.060485"><ele>110.0</ele></trkpt>
      <trkpt lat="54.417390" lon="-3.060882"><ele>110.0</ele></trkpt>
      <trkpt lat="54.417184" lon="-3.061595"><ele>113.0</ele></trkpt>
      <trkpt lat="54.417241" lon="-3.062198"><ele>110.0</ele></trkpt>
      <trkpt lat="54.417727" lon="-3.061599"><ele>105.0</ele></trkpt>
      <trkpt lat="54.418183" lon="-3.061610"><ele>108.0</ele></trkpt>
      <trkpt lat="54.418126" lon="-3.061584"><ele>105.5</ele></trkpt>
      <trkpt lat="54.418109" lon="-3.061689"><ele>104.8</ele></trkpt>
      <trkpt lat="54.418268" lon="-3.061762"><ele>106.8</ele></trkpt>
      <trkpt lat="54.418365" lon="-3.061597"><ele>110.3</ele></trkpt>
      <trkpt lat="54.418484" lon="-3.061147"><ele>115.8</ele></trkpt>
      <trkpt lat="54.418663" lon="-3.060906"><ele>123.8</ele></trkpt>
      <trkpt lat="54.419239" lon="-3.060385"><ele>132.5</ele></trkpt>
      <trkpt lat="54.419593" lon="-3.059921"><ele>133.0</ele></trkpt>
      <trkpt lat="54.420316" lon="-3.059277"><ele>136.8</ele></trkpt>
      <trkpt lat="54.420417" lon="-3.059374"><ele>137.3</ele></trkpt>
      <trkpt lat="54.420640" lon="-3.059421"><ele>138.5</ele></trkpt>
      <trkpt lat="54.421498" lon="-3.059320"><ele>138.5</ele></trkpt>
      <trkpt lat="54.422008" lon="-3.058896"><ele>138.0</ele></trkpt>
      <trkpt lat="54.422109" lon="-3.059908"><ele>136.8</ele></trkpt>
      <trkpt lat="54.422103" lon="-3.060716"><ele>131.0</ele></trkpt>
      <trkpt lat="54.422156" lon="-3.060955"><ele>129.5</ele></trkpt>
      <trkpt lat="54.422288" lon="-3.061219"><ele>128.3</ele></trkpt>
      <trkpt lat="54.422301" lon="-3.061386"><ele>126.0</ele></trkpt>
      <trkpt lat="54.422213" lon="-3.061779"><ele>122.8</ele></trkpt>
      <trkpt lat="54.421995" lon="-3.062117"><ele>121.8</ele></trkpt>
      <trkpt lat="54.421854" lon="-3.062502"><ele>121.0</ele></trkpt>
      <trkpt lat="54.421925" lon="-3.063668"><ele>114.3</ele></trkpt>
      <trkpt lat="54.422009" lon="-3.064090"><ele>113.3</ele></trkpt>
      <trkpt lat="54.421754" lon="-3.065725"><ele>110.5</ele></trkpt>
      <trkpt lat="54.421714" lon="-3.066372"><ele>108.8</ele></trkpt>
      <trkpt lat="54.421767" lon="-3.066985"><ele>108.8</ele></trkpt>
      <trkpt lat="54.421615" lon="-3.067338"><ele>109.3</ele></trkpt>
      <trkpt lat="54.421228" lon="-3.067960"><ele>112.3</ele></trkpt>
      <trkpt lat="54.421615" lon="-3.067338"><ele>109.3</ele></trkpt>
      <trkpt lat="54.421767" lon="-3.066985"><ele>108.8</ele></trkpt>
      <trkpt lat="54.421714" lon="-3.066372"><ele>108.8</ele></trkpt>
      <trkpt lat="54.421754" lon="-3.065725"><ele>110.5</ele></trkpt>
      <trkpt lat="54.422009" lon="-3.064090"><ele>113.3</ele></trkpt>
      <trkpt lat="54.421925" lon="-3.063668"><ele>114.3</ele></trkpt>
      <trkpt lat="54.421854" lon="-3.062502"><ele>121.0</ele></trkpt>
      <trkpt lat="54.421995" lon="-3.062117"><ele>121.8</ele></trkpt>
      <trkpt lat="54.422213" lon="-3.061779"><ele>122.8</ele></trkpt>
      <trkpt lat="54.422301" lon="-3.061386"><ele>126.0</ele></trkpt>
      <trkpt lat="54.422288" lon="-3.061219"><ele>128.3</ele></trkpt>
      <trkpt lat="54.422156" lon="-3.060955"><ele>129.5</ele></trkpt>
      <trkpt lat="54.422103" lon="-3.060716"><ele>131.0</ele></trkpt>
      <trkpt lat="54.422109" lon="-3.059908"><ele>136.8</ele></trkpt>
      <trkpt lat="54.422008" lon="-3.058896"><ele>138.0</ele></trkpt>
      <trkpt lat="54.421498" lon="-3.059320"><ele>138.5</ele></trkpt>
      <trkpt lat="54.420640" lon="-3.059421"><ele>138.5</ele></trkpt>
      <trkpt lat="54.420417" lon="-3.059374"><ele>137.3</ele></trkpt>
      <trkpt lat="54.420316" lon="-3.059277"><ele>136.8</ele></trkpt>
      <trkpt lat="54.419593" lon="-3.059921"><ele>133.0</ele></trkpt>
      <trkpt lat="54.419239" lon="-3.060385"><ele>132.5</ele></trkpt>
      <trkpt lat="54.418663" lon="-3.060906"><ele>123.8</ele></trkpt>
      <trkpt lat="54.418484" lon="-3.061147"><ele>115.8</ele></trkpt>
      <trkpt lat="54.418365" lon="-3.061597"><ele>110.3</ele></trkpt>
      <trkpt lat="54.418268" lon="-3.061762"><ele>106.8</ele></trkpt>
      <trkpt lat="54.418109" lon="-3.061689"><ele>104.8</ele></trkpt>
      <trkpt lat="54.418126" lon="-3.061584"><ele>105.5</ele></trkpt>
      <trkpt lat="54.418267" lon="-3.061301"><ele>110.0</ele></trkpt>
      <trkpt lat="54.418296" lon="-3.060798"><ele>113.0</ele></trkpt>
      <trkpt lat="54.418629" lon="-3.059884"><ele>120.0</ele></trkpt>
      <trkpt lat="54.418953" lon="-3.059248"><ele>129.0</ele></trkpt>
      <trkpt lat="54.419317" lon="-3.058238"><ele>129.0</ele></trkpt>
      <trkpt lat="54.419511" lon="-3.057503"><ele>124.0</ele></trkpt>
      <trkpt lat="54.419757" lon="-3.057177"><ele>123.0</ele></trkpt>
      <trkpt lat="54.419680" lon="-3.056788"><ele>116.0</ele></trkpt>
      <trkpt lat="54.420019" lon="-3.056507"><ele>118.0</ele></trkpt>
      <trkpt lat="54.420288" lon="-3.056482"><ele>121.0</ele></trkpt>
      <trkpt lat="54.420661" lon="-3.055966"><ele>119.0</ele></trkpt>
      <trkpt lat="54.421304" lon="-3.055897"><ele>126.0</ele></trkpt>
      <trkpt lat="54.421373" lon="-3.054482"><ele>121.0</ele></trkpt>
      <trkpt lat="54.421268" lon="-3.052248"><ele>120.0</ele></trkpt>
      <trkpt lat="54.422102" lon="-3.052430"><ele>127.0</ele></trkpt>
      <trkpt lat="54.422336" lon="-3.052136"><ele>132.0</ele></trkpt>
      <trkpt lat="54.422502" lon="-3.051711"><ele>137.0</ele></trkpt>
      <trkpt lat="54.422932" lon="-3.051078"><ele>144.0</ele></trkpt>
      <trkpt lat="54.423549" lon="-3.050439"><ele>151.0</ele></trkpt>
      <trkpt lat="54.423865" lon="-3.049986"><ele>155.0</ele></trkpt>
      <trkpt lat="54.424063" lon="-3.049487"><ele>159.0</ele></trkpt>
      <trkpt lat="54.424302" lon="-3.049278"><ele>160.0</ele></trkpt>
      <trkpt lat="54.424465" lon="-3.049283"><ele>161.0</ele></trkpt>
      <trkpt lat="54.424860" lon="-3.049722"><ele>163.0</ele></trkpt>
      <trkpt lat="54.425520" lon="-3.049975"><ele>168.0</ele></trkpt>
      <trkpt lat="54.426638" lon="-3.049821"><ele>173.0</ele></trkpt>
      <trkpt lat="54.427071" lon="-3.048845"><ele>173.0</ele></trkpt>
      <trkpt lat="54.427424" lon="-3.048554"><ele>173.0</ele></trkpt>
      <trkpt lat="54.427828" lon="-3.047985"><ele>167.0</ele></trkpt>
      <trkpt lat="54.428658" lon="-3.045828"><ele>141.0</ele></trkpt>
      <trkpt lat="54.429157" lon="-3.045186"><ele>144.0</ele></trkpt>
      <trkpt lat="54.429297" lon="-3.044846"><ele>143.0</ele></trkpt>
      <trkpt lat="54.429287" lon="-3.044492"><ele>139.0</ele></trkpt>
      <trkpt lat="54.429160" lon="-3.044038"><ele>133.0</ele></trkpt>
      <trkpt lat="54.429157" lon="-3.043652"><ele>131.0</ele></trkpt>
      <trkpt lat="54.429254" lon="-3.043300"><ele>131.0</ele></trkpt>
      <trkpt lat="54.429413" lon="-3.042918"><ele>130.0</ele></trkpt>
      <trkpt lat="54.430153" lon="-3.041874"><ele>115.0</ele></trkpt>
      <trkpt lat="54.430485" lon="-3.041164"><ele>103.0</ele></trkpt>
      <trkpt lat="54.430953" lon="-3.038976"><ele>81.0</ele></trkpt>
      <trkpt lat="54.431609" lon="-3.038177"><ele>76.0</ele></trkpt>
      <trkpt lat="54.431609" lon="-3.038249"><ele>69.8</ele></trkpt>
      <trkpt lat="54.431992" lon="-3.038210"><ele>68.0</ele></trkpt>
      <trkpt lat="54.432422" lon="-3.038278"><ele>65.8</ele></trkpt>
      <trkpt lat="54.432869" lon="-3.038109"><ele>62.8</ele></trkpt>
      <trkpt lat="54.433543" lon="-3.038330"><ele>62.8</ele></trkpt>
      <trkpt lat="54.433705" lon="-3.038263"><ele>61.0</ele></trkpt>
      <trkpt lat="54.433876" lon="-3.038007"><ele>61.8</ele></trkpt>
      <trkpt lat="54.433439" lon="-3.037357"><ele>59.3</ele></trkpt>
      <trkpt lat="54.433065" lon="-3.036326"><ele>58.3</ele></trkpt>
      <trkpt lat="54.432255" lon="-3.034699"><ele>58.0</ele></trkpt>
      <trkpt lat="54.431809" lon="-3.033945"><ele>57.5</ele></trkpt>
      <trkpt lat="54.431516" lon="-3.032901"><ele>57.0</ele></trkpt>
      <trkpt lat="54.431304" lon="-3.032554"><ele>57.0</ele></trkpt>
      <trkpt lat="54.430851" lon="-3.032060"><ele>57.5</ele></trkpt>
      <trkpt lat="54.430524" lon="-3.031391"><ele>57.0</ele></trkpt>
      <trkpt lat="54.430365" lon="-3.030899"><ele>57.0</ele></trkpt>
      <trkpt lat="54.430312" lon="-3.030534"><ele>57.0</ele></trkpt>
      <trkpt lat="54.430424" lon="-3.029192"><ele>56.0</ele></trkpt>
      <trkpt lat="54.430216" lon="-3.028111"><ele>56.5</ele></trkpt>
      <trkpt lat="54.430424" lon="-3.029192"><ele>56.0</ele></trkpt>
      <trkpt lat="54.430312" lon="-3.030534"><ele>57.0</ele></trkpt>
      <trkpt lat="54.430365" lon="-3.030899"><ele>57.0</ele></trkpt>
      <trkpt lat="54.430524" lon="-3.031391"><ele>57.0</ele></trkpt>
      <trkpt lat="54.430851" lon="-3.032060"><ele>57.5</ele></trkpt>
      <trkpt lat="54.431304" lon="-3.032554"><ele>57.0</ele></trkpt>
      <trkpt lat="54.431516" lon="-3.032901"><ele>57.0</ele></trkpt>
      <trkpt lat="54.431809" lon="-3.033945"><ele>57.5</ele></trkpt>
      <trkpt lat="54.432255" lon="-3.034699"><ele>58.0</ele></trkpt>
      <trkpt lat="54.433065" lon="-3.036326"><ele>58.3</ele></trkpt>
      <trkpt lat="54.433439" lon="-3.037357"><ele>59.3</ele></trkpt>
      <trkpt lat="54.433876" lon="-3.038007"><ele>61.8</ele></trkpt>
      <trkpt lat="54.433705" lon="-3.038263"><ele>61.0</ele></trkpt>
      <trkpt lat="54.433543" lon="-3.038330"><ele>62.8</ele></trkpt>
      <trkpt lat="54.432869" lon="-3.038109"><ele>62.8</ele></trkpt>
      <trkpt lat="54.432422" lon="-3.038278"><ele>65.8</ele></trkpt>
      <trkpt lat="54.431992" lon="-3.038210"><ele>68.0</ele></trkpt>
      <trkpt lat="54.431609" lon="-3.038249"><ele>69.8</ele></trkpt>
      <trkpt lat="54.432009" lon="-3.038102"><ele>74.0</ele></trkpt>
      <trkpt lat="54.432376" lon="-3.038186"><ele>73.0</ele></trkpt>
      <trkpt lat="54.432921" lon="-3.038007"><ele>69.0</ele></trkpt>
      <trkpt lat="54.433611" lon="-3.038271"><ele>67.0</ele></trkpt>
      <trkpt lat="54.433827" lon="-3.037858"><ele>63.0</ele></trkpt>
      <trkpt lat="54.434229" lon="-3.037525"><ele>68.0</ele></trkpt>
      <trkpt lat="54.433840" lon="-3.037869"><ele>63.0</ele></trkpt>
      <trkpt lat="54.433618" lon="-3.038271"><ele>67.0</ele></trkpt>
      <trkpt lat="54.434022" lon="-3.039097"><ele>72.0</ele></trkpt>
      <trkpt lat="54.434078" lon="-3.039935"><ele>75.0</ele></trkpt>
      <trkpt lat="54.434282" lon="-3.040166"><ele>77.0</ele></trkpt>
      <trkpt lat="54.434617" lon="-3.040314"><ele>78.0</ele></trkpt>
      <trkpt lat="54.434945" lon="-3.040655"><ele>79.0</ele></trkpt>
      <trkpt lat="54.435524" lon="-3.041507"><ele>81.0</ele></trkpt>
      <trkpt lat="54.435745" lon="-3.042006"><ele>83.0</ele></trkpt>
      <trkpt lat="54.436755" lon="-3.042869"><ele>80.0</ele></trkpt>
      <trkpt lat="54.437069" lon="-3.043349"><ele>81.0</ele></trkpt>
      <trkpt lat="54.437421" lon="-3.044506"><ele>79.0</ele></trkpt>
      <trkpt lat="54.437532" lon="-3.045335"><ele>80.0</ele></trkpt>
      <trkpt lat="54.437777" lon="-3.045878"><ele>80.0</ele></trkpt>
      <trkpt lat="54.438014" lon="-3.045895"><ele>78.0</ele></trkpt>
      <trkpt lat="54.438020" lon="-3.046678"><ele>83.0</ele></trkpt>
      <trkpt lat="54.438582" lon="-3.047272"><ele>89.0</ele></trkpt>
      <trkpt lat="54.438964" lon="-3.047829"><ele>88.0</ele></trkpt>
      <trkpt lat="54.439475" lon="-3.047960"><ele>88.0</ele></trkpt>
      <trkpt lat="54.439940" lon="-3.048240"><ele>93.0</ele></trkpt>
      <trkpt lat="54.440261" lon="-3.048023"><ele>101.0</ele></trkpt>
      <trkpt lat="54.440881" lon="-3.045571"><ele>109.0</ele></trkpt>
      <trkpt lat="54.440996" lon="-3.044501"><ele>111.0</ele></trkpt>
      <trkpt lat="54.441283" lon="-3.043811"><ele>117.0</ele></trkpt>
      <trkpt lat="54.441554" lon="-3.043485"><ele>125.0</ele></trkpt>
      <trkpt lat="54.441539" lon="-3.043023"><ele>125.0</ele></trkpt>
      <trkpt lat="54.441841" lon="-3.042076"><ele>148.0</ele></trkpt>
      <trkpt lat="54.441858" lon="-3.041486"><ele>154.0</ele></trkpt>
      <trkpt lat="54.441734" lon="-3.040732"><ele>156.0</ele></trkpt>
      <trkpt lat="54.441613" lon="-3.040300"><ele>158.0</ele></trkpt>
      <trkpt lat="54.441409" lon="-3.040048"><ele>156.0</ele></trkpt>
      <trkpt lat="54.441274" lon="-3.039722"><ele>160.0</ele></trkpt>
      <trkpt lat="54.441112" lon="-3.038978"><ele>168.0</ele></trkpt>
      <trkpt lat="54.441710" lon="-3.038371"><ele>207.0</ele></trkpt>
      <trkpt lat="54.441925" lon="-3.038011"><ele>220.0</ele></trkpt>
      <trkpt lat="54.442174" lon="-3.037374"><ele>238.0</ele></trkpt>
      <trkpt lat="54.442449" lon="-3.037349"><ele>250.0</ele></trkpt>
      <trkpt lat="54.442578" lon="-3.037631"><ele>252.0</ele></trkpt>
      <trkpt lat="54.443580" lon="-3.037184"><ele>260.0</ele></trkpt>
      <trkpt lat="54.444492" lon="-3.037079"><ele>248.0</ele></trkpt>
    </trkseg>
  </trk>
</gpx>
