<?xml version="1.0" encoding="UTF-8"?>
<gpx version="1.1" creator="route-planner"
  xmlns="http://www.topografix.com/GPX/1/1"
  xmlns:xsi="http://www.w3.org/2001/XMLSchema-instance"
  xsi:schemaLocation="http://www.topografix.com/GPX/1/1 http://www.topografix.com/GPX/1/1/gpx.xsd">
  <metadata>
    <name>Lakeland Way — Clockwise day 4 (2026-09-03)</name>
    <desc>Base 18.8km, +572m; with 5 detour(s): +6.3km, +683m ascent. Total 25.1km.</desc>
  </metadata>
  <wpt lat="54.502648" lon="-3.210634">
    <ele>697.0</ele>
    <name>Grey Knotts 697m</name>
    <desc>A 697m rocky top directly above Honister Pass. Detour: +1.8km, +141m ascent.</desc>
    <type>peaks</type>
  </wpt>
  <wpt lat="54.506763" lon="-3.247822">
    <ele>597.0</ele>
    <name>Haystacks 597m</name>
    <desc>At 597m, Wainwright&apos;s favourite fell and where his ashes were scattered. A knot of small tops, tarns and rock — far more interesting than its modest height suggests. Detour: +6.3km, +504m ascent.</desc>
    <type>peaks</type>
  </wpt>
  <wpt lat="54.587513" lon="-3.261122">
    <ele>770.0</ele>
    <name>Hopegill Head 770m</name>
    <desc>A 770m summit at the head of Hobcarton Crag, one of the sharpest tops here. Detour: +3.1km, +270m ascent.</desc>
    <type>peaks</type>
  </wpt>
  <wpt lat="54.504258" lon="-3.234004">
    <ele>487.0</ele>
    <name>Blackbeck Tarn</name>
    <desc>Just east of Innominate Tarn at 487m, a little larger and usually deserted. Detour: +2.9km, +208m ascent.</desc>
    <type>wild-swim-spots</type>
  </wpt>
  <wpt lat="54.505491" lon="-3.240770">
    <ele>528.0</ele>
    <name>Innominate Tarn</name>
    <desc>The tarn on Haystacks where Wainwright&apos;s ashes were scattered, at 528m. Small, peat-bedded and ringed by rock — the view down Ennerdale is the reason to stop. Detour: +3.4km, +261m ascent.</desc>
    <type>wild-swim-spots</type>
  </wpt>
  <wpt lat="54.578964" lon="-3.255136">
    <name>Night 4 — camp</name>
    <type>camp</type>
  </wpt>
  <trk>
    <name>Day 4</name>
    <trkseg>
      <trkpt lat="54.511615" lon="-3.212557"><ele>524.0</ele></trkpt>
      <trkpt lat="54.510455" lon="-3.212630"><ele>531.0</ele></trkpt>
      <trkpt lat="54.510457" lon="-3.212586"><ele>528.0</ele></trkpt>
      <trkpt lat="54.509099" lon="-3.212387"><ele>537.0</ele></trkpt>
      <trkpt lat="54.508917" lon="-3.212253"><ele>540.3</ele></trkpt>
      <trkpt lat="54.508476" lon="-3.212247"><ele>546.3</ele></trkpt>
      <trkpt lat="54.507968" lon="-3.212344"><ele>551.5</ele></trkpt>
      <trkpt lat="54.507713" lon="-3.212489"><ele>553.5</ele></trkpt>
      <trkpt lat="54.507345" lon="-3.212403"><ele>557.5</ele></trkpt>
      <trkpt lat="54.506959" lon="-3.212469"><ele>562.0</ele></trkpt>
      <trkpt lat="54.506763" lon="-3.212425"><ele>564.8</ele></trkpt>
      <trkpt lat="54.506431" lon="-3.212590"><ele>567.8</ele></trkpt>
      <trkpt lat="54.505867" lon="-3.212225"><ele>585.0</ele></trkpt>
      <trkpt lat="54.505575" lon="-3.211952"><ele>595.5</ele></trkpt>
      <trkpt lat="54.505490" lon="-3.211867"><ele>598.5</ele></trkpt>
      <trkpt lat="54.505403" lon="-3.211614"><ele>604.5</ele></trkpt>
      <trkpt lat="54.505114" lon="-3.211352"><ele>615.8</ele></trkpt>
      <trkpt lat="54.504882" lon="-3.211288"><ele>623.0</ele></trkpt>
      <trkpt lat="54.504346" lon="-3.211391"><ele>630.5</ele></trkpt>
      <trkpt lat="54.504126" lon="-3.211342"><ele>636.0</ele></trkpt>
      <trkpt lat="54.503527" lon="-3.211399"><ele>648.3</ele></trkpt>
      <trkpt lat="54.502890" lon="-3.210793"><ele>668.0</ele></trkpt>
      <trkpt lat="54.502760" lon="-3.210972"><ele>667.5</ele></trkpt>
      <trkpt lat="54.502680" lon="-3.210994"><ele>675.0</ele></trkpt>
      <trkpt lat="54.502760" lon="-3.210972"><ele>667.5</ele></trkpt>
      <trkpt lat="54.502890" lon="-3.210793"><ele>668.0</ele></trkpt>
      <trkpt lat="54.503527" lon="-3.211399"><ele>648.3</ele></trkpt>
      <trkpt lat="54.504126" lon="-3.211342"><ele>636.0</ele></trkpt>
      <trkpt lat="54.504346" lon="-3.211391"><ele>630.5</ele></trkpt>
      <trkpt lat="54.504882" lon="-3.211288"><ele>623.0</ele></trkpt>
      <trkpt lat="54.505114" lon="-3.211352"><ele>615.8</ele></trkpt>
      <trkpt lat="54.505403" lon="-3.211614"><ele>604.5</ele></trkpt>
      <trkpt lat="54.505490" lon="-3.211867"><ele>598.5</ele></trkpt>
      <trkpt lat="54.505575" lon="-3.211952"><ele>595.5</ele></trkpt>
      <trkpt lat="54.505867" lon="-3.212225"><ele>585.0</ele></trkpt>
      <trkpt lat="54.506431" lon="-3.212590"><ele>567.8</ele></trkpt>
      <trkpt lat="54.506763" lon="-3.212425"><ele>564.8</ele></trkpt>
      <trkpt lat="54.506959" lon="-3.212469"><ele>562.0</ele></trkpt>
      <trkpt lat="54.507345" lon="-3.212403"><ele>557.5</ele></trkpt>
      <trkpt lat="54.507713" lon="-3.212489"><ele>553.5</ele></trkpt>
      <trkpt lat="54.507968" lon="-3.212344"><ele>551.5</ele></trkpt>
      <trkpt lat="54.508476" lon="-3.212247"><ele>546.3</ele></trkpt>
      <trkpt lat="54.508917" lon="-3.212253"><ele>540.3</ele></trkpt>
      <trkpt lat="54.509099" lon="-3.212387"><ele>537.0</ele></trkpt>
      <trkpt lat="54.510457" lon="-3.212586"><ele>528.0</ele></trkpt>
      <trkpt lat="54.509785" lon="-3.222268"><ele>479.0</ele></trkpt>
      <trkpt lat="54.509945" lon="-3.223066"><ele>476.0</ele></trkpt>
      <trkpt lat="54.510048" lon="-3.224668"><ele>461.0</ele></trkpt>
      <trkpt lat="54.510228" lon="-3.225318"><ele>462.0</ele></trkpt>
      <trkpt lat="54.509875" lon="-3.226359"><ele>443.0</ele></trkpt>
      <trkpt lat="54.509848" lon="-3.227184"><ele>437.0</ele></trkpt>
      <trkpt lat="54.509888" lon="-3.227486"><ele>433.0</ele></trkpt>
      <trkpt lat="54.509522" lon="-3.229835"><ele>390.0</ele></trkpt>
      <trkpt lat="54.509542" lon="-3.232186"><ele>334.0</ele></trkpt>
      <trkpt lat="54.509391" lon="-3.232289"><ele>333.0</ele></trkpt>
      <trkpt lat="54.509355" lon="-3.232749"><ele>320.0</ele></trkpt>
      <trkpt lat="54.509185" lon="-3.232916"><ele>315.0</ele></trkpt>
      <trkpt lat="54.509226" lon="-3.233196"><ele>306.0</ele></trkpt>
      <trkpt lat="54.509228" lon="-3.233188"><ele>312.8</ele></trkpt>
      <trkpt lat="54.509196" lon="-3.232959"><ele>318.3</ele></trkpt>
      <trkpt lat="54.509369" lon="-3.232810"><ele>325.3</ele></trkpt>
      <trkpt lat="54.509339" lon="-3.232582"><ele>328.5</ele></trkpt>
      <trkpt lat="54.509401" lon="-3.232249"><ele>336.8</ele></trkpt>
      <trkpt lat="54.509514" lon="-3.232295"><ele>339.5</ele></trkpt>
      <trkpt lat="54.509550" lon="-3.232124"><ele>344.0</ele></trkpt>
      <trkpt lat="54.509516" lon="-3.230538"><ele>372.0</ele></trkpt>
      <trkpt lat="54.509658" lon="-3.228997"><ele>400.0</ele></trkpt>
      <trkpt lat="54.509786" lon="-3.228515"><ele>409.8</ele></trkpt>
      <trkpt lat="54.509788" lon="-3.228015"><ele>414.8</ele></trkpt>
      <trkpt lat="54.509725" lon="-3.228069"><ele>411.0</ele></trkpt>
      <trkpt lat="54.509673" lon="-3.228395"><ele>409.0</ele></trkpt>
      <trkpt lat="54.509495" lon="-3.228478"><ele>409.5</ele></trkpt>
      <trkpt lat="54.509466" lon="-3.228425"><ele>412.0</ele></trkpt>
      <trkpt lat="54.509270" lon="-3.228455"><ele>417.0</ele></trkpt>
      <trkpt lat="54.509224" lon="-3.228380"><ele>420.5</ele></trkpt>
      <trkpt lat="54.509110" lon="-3.228587"><ele>421.0</ele></trkpt>
      <trkpt lat="54.508990" lon="-3.228232"><ele>432.8</ele></trkpt>
      <trkpt lat="54.508900" lon="-3.228200"><ele>437.0</ele></trkpt>
      <trkpt lat="54.508822" lon="-3.228275"><ele>438.3</ele></trkpt>
      <trkpt lat="54.508638" lon="-3.228103"><ele>443.5</ele></trkpt>
      <trkpt lat="54.508097" lon="-3.228337"><ele>461.8</ele></trkpt>
      <trkpt lat="54.507594" lon="-3.228158"><ele>478.8</ele></trkpt>
      <trkpt lat="54.507096" lon="-3.228090"><ele>481.8</ele></trkpt>
      <trkpt lat="54.506810" lon="-3.228636"><ele>490.0</ele></trkpt>
      <trkpt lat="54.506833" lon="-3.228976"><ele>492.3</ele></trkpt>
      <trkpt lat="54.506755" lon="-3.229576"><ele>492.5</ele></trkpt>
      <trkpt lat="54.506761" lon="-3.229860"><ele>491.0</ele></trkpt>
      <trkpt lat="54.506712" lon="-3.230105"><ele>487.8</ele></trkpt>
      <trkpt lat="54.506437" lon="-3.230637"><ele>485.5</ele></trkpt>
      <trkpt lat="54.506386" lon="-3.231366"><ele>490.5</ele></trkpt>
      <trkpt lat="54.506281" lon="-3.231618"><ele>490.8</ele></trkpt>
      <trkpt lat="54.506273" lon="-3.231890"><ele>492.5</ele></trkpt>
      <trkpt lat="54.506344" lon="-3.232053"><ele>494.8</ele></trkpt>
      <trkpt lat="54.506356" lon="-3.232263"><ele>497.0</ele></trkpt>
      <trkpt lat="54.506219" lon="-3.232638"><ele>501.3</ele></trkpt>
      <trkpt lat="54.506205" lon="-3.232850"><ele>505.0</ele></trkpt>
      <trkpt lat="54.506267" lon="-3.233312"><ele>511.8</ele></trkpt>
      <trkpt lat="54.506216" lon="-3.233467"><ele>508.5</ele></trkpt>
      <trkpt lat="54.506387" lon="-3.234628"><ele>497.0</ele></trkpt>
      <trkpt lat="54.506362" lon="-3.234743"><ele>496.3</ele></trkpt>
      <trkpt lat="54.506193" lon="-3.234840"><ele>497.3</ele></trkpt>
      <trkpt lat="54.505901" lon="-3.234837"><ele>498.5</ele></trkpt>
      <trkpt lat="54.505392" lon="-3.235090"><ele>482.8</ele></trkpt>
      <trkpt lat="54.505303" lon="-3.235407"><ele>479.5</ele></trkpt>
      <trkpt lat="54.505564" lon="-3.236221"><ele>483.8</ele></trkpt>
      <trkpt lat="54.505658" lon="-3.237455"><ele>495.5</ele></trkpt>
      <trkpt lat="54.505552" lon="-3.238131"><ele>505.0</ele></trkpt>
      <trkpt lat="54.505681" lon="-3.239265"><ele>525.8</ele></trkpt>
      <trkpt lat="54.505677" lon="-3.239730"><ele>529.5</ele></trkpt>
      <trkpt lat="54.505715" lon="-3.240101"><ele>528.3</ele></trkpt>
      <trkpt lat="54.505806" lon="-3.240167"><ele>528.0</ele></trkpt>
      <trkpt lat="54.505896" lon="-3.240640"><ele>528.5</ele></trkpt>
      <trkpt lat="54.505847" lon="-3.241072"><ele>526.3</ele></trkpt>
      <trkpt lat="54.506071" lon="-3.242066"><ele>531.5</ele></trkpt>
      <trkpt lat="54.505995" lon="-3.242440"><ele>531.3</ele></trkpt>
      <trkpt lat="54.506062" lon="-3.243549"><ele>540.0</ele></trkpt>
      <trkpt lat="54.506028" lon="-3.243894"><ele>539.0</ele></trkpt>
      <trkpt lat="54.506081" lon="-3.244386"><ele>540.8</ele></trkpt>
      <trkpt lat="54.506248" lon="-3.244648"><ele>547.8</ele></trkpt>
      <trkpt lat="54.506321" lon="-3.245204"><ele>557.3</ele></trkpt>
      <trkpt lat="54.506571" lon="-3.245796"><ele>565.3</ele></trkpt>
      <trkpt lat="54.506646" lon="-3.246091"><ele>566.5</ele></trkpt>
      <trkpt lat="54.506875" lon="-3.246514"><ele>575.3</ele></trkpt>
      <trkpt lat="54.506856" lon="-3.246938"><ele>579.5</ele></trkpt>
      <trkpt lat="54.506936" lon="-3.247182"><ele>583.5</ele></trkpt>
      <trkpt lat="54.506964" lon="-3.247815"><ele>578.5</ele></trkpt>
      <trkpt lat="54.507075" lon="-3.248390"><ele>561.8</ele></trkpt>
      <trkpt lat="54.507183" lon="-3.248626"><ele>556.0</ele></trkpt>
      <trkpt lat="54.507218" lon="-3.248920"><ele>546.8</ele></trkpt>
      <trkpt lat="54.507119" lon="-3.249174"><ele>535.5</ele></trkpt>
      <trkpt lat="54.506976" lon="-3.249343"><ele>525.3</ele></trkpt>
      <trkpt lat="54.506916" lon="-3.249629"><ele>513.8</ele></trkpt>
      <trkpt lat="54.506754" lon="-3.249758"><ele>503.3</ele></trkpt>
      <trkpt lat="54.506678" lon="-3.250036"><ele>492.0</ele></trkpt>
      <trkpt lat="54.506626" lon="-3.250636"><ele>471.0</ele></trkpt>
      <trkpt lat="54.507425" lon="-3.251458"><ele>471.8</ele></trkpt>
      <trkpt lat="54.507896" lon="-3.251811"><ele>469.3</ele></trkpt>
      <trkpt lat="54.508324" lon="-3.252478"><ele>457.5</ele></trkpt>
      <trkpt lat="54.508621" lon="-3.252782"><ele>453.8</ele></trkpt>
      <trkpt lat="54.508782" lon="-3.253076"><ele>447.0</ele></trkpt>
      <trkpt lat="54.508855" lon="-3.253759"><ele>446.3</ele></trkpt>
      <trkpt lat="54.509337" lon="-3.253866"><ele>443.3</ele></trkpt>
      <trkpt lat="54.509534" lon="-3.254001"><ele>442.5</ele></trkpt>
      <trkpt lat="54.509641" lon="-3.254256"><ele>442.0</ele></trkpt>
      <trkpt lat="54.509837" lon="-3.254449"><ele>442.0</ele></trkpt>
      <trkpt lat="54.510086" lon="-3.254533"><ele>441.8</ele></trkpt>
      <trkpt lat="54.510207" lon="-3.254915"><ele>438.8</ele></trkpt>
      <trkpt lat="54.510351" lon="-3.255112"><ele>431.3</ele></trkpt>
      <trkpt lat="54.510375" lon="-3.255277"><ele>426.8</ele></trkpt>
      <trkpt lat="54.510504" lon="-3.255413"><ele>421.8</ele></trkpt>
      <trkpt lat="54.510855" lon="-3.255415"><ele>409.5</ele></trkpt>
      <trkpt lat="54.510895" lon="-3.255570"><ele>407.0</ele></trkpt>
      <trkpt lat="54.511314" lon="-3.255739"><ele>392.5</ele></trkpt>
      <trkpt lat="54.511532" lon="-3.255916"><ele>382.8</ele></trkpt>
      <trkpt lat="54.511814" lon="-3.255984"><ele>372.5</ele></trkpt>
      <trkpt lat="54.511886" lon="-3.255940"><ele>368.8</ele></trkpt>
      <trkpt lat="54.512207" lon="-3.256212"><ele>362.5</ele></trkpt>
      <trkpt lat="54.512488" lon="-3.256254"><ele>354.8</ele></trkpt>
      <trkpt lat="54.512887" lon="-3.256137"><ele>344.3</ele></trkpt>
      <trkpt lat="54.513172" lon="-3.256205"><ele>341.5</ele></trkpt>
      <trkpt lat="54.513465" lon="-3.255996"><ele>333.8</ele></trkpt>
      <trkpt lat="54.513917" lon="-3.255841"><ele>328.8</ele></trkpt>
      <trkpt lat="54.514347" lon="-3.255849"><ele>327.3</ele></trkpt>
      <trkpt lat="54.514832" lon="-3.256152"><ele>329.8</ele></trkpt>
      <trkpt lat="54.514991" lon="-3.256132"><ele>326.5</ele></trkpt>
      <trkpt lat="54.515082" lon="-3.256197"><ele>323.3</ele></trkpt>
      <trkpt lat="54.515228" lon="-3.256481"><ele>324.3</ele></trkpt>
      <trkpt lat="54.515329" lon="-3.256542"><ele>322.3</ele></trkpt>
      <trkpt lat="54.515666" lon="-3.256623"><ele>311.3</ele></trkpt>
      <trkpt lat="54.515813" lon="-3.256580"><ele>304.3</ele></trkpt>
      <trkpt lat="54.516095" lon="-3.256681"><ele>298.8</ele></trkpt>
      <trkpt lat="54.516439" lon="-3.256571"><ele>287.8</ele></trkpt>
      <trkpt lat="54.516627" lon="-3.256714"><ele>284.8</ele></trkpt>
      <trkpt lat="54.517013" lon="-3.256442"><ele>271.8</ele></trkpt>
      <trkpt lat="54.517849" lon="-3.256082"><ele>255.5</ele></trkpt>
      <trkpt lat="54.518125" lon="-3.256058"><ele>249.0</ele></trkpt>
      <trkpt lat="54.518285" lon="-3.255928"><ele>244.0</ele></trkpt>
      <trkpt lat="54.518756" lon="-3.255914"><ele>233.8</ele></trkpt>
      <trkpt lat="54.519435" lon="-3.256024"><ele>219.8</ele></trkpt>
      <trkpt lat="54.519819" lon="-3.256286"><ele>210.3</ele></trkpt>
      <trkpt lat="54.519888" lon="-3.256214"><ele>206.5</ele></trkpt>
      <trkpt lat="54.520188" lon="-3.256262"><ele>196.5</ele></trkpt>
      <trkpt lat="54.520420" lon="-3.256210"><ele>187.3</ele></trkpt>
      <trkpt lat="54.520504" lon="-3.256327"><ele>185.8</ele></trkpt>
      <trkpt lat="54.520806" lon="-3.256422"><ele>175.0</ele></trkpt>
      <trkpt lat="54.521400" lon="-3.256207"><ele>155.3</ele></trkpt>
      <trkpt lat="54.522064" lon="-3.256388"><ele>138.0</ele></trkpt>
      <trkpt lat="54.522351" lon="-3.256559"><ele>131.8</ele></trkpt>
      <trkpt lat="54.523198" lon="-3.257302"><ele>118.3</ele></trkpt>
      <trkpt lat="54.523517" lon="-3.257471"><ele>112.0</ele></trkpt>
      <trkpt lat="54.523956" lon="-3.258038"><ele>109.8</ele></trkpt>
      <trkpt lat="54.524847" lon="-3.259560"><ele>111.3</ele></trkpt>
      <trkpt lat="54.525263" lon="-3.260004"><ele>110.3</ele></trkpt>
      <trkpt lat="54.525996" lon="-3.261391"><ele>108.0</ele></trkpt>
      <trkpt lat="54.526290" lon="-3.261690"><ele>106.3</ele></trkpt>
      <trkpt lat="54.526417" lon="-3.261996"><ele>106.0</ele></trkpt>
      <trkpt lat="54.526700" lon="-3.262348"><ele>104.8</ele></trkpt>
      <trkpt lat="54.527971" lon="-3.264424"><ele>108.3</ele></trkpt>
      <trkpt lat="54.528324" lon="-3.264858"><ele>107.5</ele></trkpt>
      <trkpt lat="54.528557" lon="-3.265292"><ele>108.8</ele></trkpt>
      <trkpt lat="54.528980" lon="-3.266456"><ele>115.3</ele></trkpt>
      <trkpt lat="54.529449" lon="-3.267317"><ele>110.5</ele></trkpt>
      <trkpt lat="54.529706" lon="-3.268458"><ele>107.8</ele></trkpt>
      <trkpt lat="54.529992" lon="-3.268955"><ele>102.5</ele></trkpt>
      <trkpt lat="54.530099" lon="-3.269246"><ele>104.0</ele></trkpt>
      <trkpt lat="54.530743" lon="-3.270001"><ele>104.3</ele></trkpt>
      <trkpt lat="54.531023" lon="-3.270455"><ele>104.5</ele></trkpt>
      <trkpt lat="54.531467" lon="-3.271420"><ele>104.0</ele></trkpt>
      <trkpt lat="54.531821" lon="-3.272644"><ele>106.0</ele></trkpt>
      <trkpt lat="54.532494" lon="-3.274007"><ele>102.8</ele></trkpt>
      <trkpt lat="54.532606" lon="-3.274329"><ele>104.0</ele></trkpt>
      <trkpt lat="54.532850" lon="-3.275905"><ele>108.5</ele></trkpt>
      <trkpt lat="54.533044" lon="-3.276272"><ele>109.5</ele></trkpt>
      <trkpt lat="54.533334" lon="-3.276571"><ele>105.3</ele></trkpt>
      <trkpt lat="54.534272" lon="-3.278673"><ele>105.5</ele></trkpt>
      <trkpt lat="54.534796" lon="-3.279515"><ele>101.5</ele></trkpt>
      <trkpt lat="54.534878" lon="-3.280026"><ele>105.8</ele></trkpt>
      <trkpt lat="54.535255" lon="-3.280200"><ele>102.8</ele></trkpt>
      <trkpt lat="54.535545" lon="-3.280120"><ele>101.0</ele></trkpt>
      <trkpt lat="54.535628" lon="-3.279954"><ele>101.0</ele></trkpt>
      <trkpt lat="54.535540" lon="-3.279940"><ele>101.0</ele></trkpt>
      <trkpt lat="54.535445" lon="-3.279809"><ele>101.0</ele></trkpt>
      <trkpt lat="54.535363" lon="-3.279583"><ele>101.0</ele></trkpt>
      <trkpt lat="54.535373" lon="-3.279462"><ele>101.0</ele></trkpt>
      <trkpt lat="54.535469" lon="-3.279310"><ele>101.0</ele></trkpt>
      <trkpt lat="54.535484" lon="-3.279335"><ele>104.0</ele></trkpt>
      <trkpt lat="54.535972" lon="-3.278535"><ele>104.0</ele></trkpt>
      <trkpt lat="54.536107" lon="-3.278185"><ele>105.0</ele></trkpt>
      <trkpt lat="54.537962" lon="-3.279091"><ele>105.0</ele></trkpt>
      <trkpt lat="54.538149" lon="-3.279043"><ele>105.0</ele></trkpt>
      <trkpt lat="54.539011" lon="-3.278222"><ele>108.0</ele></trkpt>
      <trkpt lat="54.539719" lon="-3.277714"><ele>110.0</ele></trkpt>
      <trkpt lat="54.540393" lon="-3.278744"><ele>111.0</ele></trkpt>
      <trkpt lat="54.540715" lon="-3.277702"><ele>114.0</ele></trkpt>
      <trkpt lat="54.540968" lon="-3.277346"><ele>114.0</ele></trkpt>
      <trkpt lat="54.541318" lon="-3.276627"><ele>117.0</ele></trkpt>
      <trkpt lat="54.540714" lon="-3.277703"><ele>114.0</ele></trkpt>
      <trkpt lat="54.540385" lon="-3.278733"><ele>111.0</ele></trkpt>
      <trkpt lat="54.540031" lon="-3.278110"><ele>110.0</ele></trkpt>
      <trkpt lat="54.539718" lon="-3.277725"><ele>110.0</ele></trkpt>
      <trkpt lat="54.539437" lon="-3.278349"><ele>109.0</ele></trkpt>
      <trkpt lat="54.539122" lon="-3.279326"><ele>107.0</ele></trkpt>
      <trkpt lat="54.537579" lon="-3.286285"><ele>102.0</ele></trkpt>
      <trkpt lat="54.537581" lon="-3.286628"><ele>102.0</ele></trkpt>
      <trkpt lat="54.537811" lon="-3.287312"><ele>101.0</ele></trkpt>
      <trkpt lat="54.537509" lon="-3.287549"><ele>113.0</ele></trkpt>
      <trkpt lat="54.537524" lon="-3.287882"><ele>118.0</ele></trkpt>
      <trkpt lat="54.537658" lon="-3.288197"><ele>117.0</ele></trkpt>
      <trkpt lat="54.538053" lon="-3.288478"><ele>105.0</ele></trkpt>
      <trkpt lat="54.538237" lon="-3.288806"><ele>106.0</ele></trkpt>
      <trkpt lat="54.538481" lon="-3.289854"><ele>109.0</ele></trkpt>
      <trkpt lat="54.538784" lon="-3.290562"><ele>107.0</ele></trkpt>
      <trkpt lat="54.539611" lon="-3.291264"><ele>103.0</ele></trkpt>
      <trkpt lat="54.539758" lon="-3.291547"><ele>103.0</ele></trkpt>
      <trkpt lat="54.539968" lon="-3.292198"><ele>104.0</ele></trkpt>
      <trkpt lat="54.540017" lon="-3.292865"><ele>107.0</ele></trkpt>
      <trkpt lat="54.540295" lon="-3.293721"><ele>107.0</ele></trkpt>
      <trkpt lat="54.540460" lon="-3.293995"><ele>107.0</ele></trkpt>
      <trkpt lat="54.541386" lon="-3.294690"><ele>105.0</ele></trkpt>
      <trkpt lat="54.541852" lon="-3.295338"><ele>107.0</ele></trkpt>
      <trkpt lat="54.542445" lon="-3.295754"><ele>107.0</ele></trkpt>
      <trkpt lat="54.542684" lon="-3.296169"><ele>108.0</ele></trkpt>
      <trkpt lat="54.543187" lon="-3.297440"><ele>110.0</ele></trkpt>
      <trkpt lat="54.543314" lon="-3.298357"><ele>111.0</ele></trkpt>
      <trkpt lat="54.543447" lon="-3.298704"><ele>114.0</ele></trkpt>
      <trkpt lat="54.543563" lon="-3.298880"><ele>114.0</ele></trkpt>
      <trkpt lat="54.543749" lon="-3.298950"><ele>110.0</ele></trkpt>
      <trkpt lat="54.543914" lon="-3.299309"><ele>111.0</ele></trkpt>
      <trkpt lat="54.544444" lon="-3.299755"><ele>108.0</ele></trkpt>
      <trkpt lat="54.544797" lon="-3.300561"><ele>111.0</ele></trkpt>
      <trkpt lat="54.544827" lon="-3.301195"><ele>117.0</ele></trkpt>
      <trkpt lat="54.544911" lon="-3.301541"><ele>118.0</ele></trkpt>
      <trkpt lat="54.545494" lon="-3.302847"><ele>117.0</ele></trkpt>
      <trkpt lat="54.545765" lon="-3.303167"><ele>115.0</ele></trkpt>
      <trkpt lat="54.546024" lon="-3.303948"><ele>114.0</ele></trkpt>
      <trkpt lat="54.546196" lon="-3.304136"><ele>113.0</ele></trkpt>
      <trkpt lat="54.546530" lon="-3.304286"><ele>111.0</ele></trkpt>
      <trkpt lat="54.547442" lon="-3.305174"><ele>109.0</ele></trkpt>
      <trkpt lat="54.548623" lon="-3.305899"><ele>110.0</ele></trkpt>
      <trkpt lat="54.549268" lon="-3.306102"><ele>108.0</ele></trkpt>
      <trkpt lat="54.549766" lon="-3.306064"><ele>107.0</ele></trkpt>
      <trkpt lat="54.550836" lon="-3.306184"><ele>108.0</ele></trkpt>
      <trkpt lat="54.551478" lon="-3.306087"><ele>110.0</ele></trkpt>
      <trkpt lat="54.551791" lon="-3.305914"><ele>113.0</ele></trkpt>
      <trkpt lat="54.552343" lon="-3.306029"><ele>109.0</ele></trkpt>
      <trkpt lat="54.552576" lon="-3.305843"><ele>102.0</ele></trkpt>
      <trkpt lat="54.552811" lon="-3.305411"><ele>99.0</ele></trkpt>
      <trkpt lat="54.552873" lon="-3.304865"><ele>99.0</ele></trkpt>
      <trkpt lat="54.552827" lon="-3.305658"><ele>99.0</ele></trkpt>
      <trkpt lat="54.553099" lon="-3.306944"><ele>105.0</ele></trkpt>
      <trkpt lat="54.553294" lon="-3.307283"><ele>108.0</ele></trkpt>
      <trkpt lat="54.553609" lon="-3.307529"><ele>109.0</ele></trkpt>
      <trkpt lat="54.553969" lon="-3.307658"><ele>109.0</ele></trkpt>
      <trkpt lat="54.554597" lon="-3.307679"><ele>105.0</ele></trkpt>
      <trkpt lat="54.555083" lon="-3.308242"><ele>109.0</ele></trkpt>
      <trkpt lat="54.556658" lon="-3.308732"><ele>107.0</ele></trkpt>
      <trkpt lat="54.557058" lon="-3.309153"><ele>110.0</ele></trkpt>
      <trkpt lat="54.557319" lon="-3.309140"><ele>107.0</ele></trkpt>
      <trkpt lat="54.559027" lon="-3.310064"><ele>104.0</ele></trkpt>
      <trkpt lat="54.560049" lon="-3.311052"><ele>107.0</ele></trkpt>
      <trkpt lat="54.560968" lon="-3.311243"><ele>104.0</ele></trkpt>
      <trkpt lat="54.561723" lon="-3.312126"><ele>106.0</ele></trkpt>
      <trkpt lat="54.562253" lon="-3.313216"><ele>108.0</ele></trkpt>
      <trkpt lat="54.563144" lon="-3.313685"><ele>108.0</ele></trkpt>
      <trkpt lat="54.563591" lon="-3.314311"><ele>111.0</ele></trkpt>
      <trkpt lat="54.563822" lon="-3.314442"><ele>111.0</ele></trkpt>
      <trkpt lat="54.564246" lon="-3.314928"><ele>110.0</ele></trkpt>
      <trkpt lat="54.564335" lon="-3.315350"><ele>112.0</ele></trkpt>
      <trkpt lat="54.565305" lon="-3.316497"><ele>111.0</ele></trkpt>
      <trkpt lat="54.567003" lon="-3.317142"><ele>108.0</ele></trkpt>
      <trkpt lat="54.567737" lon="-3.317681"><ele>109.0</ele></trkpt>
      <trkpt lat="54.568110" lon="-3.317747"><ele>108.0</ele></trkpt>
      <trkpt lat="54.568435" lon="-3.317586"><ele>105.0</ele></trkpt>
      <trkpt lat="54.568631" lon="-3.317345"><ele>105.0</ele></trkpt>
      <trkpt lat="54.569176" lon="-3.316365"><ele>100.0</ele></trkpt>
      <trkpt lat="54.569243" lon="-3.315949"><ele>100.0</ele></trkpt>
      <trkpt lat="54.569287" lon="-3.314748"><ele>104.0</ele></trkpt>
      <trkpt lat="54.569461" lon="-3.314185"><ele>104.0</ele></trkpt>
      <trkpt lat="54.569658" lon="-3.313880"><ele>105.0</ele></trkpt>
      <trkpt lat="54.569858" lon="-3.313769"><ele>103.0</ele></trkpt>
      <trkpt lat="54.570452" lon="-3.313960"><ele>101.0</ele></trkpt>
      <trkpt lat="54.570772" lon="-3.314249"><ele>102.0</ele></trkpt>
      <trkpt lat="54.571336" lon="-3.314965"><ele>101.0</ele></trkpt>
      <trkpt lat="54.572421" lon="-3.314786"><ele>100.0</ele></trkpt>
      <trkpt lat="54.572591" lon="-3.314609"><ele>100.0</ele></trkpt>
      <trkpt lat="54.572746" lon="-3.313846"><ele>99.0</ele></trkpt>
      <trkpt lat="54.573002" lon="-3.313790"><ele>100.0</ele></trkpt>
      <trkpt lat="54.573490" lon="-3.314095"><ele>103.0</ele></trkpt>
      <trkpt lat="54.574633" lon="-3.314250"><ele>102.0</ele></trkpt>
      <trkpt lat="54.575492" lon="-3.314761"><ele>101.0</ele></trkpt>
      <trkpt lat="54.575788" lon="-3.314374"><ele>103.0</ele></trkpt>
      <trkpt lat="54.575913" lon="-3.313777"><ele>105.0</ele></trkpt>
      <trkpt lat="54.575917" lon="-3.313416"><ele>107.0</ele></trkpt>
      <trkpt lat="54.576578" lon="-3.313781"><ele>111.0</ele></trkpt>
      <trkpt lat="54.576870" lon="-3.313833"><ele>114.0</ele></trkpt>
      <trkpt lat="54.577110" lon="-3.314066"><ele>112.0</ele></trkpt>
      <trkpt lat="54.577560" lon="-3.313845"><ele>120.0</ele></trkpt>
      <trkpt lat="54.577135" lon="-3.313477"><ele>122.0</ele></trkpt>
      <trkpt lat="54.576665" lon="-3.312106"><ele>136.0</ele></trkpt>
      <trkpt lat="54.575619" lon="-3.311085"><ele>134.0</ele></trkpt>
      <trkpt lat="54.575362" lon="-3.310669"><ele>139.0</ele></trkpt>
      <trkpt lat="54.573895" lon="-3.307177"><ele>156.0</ele></trkpt>
      <trkpt lat="54.573979" lon="-3.306911"><ele>155.0</ele></trkpt>
      <trkpt lat="54.574185" lon="-3.306843"><ele>156.0</ele></trkpt>
      <trkpt lat="54.574525" lon="-3.307036"><ele>151.0</ele></trkpt>
      <trkpt lat="54.575270" lon="-3.305965"><ele>142.0</ele></trkpt>
      <trkpt lat="54.575248" lon="-3.305739"><ele>142.0</ele></trkpt>
      <trkpt lat="54.575070" lon="-3.305465"><ele>143.0</ele></trkpt>
      <trkpt lat="54.575111" lon="-3.305199"><ele>144.0</ele></trkpt>
      <trkpt lat="54.575957" lon="-3.303391"><ele>152.0</ele></trkpt>
      <trkpt lat="54.576138" lon="-3.303375"><ele>153.0</ele></trkpt>
      <trkpt lat="54.576849" lon="-3.299685"><ele>181.0</ele></trkpt>
      <trkpt lat="54.577054" lon="-3.299209"><ele>185.0</ele></trkpt>
      <trkpt lat="54.577184" lon="-3.298676"><ele>189.0</ele></trkpt>
      <trkpt lat="54.577576" lon="-3.298362"><ele>189.0</ele></trkpt>
      <trkpt lat="54.577799" lon="-3.298455"><ele>188.0</ele></trkpt>
      <trkpt lat="54.577948" lon="-3.297880"><ele>200.0</ele></trkpt>
      <trkpt lat="54.577623" lon="-3.296861"><ele>217.0</ele></trkpt>
      <trkpt lat="54.577273" lon="-3.294747"><ele>255.0</ele></trkpt>
      <trkpt lat="54.577486" lon="-3.294056"><ele>273.0</ele></trkpt>
      <trkpt lat="54.577503" lon="-3.293606"><ele>274.0</ele></trkpt>
      <trkpt lat="54.577909" lon="-3.292825"><ele>289.0</ele></trkpt>
      <trkpt lat="54.578134" lon="-3.292156"><ele>299.0</ele></trkpt>
      <trkpt lat="54.578177" lon="-3.291674"><ele>292.0</ele></trkpt>
      <trkpt lat="54.578545" lon="-3.290420"><ele>295.0</ele></trkpt>
      <trkpt lat="54.578709" lon="-3.289620"><ele>309.0</ele></trkpt>
      <trkpt lat="54.578729" lon="-3.287668"><ele>319.0</ele></trkpt>
      <trkpt lat="54.578859" lon="-3.286599"><ele>318.0</ele></trkpt>
      <trkpt lat="54.578907" lon="-3.285592"><ele>321.0</ele></trkpt>
      <trkpt lat="54.578979" lon="-3.285304"><ele>325.0</ele></trkpt>
      <trkpt lat="54.581092" lon="-3.283096"><ele>348.0</ele></trkpt>
      <trkpt lat="54.581305" lon="-3.282505"><ele>351.0</ele></trkpt>
      <trkpt lat="54.581514" lon="-3.282158"><ele>354.0</ele></trkpt>
      <trkpt lat="54.581677" lon="-3.281433"><ele>351.0</ele></trkpt>
      <trkpt lat="54.581773" lon="-3.281254"><ele>354.0</ele></trkpt>
      <trkpt lat="54.581853" lon="-3.280698"><ele>354.0</ele></trkpt>
      <trkpt lat="54.582283" lon="-3.280004"><ele>363.0</ele></trkpt>
      <trkpt lat="54.582689" lon="-3.278128"><ele>372.0</ele></trkpt>
      <trkpt lat="54.582690" lon="-3.277430"><ele>371.0</ele></trkpt>
      <trkpt lat="54.582847" lon="-3.276279"><ele>381.0</ele></trkpt>
      <trkpt lat="54.582732" lon="-3.274763"><ele>383.0</ele></trkpt>
      <trkpt lat="54.582872" lon="-3.272685"><ele>393.0</ele></trkpt>
      <trkpt lat="54.582780" lon="-3.272039"><ele>393.0</ele></trkpt>
      <trkpt lat="54.582762" lon="-3.271330"><ele>402.0</ele></trkpt>
      <trkpt lat="54.582506" lon="-3.270291"><ele>409.0</ele></trkpt>
      <trkpt lat="54.582370" lon="-3.269053"><ele>423.0</ele></trkpt>
      <trkpt lat="54.582208" lon="-3.268426"><ele>425.0</ele></trkpt>
      <trkpt lat="54.581998" lon="-3.267142"><ele>444.0</ele></trkpt>
      <trkpt lat="54.581705" lon="-3.265985"><ele>461.0</ele></trkpt>
      <trkpt lat="54.581571" lon="-3.264618"><ele>479.0</ele></trkpt>
      <trkpt lat="54.581536" lon="-3.264668"><ele>473.8</ele></trkpt>
      <trkpt lat="54.581164" lon="-3.263895"><ele>484.8</ele></trkpt>
      <trkpt lat="54.581054" lon="-3.263550"><ele>490.0</ele></trkpt>
      <trkpt lat="54.580776" lon="-3.262350"><ele>500.8</ele></trkpt>
      <trkpt lat="54.580742" lon="-3.261967"><ele>507.5</ele></trkpt>
      <trkpt lat="54.580355" lon="-3.261237"><ele>514.0</ele></trkpt>
      <trkpt lat="54.579910" lon="-3.259668"><ele>540.3</ele></trkpt>
      <trkpt lat="54.579828" lon="-3.259038"><ele>552.3</ele></trkpt>
      <trkpt lat="54.579739" lon="-3.258875"><ele>555.0</ele></trkpt>
      <trkpt lat="54.579567" lon="-3.257845"><ele>583.3</ele></trkpt>
      <trkpt lat="54.579478" lon="-3.257661"><ele>586.0</ele></trkpt>
      <trkpt lat="54.579476" lon="-3.257437"><ele>590.5</ele></trkpt>
      <trkpt lat="54.579800" lon="-3.257344"><ele>595.0</ele></trkpt>
      <trkpt lat="54.580059" lon="-3.257156"><ele>598.0</ele></trkpt>
      <trkpt lat="54.580216" lon="-3.256697"><ele>599.8</ele></trkpt>
      <trkpt lat="54.581679" lon="-3.257478"><ele>628.3</ele></trkpt>
      <trkpt lat="54.582532" lon="-3.257710"><ele>653.0</ele></trkpt>
      <trkpt lat="54.583052" lon="-3.258246"><ele>671.3</ele></trkpt>
      <trkpt lat="54.583189" lon="-3.258241"><ele>677.3</ele></trkpt>
      <trkpt lat="54.583385" lon="-3.258407"><ele>684.5</ele></trkpt>
      <trkpt lat="54.583458" lon="-3.258380"><ele>687.8</ele></trkpt>
      <trkpt lat="54.583659" lon="-3.258594"><ele>695.5</ele></trkpt>
      <trkpt lat="54.583873" lon="-3.258690"><ele>703.3</ele></trkpt>
      <trkpt lat="54.583998" lon="-3.258860"><ele>706.3</ele></trkpt>
      <trkpt lat="54.584788" lon="-3.258946"><ele>724.8</ele></trkpt>
      <trkpt lat="54.584825" lon="-3.259003"><ele>726.5</ele></trkpt>
      <trkpt lat="54.584895" lon="-3.258919"><ele>728.5</ele></trkpt>
      <trkpt lat="54.584947" lon="-3.259007"><ele>731.3</ele></trkpt>
      <trkpt lat="54.585152" lon="-3.258901"><ele>738.0</ele></trkpt>
      <trkpt lat="54.585283" lon="-3.259199"><ele>748.5</ele></trkpt>
      <trkpt lat="54.585748" lon="-3.259925"><ele>750.8</ele></trkpt>
      <trkpt lat="54.585900" lon="-3.260052"><ele>748.5</ele></trkpt>
      <trkpt lat="54.586318" lon="-3.260157"><ele>744.3</ele></trkpt>
      <trkpt lat="54.586906" lon="-3.260707"><ele>739.3</ele></trkpt>
      <trkpt lat="54.587193" lon="-3.260812"><ele>746.8</ele></trkpt>
      <trkpt lat="54.587515" lon="-3.261110"><ele>755.0</ele></trkpt>
      <trkpt lat="54.587193" lon="-3.260812"><ele>746.8</ele></trkpt>
      <trkpt lat="54.586906" lon="-3.260707"><ele>739.3</ele></trkpt>
      <trkpt lat="54.586318" lon="-3.260157"><ele>744.3</ele></trkpt>
      <trkpt lat="54.585900" lon="-3.260052"><ele>748.5</ele></trkpt>
      <trkpt lat="54.585748" lon="-3.259925"><ele>750.8</ele></trkpt>
      <trkpt lat="54.585283" lon="-3.259199"><ele>748.5</ele></trkpt>
      <trkpt lat="54.585152" lon="-3.258901"><ele>738.0</ele></trkpt>
      <trkpt lat="54.584947" lon="-3.259007"><ele>731.3</ele></trkpt>
      <trkpt lat="54.584895" lon="-3.258919"><ele>728.5</ele></trkpt>
      <trkpt lat="54.584825" lon="-3.259003"><ele>726.5</ele></trkpt>
      <trkpt lat="54.584788" lon="-3.258946"><ele>724.8</ele></trkpt>
      <trkpt lat="54.583998" lon="-3.258860"><ele>706.3</ele></trkpt>
      <trkpt lat="54.583873" lon="-3.258690"><ele>703.3</ele></trkpt>
      <trkpt lat="54.583659" lon="-3.258594"><ele>695.5</ele></trkpt>
      <trkpt lat="54.583458" lon="-3.258380"><ele>687.8</ele></trkpt>
      <trkpt lat="54.583385" lon="-3.258407"><ele>684.5</ele></trkpt>
      <trkpt lat="54.583189" lon="-3.258241"><ele>677.3</ele></trkpt>
      <trkpt lat="54.583052" lon="-3.258246"><ele>671.3</ele></trkpt>
      <trkpt lat="54.582532" lon="-3.257710"><ele>653.0</ele></trkpt>
      <trkpt lat="54.581679" lon="-3.257478"><ele>628.3</ele></trkpt>
      <trkpt lat="54.580216" lon="-3.256697"><ele>599.8</ele></trkpt>
      <trkpt lat="54.580059" lon="-3.257156"><ele>598.0</ele></trkpt>
      <trkpt lat="54.579800" lon="-3.257344"><ele>595.0</ele></trkpt>
      <trkpt lat="54.579476" lon="-3.257437"><ele>590.5</ele></trkpt>
      <trkpt lat="54.579478" lon="-3.257661"><ele>586.0</ele></trkpt>
      <trkpt lat="54.579567" lon="-3.257845"><ele>583.3</ele></trkpt>
      <trkpt lat="54.579739" lon="-3.258875"><ele>555.0</ele></trkpt>
      <trkpt lat="54.579828" lon="-3.259038"><ele>552.3</ele></trkpt>
      <trkpt lat="54.579910" lon="-3.259668"><ele>540.3</ele></trkpt>
      <trkpt lat="54.580355" lon="-3.261237"><ele>514.0</ele></trkpt>
      <trkpt lat="54.580742" lon="-3.261967"><ele>507.5</ele></trkpt>
      <trkpt lat="54.580776" lon="-3.262350"><ele>500.8</ele></trkpt>
      <trkpt lat="54.581054" lon="-3.263550"><ele>490.0</ele></trkpt>
      <trkpt lat="54.581164" lon="-3.263895"><ele>484.8</ele></trkpt>
      <trkpt lat="54.581536" lon="-3.264668"><ele>473.8</ele></trkpt>
      <trkpt lat="54.581122" lon="-3.263530"><ele>495.0</ele></trkpt>
      <trkpt lat="54.580850" lon="-3.262149"><ele>514.0</ele></trkpt>
      <trkpt lat="54.580424" lon="-3.261234"><ele>523.0</ele></trkpt>
      <trkpt lat="54.580286" lon="-3.260790"><ele>529.0</ele></trkpt>
      <trkpt lat="54.579945" lon="-3.259459"><ele>550.0</ele></trkpt>
      <trkpt lat="54.579925" lon="-3.259008"><ele>560.0</ele></trkpt>
      <trkpt lat="54.579767" lon="-3.258638"><ele>565.0</ele></trkpt>
      <trkpt lat="54.579746" lon="-3.258316"><ele>572.0</ele></trkpt>
      <trkpt lat="54.579392" lon="-3.257049"><ele>595.0</ele></trkpt>
      <trkpt lat="54.579115" lon="-3.256751"><ele>603.0</ele></trkpt>
      <trkpt lat="54.578964" lon="-3.255136"><ele>601.0</ele></trkpt>
    </trkseg>
  </trk>
</gpx>
