<?xml version="1.0" encoding="UTF-8"?>
<gpx version="1.1" creator="route-planner"
  xmlns="http://www.topografix.com/GPX/1/1"
  xmlns:xsi="http://www.w3.org/2001/XMLSchema-instance"
  xsi:schemaLocation="http://www.topografix.com/GPX/1/1 http://www.topografix.com/GPX/1/1/gpx.xsd">
  <metadata>
    <name>Lakeland Way — Anticlockwise day 12 (2026-09-11)</name>
    <desc>Base 16.3km, +198m; with 1 detour(s): +3.7km, +171m ascent. Total 20.0km.</desc>
  </metadata>
  <wpt lat="54.372438" lon="-3.368438">
    <ele>231.0</ele>
    <name>Muncaster Fell 231m</name>
    <desc>A 231m wooded ridge near the coast at the very start and end of the route. Detour: +3.7km, +171m ascent.</desc>
    <type>peaks</type>
  </wpt>
  <trk>
    <name>Day 12</name>
    <trkseg>
      <trkpt lat="54.422524" lon="-3.256495"><ele>275.0</ele></trkpt>
      <trkpt lat="54.421662" lon="-3.256565"><ele>273.0</ele></trkpt>
      <trkpt lat="54.421134" lon="-3.256935"><ele>270.0</ele></trkpt>
      <trkpt lat="54.419873" lon="-3.257443"><ele>270.0</ele></trkpt>
      <trkpt lat="54.418955" lon="-3.257924"><ele>269.0</ele></trkpt>
      <trkpt lat="54.417319" lon="-3.259172"><ele>258.0</ele></trkpt>
      <trkpt lat="54.417072" lon="-3.259454"><ele>254.0</ele></trkpt>
      <trkpt lat="54.414904" lon="-3.259892"><ele>237.0</ele></trkpt>
      <trkpt lat="54.414458" lon="-3.260178"><ele>233.0</ele></trkpt>
      <trkpt lat="54.414195" lon="-3.260181"><ele>228.0</ele></trkpt>
      <trkpt lat="54.413917" lon="-3.260526"><ele>224.0</ele></trkpt>
      <trkpt lat="54.413555" lon="-3.260483"><ele>216.0</ele></trkpt>
      <trkpt lat="54.413273" lon="-3.260657"><ele>213.0</ele></trkpt>
      <trkpt lat="54.412804" lon="-3.261254"><ele>210.0</ele></trkpt>
      <trkpt lat="54.412516" lon="-3.261363"><ele>207.0</ele></trkpt>
      <trkpt lat="54.411704" lon="-3.262056"><ele>200.0</ele></trkpt>
      <trkpt lat="54.410220" lon="-3.262614"><ele>194.0</ele></trkpt>
      <trkpt lat="54.409558" lon="-3.263237"><ele>192.0</ele></trkpt>
      <trkpt lat="54.408999" lon="-3.263509"><ele>185.0</ele></trkpt>
      <trkpt lat="54.407852" lon="-3.264515"><ele>176.0</ele></trkpt>
      <trkpt lat="54.407295" lon="-3.265184"><ele>170.0</ele></trkpt>
      <trkpt lat="54.406922" lon="-3.265033"><ele>163.0</ele></trkpt>
      <trkpt lat="54.406634" lon="-3.265153"><ele>162.0</ele></trkpt>
      <trkpt lat="54.405344" lon="-3.266041"><ele>149.0</ele></trkpt>
      <trkpt lat="54.405079" lon="-3.266247"><ele>147.0</ele></trkpt>
      <trkpt lat="54.404598" lon="-3.266887"><ele>146.0</ele></trkpt>
      <trkpt lat="54.403811" lon="-3.267442"><ele>133.0</ele></trkpt>
      <trkpt lat="54.403343" lon="-3.268061"><ele>135.0</ele></trkpt>
      <trkpt lat="54.402550" lon="-3.268551"><ele>129.0</ele></trkpt>
      <trkpt lat="54.402426" lon="-3.268408"><ele>125.0</ele></trkpt>
      <trkpt lat="54.402264" lon="-3.268413"><ele>123.0</ele></trkpt>
      <trkpt lat="54.400761" lon="-3.269332"><ele>99.0</ele></trkpt>
      <trkpt lat="54.400083" lon="-3.270277"><ele>89.0</ele></trkpt>
      <trkpt lat="54.399884" lon="-3.270174"><ele>82.0</ele></trkpt>
      <trkpt lat="54.399795" lon="-3.270375"><ele>80.0</ele></trkpt>
      <trkpt lat="54.399500" lon="-3.270506"><ele>73.0</ele></trkpt>
      <trkpt lat="54.398374" lon="-3.270073"><ele>62.0</ele></trkpt>
      <trkpt lat="54.398111" lon="-3.270087"><ele>61.0</ele></trkpt>
      <trkpt lat="54.397759" lon="-3.270290"><ele>60.0</ele></trkpt>
      <trkpt lat="54.397366" lon="-3.270836"><ele>58.0</ele></trkpt>
      <trkpt lat="54.396601" lon="-3.271113"><ele>53.0</ele></trkpt>
      <trkpt lat="54.396220" lon="-3.271047"><ele>54.0</ele></trkpt>
      <trkpt lat="54.395942" lon="-3.270760"><ele>54.0</ele></trkpt>
      <trkpt lat="54.395315" lon="-3.270386"><ele>55.0</ele></trkpt>
      <trkpt lat="54.395020" lon="-3.270473"><ele>54.0</ele></trkpt>
      <trkpt lat="54.394749" lon="-3.270712"><ele>55.0</ele></trkpt>
      <trkpt lat="54.394105" lon="-3.270767"><ele>55.0</ele></trkpt>
      <trkpt lat="54.393599" lon="-3.270193"><ele>58.0</ele></trkpt>
      <trkpt lat="54.393090" lon="-3.269930"><ele>58.0</ele></trkpt>
      <trkpt lat="54.392777" lon="-3.269996"><ele>56.0</ele></trkpt>
      <trkpt lat="54.392549" lon="-3.270858"><ele>50.0</ele></trkpt>
      <trkpt lat="54.391888" lon="-3.270773"><ele>50.0</ele></trkpt>
      <trkpt lat="54.391361" lon="-3.270327"><ele>50.0</ele></trkpt>
      <trkpt lat="54.390962" lon="-3.270250"><ele>50.0</ele></trkpt>
      <trkpt lat="54.390939" lon="-3.270657"><ele>49.0</ele></trkpt>
      <trkpt lat="54.390707" lon="-3.270768"><ele>52.0</ele></trkpt>
      <trkpt lat="54.390300" lon="-3.273771"><ele>59.0</ele></trkpt>
      <trkpt lat="54.390470" lon="-3.274903"><ele>61.0</ele></trkpt>
      <trkpt lat="54.389849" lon="-3.276289"><ele>58.0</ele></trkpt>
      <trkpt lat="54.389523" lon="-3.277577"><ele>60.0</ele></trkpt>
      <trkpt lat="54.389202" lon="-3.278909"><ele>65.0</ele></trkpt>
      <trkpt lat="54.389102" lon="-3.280150"><ele>61.0</ele></trkpt>
      <trkpt lat="54.389197" lon="-3.280593"><ele>60.0</ele></trkpt>
      <trkpt lat="54.388675" lon="-3.282079"><ele>56.0</ele></trkpt>
      <trkpt lat="54.388618" lon="-3.282732"><ele>60.0</ele></trkpt>
      <trkpt lat="54.388924" lon="-3.283385"><ele>59.0</ele></trkpt>
      <trkpt lat="54.389025" lon="-3.283871"><ele>59.0</ele></trkpt>
      <trkpt lat="54.389080" lon="-3.284581"><ele>59.0</ele></trkpt>
      <trkpt lat="54.388726" lon="-3.288476"><ele>50.0</ele></trkpt>
      <trkpt lat="54.388435" lon="-3.289958"><ele>51.0</ele></trkpt>
      <trkpt lat="54.388048" lon="-3.290526"><ele>55.0</ele></trkpt>
      <trkpt lat="54.387987" lon="-3.291468"><ele>53.0</ele></trkpt>
      <trkpt lat="54.388095" lon="-3.292555"><ele>49.0</ele></trkpt>
      <trkpt lat="54.387864" lon="-3.293642"><ele>46.0</ele></trkpt>
      <trkpt lat="54.387874" lon="-3.294501"><ele>43.0</ele></trkpt>
      <trkpt lat="54.388169" lon="-3.295551"><ele>36.0</ele></trkpt>
      <trkpt lat="54.388224" lon="-3.297377"><ele>36.0</ele></trkpt>
      <trkpt lat="54.388815" lon="-3.298802"><ele>36.0</ele></trkpt>
      <trkpt lat="54.388961" lon="-3.299708"><ele>34.0</ele></trkpt>
      <trkpt lat="54.388724" lon="-3.301449"><ele>30.0</ele></trkpt>
      <trkpt lat="54.388023" lon="-3.302683"><ele>31.0</ele></trkpt>
      <trkpt lat="54.387316" lon="-3.304495"><ele>30.0</ele></trkpt>
      <trkpt lat="54.386615" lon="-3.305760"><ele>29.0</ele></trkpt>
      <trkpt lat="54.386185" lon="-3.306766"><ele>28.0</ele></trkpt>
      <trkpt lat="54.385825" lon="-3.307141"><ele>27.0</ele></trkpt>
      <trkpt lat="54.385513" lon="-3.307667"><ele>31.0</ele></trkpt>
      <trkpt lat="54.385247" lon="-3.308560"><ele>27.0</ele></trkpt>
      <trkpt lat="54.384264" lon="-3.309891"><ele>31.0</ele></trkpt>
      <trkpt lat="54.383996" lon="-3.310376"><ele>34.0</ele></trkpt>
      <trkpt lat="54.383892" lon="-3.311360"><ele>30.0</ele></trkpt>
      <trkpt lat="54.383925" lon="-3.311801"><ele>26.0</ele></trkpt>
      <trkpt lat="54.383825" lon="-3.312388"><ele>23.0</ele></trkpt>
      <trkpt lat="54.383057" lon="-3.314628"><ele>20.0</ele></trkpt>
      <trkpt lat="54.382568" lon="-3.315267"><ele>19.0</ele></trkpt>
      <trkpt lat="54.382298" lon="-3.315462"><ele>19.0</ele></trkpt>
      <trkpt lat="54.382043" lon="-3.315271"><ele>20.0</ele></trkpt>
      <trkpt lat="54.381494" lon="-3.316906"><ele>22.0</ele></trkpt>
      <trkpt lat="54.381173" lon="-3.318892"><ele>32.0</ele></trkpt>
      <trkpt lat="54.380922" lon="-3.318916"><ele>32.0</ele></trkpt>
      <trkpt lat="54.380784" lon="-3.319029"><ele>32.0</ele></trkpt>
      <trkpt lat="54.380361" lon="-3.319917"><ele>27.0</ele></trkpt>
      <trkpt lat="54.379311" lon="-3.321149"><ele>23.0</ele></trkpt>
      <trkpt lat="54.378526" lon="-3.322562"><ele>20.0</ele></trkpt>
      <trkpt lat="54.378380" lon="-3.323930"><ele>18.0</ele></trkpt>
      <trkpt lat="54.378596" lon="-3.325848"><ele>19.0</ele></trkpt>
      <trkpt lat="54.378529" lon="-3.326328"><ele>21.0</ele></trkpt>
      <trkpt lat="54.377861" lon="-3.327916"><ele>33.0</ele></trkpt>
      <trkpt lat="54.377667" lon="-3.329112"><ele>28.0</ele></trkpt>
      <trkpt lat="54.377454" lon="-3.329727"><ele>24.0</ele></trkpt>
      <trkpt lat="54.377353" lon="-3.330904"><ele>27.0</ele></trkpt>
      <trkpt lat="54.377028" lon="-3.332074"><ele>27.0</ele></trkpt>
      <trkpt lat="54.376987" lon="-3.332888"><ele>27.0</ele></trkpt>
      <trkpt lat="54.377238" lon="-3.333980"><ele>32.0</ele></trkpt>
      <trkpt lat="54.377149" lon="-3.335254"><ele>31.0</ele></trkpt>
      <trkpt lat="54.377024" lon="-3.335830"><ele>33.0</ele></trkpt>
      <trkpt lat="54.376526" lon="-3.336715"><ele>26.0</ele></trkpt>
      <trkpt lat="54.376153" lon="-3.338280"><ele>26.0</ele></trkpt>
      <trkpt lat="54.375979" lon="-3.338693"><ele>28.0</ele></trkpt>
      <trkpt lat="54.375386" lon="-3.339199"><ele>25.0</ele></trkpt>
      <trkpt lat="54.375169" lon="-3.339621"><ele>24.0</ele></trkpt>
      <trkpt lat="54.374304" lon="-3.342651"><ele>28.0</ele></trkpt>
      <trkpt lat="54.373593" lon="-3.344463"><ele>24.0</ele></trkpt>
      <trkpt lat="54.372978" lon="-3.345827"><ele>20.0</ele></trkpt>
      <trkpt lat="54.372666" lon="-3.346889"><ele>21.0</ele></trkpt>
      <trkpt lat="54.372653" lon="-3.348037"><ele>25.0</ele></trkpt>
      <trkpt lat="54.372591" lon="-3.348497"><ele>26.0</ele></trkpt>
      <trkpt lat="54.372253" lon="-3.349709"><ele>31.0</ele></trkpt>
      <trkpt lat="54.371725" lon="-3.350539"><ele>24.0</ele></trkpt>
      <trkpt lat="54.371183" lon="-3.351980"><ele>24.0</ele></trkpt>
      <trkpt lat="54.371018" lon="-3.352780"><ele>25.0</ele></trkpt>
      <trkpt lat="54.370309" lon="-3.354183"><ele>21.0</ele></trkpt>
      <trkpt lat="54.369877" lon="-3.354716"><ele>21.0</ele></trkpt>
      <trkpt lat="54.369658" lon="-3.355310"><ele>21.0</ele></trkpt>
      <trkpt lat="54.369546" lon="-3.356422"><ele>24.0</ele></trkpt>
      <trkpt lat="54.369367" lon="-3.357253"><ele>22.0</ele></trkpt>
      <trkpt lat="54.368907" lon="-3.358719"><ele>28.0</ele></trkpt>
      <trkpt lat="54.368393" lon="-3.359389"><ele>29.0</ele></trkpt>
      <trkpt lat="54.368131" lon="-3.359895"><ele>29.0</ele></trkpt>
      <trkpt lat="54.367892" lon="-3.360563"><ele>29.0</ele></trkpt>
      <trkpt lat="54.367880" lon="-3.361110"><ele>36.0</ele></trkpt>
      <trkpt lat="54.367729" lon="-3.361781"><ele>45.0</ele></trkpt>
      <trkpt lat="54.367199" lon="-3.363469"><ele>44.3</ele></trkpt>
      <trkpt lat="54.366865" lon="-3.364362"><ele>48.5</ele></trkpt>
      <trkpt lat="54.366443" lon="-3.366615"><ele>68.8</ele></trkpt>
      <trkpt lat="54.366176" lon="-3.367791"><ele>76.5</ele></trkpt>
      <trkpt lat="54.365954" lon="-3.370580"><ele>106.0</ele></trkpt>
      <trkpt lat="54.365984" lon="-3.370963"><ele>110.8</ele></trkpt>
      <trkpt lat="54.366477" lon="-3.373929"><ele>141.0</ele></trkpt>
      <trkpt lat="54.366428" lon="-3.374342"><ele>146.0</ele></trkpt>
      <trkpt lat="54.365909" lon="-3.375211"><ele>149.5</ele></trkpt>
      <trkpt lat="54.365872" lon="-3.375624"><ele>151.3</ele></trkpt>
      <trkpt lat="54.365894" lon="-3.375800"><ele>152.3</ele></trkpt>
      <trkpt lat="54.366022" lon="-3.376092"><ele>154.0</ele></trkpt>
      <trkpt lat="54.366331" lon="-3.376592"><ele>154.8</ele></trkpt>
      <trkpt lat="54.366470" lon="-3.376689"><ele>155.3</ele></trkpt>
      <trkpt lat="54.367404" lon="-3.375747"><ele>168.8</ele></trkpt>
      <trkpt lat="54.367770" lon="-3.375041"><ele>173.8</ele></trkpt>
      <trkpt lat="54.368160" lon="-3.374541"><ele>174.0</ele></trkpt>
      <trkpt lat="54.368673" lon="-3.373548"><ele>174.3</ele></trkpt>
      <trkpt lat="54.369105" lon="-3.373009"><ele>173.3</ele></trkpt>
      <trkpt lat="54.369207" lon="-3.373022"><ele>173.0</ele></trkpt>
      <trkpt lat="54.369504" lon="-3.372416"><ele>171.5</ele></trkpt>
      <trkpt lat="54.369659" lon="-3.371906"><ele>173.3</ele></trkpt>
      <trkpt lat="54.370355" lon="-3.370554"><ele>182.0</ele></trkpt>
      <trkpt lat="54.370483" lon="-3.370528"><ele>184.0</ele></trkpt>
      <trkpt lat="54.370594" lon="-3.370390"><ele>185.3</ele></trkpt>
      <trkpt lat="54.370826" lon="-3.369921"><ele>187.8</ele></trkpt>
      <trkpt lat="54.371520" lon="-3.369256"><ele>200.3</ele></trkpt>
      <trkpt lat="54.371816" lon="-3.369149"><ele>204.0</ele></trkpt>
      <trkpt lat="54.372129" lon="-3.368738"><ele>214.0</ele></trkpt>
      <trkpt lat="54.372224" lon="-3.368697"><ele>216.0</ele></trkpt>
      <trkpt lat="54.372363" lon="-3.368789"><ele>219.3</ele></trkpt>
      <trkpt lat="54.372491" lon="-3.368628"><ele>224.3</ele></trkpt>
      <trkpt lat="54.372511" lon="-3.368469"><ele>226.0</ele></trkpt>
      <trkpt lat="54.372491" lon="-3.368628"><ele>224.3</ele></trkpt>
      <trkpt lat="54.372363" lon="-3.368789"><ele>219.3</ele></trkpt>
      <trkpt lat="54.372224" lon="-3.368697"><ele>216.0</ele></trkpt>
      <trkpt lat="54.372129" lon="-3.368738"><ele>214.0</ele></trkpt>
      <trkpt lat="54.371816" lon="-3.369149"><ele>204.0</ele></trkpt>
      <trkpt lat="54.371520" lon="-3.369256"><ele>200.3</ele></trkpt>
      <trkpt lat="54.370826" lon="-3.369921"><ele>187.8</ele></trkpt>
      <trkpt lat="54.370594" lon="-3.370390"><ele>185.3</ele></trkpt>
      <trkpt lat="54.370483" lon="-3.370528"><ele>184.0</ele></trkpt>
      <trkpt lat="54.370355" lon="-3.370554"><ele>182.0</ele></trkpt>
      <trkpt lat="54.369659" lon="-3.371906"><ele>173.3</ele></trkpt>
      <trkpt lat="54.369504" lon="-3.372416"><ele>171.5</ele></trkpt>
      <trkpt lat="54.369207" lon="-3.373022"><ele>173.0</ele></trkpt>
      <trkpt lat="54.369105" lon="-3.373009"><ele>173.3</ele></trkpt>
      <trkpt lat="54.368673" lon="-3.373548"><ele>174.3</ele></trkpt>
      <trkpt lat="54.368160" lon="-3.374541"><ele>174.0</ele></trkpt>
      <trkpt lat="54.367770" lon="-3.375041"><ele>173.8</ele></trkpt>
      <trkpt lat="54.367404" lon="-3.375747"><ele>168.8</ele></trkpt>
      <trkpt lat="54.366470" lon="-3.376689"><ele>155.3</ele></trkpt>
      <trkpt lat="54.366331" lon="-3.376592"><ele>154.8</ele></trkpt>
      <trkpt lat="54.365934" lon="-3.375918"><ele>153.0</ele></trkpt>
      <trkpt lat="54.365872" lon="-3.375624"><ele>151.3</ele></trkpt>
      <trkpt lat="54.365909" lon="-3.375211"><ele>149.5</ele></trkpt>
      <trkpt lat="54.366428" lon="-3.374342"><ele>146.0</ele></trkpt>
      <trkpt lat="54.366477" lon="-3.373929"><ele>141.0</ele></trkpt>
      <trkpt lat="54.365984" lon="-3.370963"><ele>110.8</ele></trkpt>
      <trkpt lat="54.365954" lon="-3.370580"><ele>106.0</ele></trkpt>
      <trkpt lat="54.365989" lon="-3.370037"><ele>98.8</ele></trkpt>
      <trkpt lat="54.366176" lon="-3.367791"><ele>76.5</ele></trkpt>
      <trkpt lat="54.366443" lon="-3.366615"><ele>68.8</ele></trkpt>
      <trkpt lat="54.366865" lon="-3.364362"><ele>48.5</ele></trkpt>
      <trkpt lat="54.367199" lon="-3.363469"><ele>44.3</ele></trkpt>
      <trkpt lat="54.366585" lon="-3.365822"><ele>78.0</ele></trkpt>
      <trkpt lat="54.366227" lon="-3.367623"><ele>86.0</ele></trkpt>
      <trkpt lat="54.365985" lon="-3.370727"><ele>117.0</ele></trkpt>
      <trkpt lat="54.366543" lon="-3.373858"><ele>153.0</ele></trkpt>
      <trkpt lat="54.366463" lon="-3.374360"><ele>156.0</ele></trkpt>
      <trkpt lat="54.366265" lon="-3.374707"><ele>156.0</ele></trkpt>
      <trkpt lat="54.365968" lon="-3.374987"><ele>152.0</ele></trkpt>
      <trkpt lat="54.365820" lon="-3.375368"><ele>151.0</ele></trkpt>
      <trkpt lat="54.365870" lon="-3.375853"><ele>151.0</ele></trkpt>
      <trkpt lat="54.366478" lon="-3.376829"><ele>162.0</ele></trkpt>
      <trkpt lat="54.366501" lon="-3.377065"><ele>161.0</ele></trkpt>
      <trkpt lat="54.366235" lon="-3.377861"><ele>165.0</ele></trkpt>
      <trkpt lat="54.366066" lon="-3.377909"><ele>166.0</ele></trkpt>
      <trkpt lat="54.365763" lon="-3.377566"><ele>161.0</ele></trkpt>
      <trkpt lat="54.365538" lon="-3.377591"><ele>159.0</ele></trkpt>
      <trkpt lat="54.365349" lon="-3.377746"><ele>161.0</ele></trkpt>
      <trkpt lat="54.365035" lon="-3.378422"><ele>161.0</ele></trkpt>
      <trkpt lat="54.360350" lon="-3.383683"><ele>106.0</ele></trkpt>
      <trkpt lat="54.359709" lon="-3.384487"><ele>104.0</ele></trkpt>
      <trkpt lat="54.358742" lon="-3.385925"><ele>85.0</ele></trkpt>
      <trkpt lat="54.358650" lon="-3.385804"><ele>87.0</ele></trkpt>
      <trkpt lat="54.357884" lon="-3.383385"><ele>77.0</ele></trkpt>
      <trkpt lat="54.357612" lon="-3.381423"><ele>72.0</ele></trkpt>
      <trkpt lat="54.356357" lon="-3.380683"><ele>60.0</ele></trkpt>
      <trkpt lat="54.355978" lon="-3.381046"><ele>58.0</ele></trkpt>
      <trkpt lat="54.355641" lon="-3.381571"><ele>56.0</ele></trkpt>
      <trkpt lat="54.355280" lon="-3.383018"><ele>67.0</ele></trkpt>
      <trkpt lat="54.354458" lon="-3.383838"><ele>84.0</ele></trkpt>
      <trkpt lat="54.353664" lon="-3.384337"><ele>93.0</ele></trkpt>
      <trkpt lat="54.353390" lon="-3.384778"><ele>95.0</ele></trkpt>
      <trkpt lat="54.352403" lon="-3.385732"><ele>101.0</ele></trkpt>
      <trkpt lat="54.352033" lon="-3.386417"><ele>101.0</ele></trkpt>
      <trkpt lat="54.351784" lon="-3.387364"><ele>96.0</ele></trkpt>
      <trkpt lat="54.350670" lon="-3.390674"><ele>84.0</ele></trkpt>
      <trkpt lat="54.350169" lon="-3.391848"><ele>80.0</ele></trkpt>
      <trkpt lat="54.348836" lon="-3.394034"><ele>64.0</ele></trkpt>
      <trkpt lat="54.348740" lon="-3.394299"><ele>61.0</ele></trkpt>
      <trkpt lat="54.348670" lon="-3.396497"><ele>43.0</ele></trkpt>
      <trkpt lat="54.348469" lon="-3.397102"><ele>39.0</ele></trkpt>
      <trkpt lat="54.348891" lon="-3.398468"><ele>33.0</ele></trkpt>
      <trkpt lat="54.348976" lon="-3.399222"><ele>29.0</ele></trkpt>
      <trkpt lat="54.349210" lon="-3.399531"><ele>29.0</ele></trkpt>
      <trkpt lat="54.349619" lon="-3.403097"><ele>23.0</ele></trkpt>
      <trkpt lat="54.350718" lon="-3.404347"><ele>17.0</ele></trkpt>
      <trkpt lat="54.351641" lon="-3.404604"><ele>18.0</ele></trkpt>
      <trkpt lat="54.352886" lon="-3.405629"><ele>16.0</ele></trkpt>
      <trkpt lat="54.353898" lon="-3.405728"><ele>19.0</ele></trkpt>
      <trkpt lat="54.354515" lon="-3.405921"><ele>19.0</ele></trkpt>
      <trkpt lat="54.354790" lon="-3.405866"><ele>18.0</ele></trkpt>
      <trkpt lat="54.354888" lon="-3.406052"><ele>18.0</ele></trkpt>
      <trkpt lat="54.355853" lon="-3.406417"><ele>15.0</ele></trkpt>
      <trkpt lat="54.355505" lon="-3.407285"><ele>15.0</ele></trkpt>
      <trkpt lat="54.355047" lon="-3.407956"><ele>12.0</ele></trkpt>
      <trkpt lat="54.355452" lon="-3.408099"><ele>12.0</ele></trkpt>
    </trkseg>
  </trk>
</gpx>
