<?xml version="1.0" encoding="UTF-8"?>
<gpx version="1.1" creator="route-planner"
  xmlns="http://www.topografix.com/GPX/1/1"
  xmlns:xsi="http://www.w3.org/2001/XMLSchema-instance"
  xsi:schemaLocation="http://www.topografix.com/GPX/1/1 http://www.topografix.com/GPX/1/1/gpx.xsd">
  <metadata>
    <name>Lakeland Way — Anticlockwise day 10 (2026-09-09)</name>
    <desc>Base 17.6km, +576m; with 4 detour(s): +12.2km, +708m ascent. Total 29.8km.</desc>
  </metadata>
  <wpt lat="54.457309" lon="-3.159932">
    <ele>651.0</ele>
    <name>Rossett Pike 651m</name>
    <desc>A 651m top above Rossett Gill and Angle Tarn at the head of Langdale. Detour: +1.4km, +79m ascent.</desc>
    <type>peaks</type>
  </wpt>
  <wpt lat="54.456888" lon="-3.108992">
    <ele>736.0</ele>
    <name>Harrison Stickle 736m</name>
    <desc>The highest of the Langdale Pikes at 736m, an abrupt rocky top with the whole valley beneath it. Detour: +5.1km, +313m ascent.</desc>
    <type>peaks</type>
  </wpt>
  <wpt lat="54.457830" lon="-3.110693">
    <ele>700.0</ele>
    <name>Pavey Ark 700m</name>
    <desc>A 700m crag above Stickle Tarn, crossed by Jack&apos;s Rake — a rising Grade 1 scramble up the face of the cliff that is exposed, polished and unforgiving when wet. The summit is reached easily from behind if the Rake is not wanted. Detour: +4.7km, +271m ascent.</desc>
    <type>peaks</type>
  </wpt>
  <wpt lat="54.522538" lon="-3.165788">
    <ele>167.0</ele>
    <name>Scaleclose Force</name>
    <desc>A fall on the beck below Honister, close to the route. Detour: +1.0km, +45m ascent.</desc>
    <type>wild-swim-spots</type>
  </wpt>
  <wpt lat="54.460007" lon="-3.162841">
    <name>Night 2 — camp</name>
    <type>camp</type>
  </wpt>
  <trk>
    <name>Day 10</name>
    <trkseg>
      <trkpt lat="54.511615" lon="-3.212557"><ele>524.0</ele></trkpt>
      <trkpt lat="54.511933" lon="-3.212470"><ele>525.0</ele></trkpt>
      <trkpt lat="54.512181" lon="-3.211383"><ele>514.0</ele></trkpt>
      <trkpt lat="54.512263" lon="-3.210677"><ele>505.0</ele></trkpt>
      <trkpt lat="54.512847" lon="-3.209589"><ele>487.0</ele></trkpt>
      <trkpt lat="54.512976" lon="-3.209121"><ele>477.0</ele></trkpt>
      <trkpt lat="54.512724" lon="-3.208770"><ele>470.0</ele></trkpt>
      <trkpt lat="54.512757" lon="-3.208578"><ele>465.0</ele></trkpt>
      <trkpt lat="54.513082" lon="-3.208427"><ele>458.0</ele></trkpt>
      <trkpt lat="54.513147" lon="-3.208225"><ele>453.0</ele></trkpt>
      <trkpt lat="54.513042" lon="-3.208114"><ele>452.0</ele></trkpt>
      <trkpt lat="54.512843" lon="-3.208108"><ele>453.0</ele></trkpt>
      <trkpt lat="54.512820" lon="-3.207893"><ele>447.0</ele></trkpt>
      <trkpt lat="54.512995" lon="-3.207845"><ele>446.0</ele></trkpt>
      <trkpt lat="54.513059" lon="-3.207653"><ele>441.0</ele></trkpt>
      <trkpt lat="54.512807" lon="-3.207303"><ele>433.0</ele></trkpt>
      <trkpt lat="54.512753" lon="-3.207086"><ele>429.0</ele></trkpt>
      <trkpt lat="54.512318" lon="-3.203856"><ele>382.0</ele></trkpt>
      <trkpt lat="54.511823" lon="-3.202232"><ele>372.0</ele></trkpt>
      <trkpt lat="54.511329" lon="-3.201831"><ele>374.0</ele></trkpt>
      <trkpt lat="54.511106" lon="-3.200440"><ele>362.0</ele></trkpt>
      <trkpt lat="54.511140" lon="-3.200162"><ele>360.0</ele></trkpt>
      <trkpt lat="54.511357" lon="-3.199686"><ele>357.0</ele></trkpt>
      <trkpt lat="54.511361" lon="-3.199278"><ele>358.0</ele></trkpt>
      <trkpt lat="54.511146" lon="-3.197619"><ele>357.0</ele></trkpt>
      <trkpt lat="54.511252" lon="-3.196431"><ele>347.0</ele></trkpt>
      <trkpt lat="54.511616" lon="-3.195455"><ele>338.0</ele></trkpt>
      <trkpt lat="54.511755" lon="-3.195287"><ele>337.0</ele></trkpt>
      <trkpt lat="54.512105" lon="-3.195136"><ele>340.0</ele></trkpt>
      <trkpt lat="54.512353" lon="-3.194693"><ele>336.0</ele></trkpt>
      <trkpt lat="54.512642" lon="-3.194401"><ele>333.0</ele></trkpt>
      <trkpt lat="54.512809" lon="-3.193944"><ele>330.0</ele></trkpt>
      <trkpt lat="54.512914" lon="-3.193347"><ele>327.0</ele></trkpt>
      <trkpt lat="54.513072" lon="-3.193147"><ele>327.0</ele></trkpt>
      <trkpt lat="54.513143" lon="-3.192892"><ele>326.0</ele></trkpt>
      <trkpt lat="54.513120" lon="-3.192065"><ele>318.0</ele></trkpt>
      <trkpt lat="54.513043" lon="-3.191601"><ele>316.0</ele></trkpt>
      <trkpt lat="54.513070" lon="-3.190218"><ele>312.0</ele></trkpt>
      <trkpt lat="54.513024" lon="-3.189744"><ele>310.0</ele></trkpt>
      <trkpt lat="54.512896" lon="-3.188818"><ele>306.0</ele></trkpt>
      <trkpt lat="54.512515" lon="-3.187745"><ele>300.0</ele></trkpt>
      <trkpt lat="54.512517" lon="-3.186865"><ele>297.0</ele></trkpt>
      <trkpt lat="54.512741" lon="-3.186206"><ele>295.0</ele></trkpt>
      <trkpt lat="54.513111" lon="-3.185959"><ele>293.0</ele></trkpt>
      <trkpt lat="54.514237" lon="-3.182998"><ele>280.0</ele></trkpt>
      <trkpt lat="54.515200" lon="-3.178712"><ele>253.0</ele></trkpt>
      <trkpt lat="54.515288" lon="-3.177996"><ele>249.0</ele></trkpt>
      <trkpt lat="54.515605" lon="-3.177469"><ele>250.0</ele></trkpt>
      <trkpt lat="54.515714" lon="-3.177096"><ele>247.0</ele></trkpt>
      <trkpt lat="54.515826" lon="-3.175876"><ele>236.0</ele></trkpt>
      <trkpt lat="54.516231" lon="-3.175233"><ele>238.0</ele></trkpt>
      <trkpt lat="54.516309" lon="-3.174839"><ele>236.0</ele></trkpt>
      <trkpt lat="54.516730" lon="-3.173810"><ele>236.0</ele></trkpt>
      <trkpt lat="54.517091" lon="-3.172543"><ele>235.0</ele></trkpt>
      <trkpt lat="54.517715" lon="-3.171445"><ele>245.0</ele></trkpt>
      <trkpt lat="54.518672" lon="-3.170335"><ele>249.0</ele></trkpt>
      <trkpt lat="54.519941" lon="-3.169921"><ele>235.0</ele></trkpt>
      <trkpt lat="54.521004" lon="-3.170123"><ele>233.0</ele></trkpt>
      <trkpt lat="54.521367" lon="-3.169909"><ele>227.0</ele></trkpt>
      <trkpt lat="54.521734" lon="-3.169951"><ele>230.0</ele></trkpt>
      <trkpt lat="54.523261" lon="-3.169802"><ele>225.0</ele></trkpt>
      <trkpt lat="54.522824" lon="-3.169686"><ele>220.8</ele></trkpt>
      <trkpt lat="54.523311" lon="-3.169592"><ele>217.0</ele></trkpt>
      <trkpt lat="54.523515" lon="-3.169482"><ele>217.5</ele></trkpt>
      <trkpt lat="54.523532" lon="-3.169205"><ele>211.8</ele></trkpt>
      <trkpt lat="54.523763" lon="-3.168696"><ele>205.3</ele></trkpt>
      <trkpt lat="54.523711" lon="-3.168407"><ele>201.0</ele></trkpt>
      <trkpt lat="54.523450" lon="-3.167718"><ele>185.0</ele></trkpt>
      <trkpt lat="54.523349" lon="-3.167206"><ele>177.8</ele></trkpt>
      <trkpt lat="54.523071" lon="-3.167617"><ele>181.5</ele></trkpt>
      <trkpt lat="54.522895" lon="-3.167707"><ele>185.3</ele></trkpt>
      <trkpt lat="54.522810" lon="-3.167446"><ele>183.0</ele></trkpt>
      <trkpt lat="54.522196" lon="-3.166383"><ele>174.8</ele></trkpt>
      <trkpt lat="54.522199" lon="-3.165684"><ele>177.0</ele></trkpt>
      <trkpt lat="54.522408" lon="-3.165449"><ele>166.3</ele></trkpt>
      <trkpt lat="54.522199" lon="-3.165684"><ele>177.0</ele></trkpt>
      <trkpt lat="54.522196" lon="-3.166383"><ele>174.8</ele></trkpt>
      <trkpt lat="54.522810" lon="-3.167446"><ele>183.0</ele></trkpt>
      <trkpt lat="54.522895" lon="-3.167707"><ele>185.3</ele></trkpt>
      <trkpt lat="54.523071" lon="-3.167617"><ele>181.5</ele></trkpt>
      <trkpt lat="54.523349" lon="-3.167206"><ele>177.8</ele></trkpt>
      <trkpt lat="54.523450" lon="-3.167718"><ele>185.0</ele></trkpt>
      <trkpt lat="54.523711" lon="-3.168407"><ele>201.0</ele></trkpt>
      <trkpt lat="54.523763" lon="-3.168696"><ele>205.3</ele></trkpt>
      <trkpt lat="54.523532" lon="-3.169205"><ele>211.8</ele></trkpt>
      <trkpt lat="54.523515" lon="-3.169482"><ele>217.5</ele></trkpt>
      <trkpt lat="54.523311" lon="-3.169592"><ele>217.0</ele></trkpt>
      <trkpt lat="54.522824" lon="-3.169686"><ele>220.8</ele></trkpt>
      <trkpt lat="54.523549" lon="-3.169703"><ele>224.0</ele></trkpt>
      <trkpt lat="54.523970" lon="-3.169329"><ele>218.0</ele></trkpt>
      <trkpt lat="54.524241" lon="-3.169615"><ele>223.0</ele></trkpt>
      <trkpt lat="54.524850" lon="-3.169107"><ele>213.0</ele></trkpt>
      <trkpt lat="54.525274" lon="-3.168336"><ele>204.0</ele></trkpt>
      <trkpt lat="54.525469" lon="-3.168127"><ele>203.0</ele></trkpt>
      <trkpt lat="54.525719" lon="-3.168070"><ele>202.0</ele></trkpt>
      <trkpt lat="54.525918" lon="-3.168161"><ele>201.0</ele></trkpt>
      <trkpt lat="54.526114" lon="-3.168457"><ele>202.0</ele></trkpt>
      <trkpt lat="54.526315" lon="-3.168301"><ele>200.0</ele></trkpt>
      <trkpt lat="54.526576" lon="-3.168320"><ele>197.0</ele></trkpt>
      <trkpt lat="54.526743" lon="-3.168453"><ele>198.0</ele></trkpt>
      <trkpt lat="54.526865" lon="-3.168725"><ele>201.0</ele></trkpt>
      <trkpt lat="54.527026" lon="-3.168794"><ele>203.0</ele></trkpt>
      <trkpt lat="54.527716" lon="-3.168234"><ele>213.0</ele></trkpt>
      <trkpt lat="54.528060" lon="-3.167439"><ele>207.0</ele></trkpt>
      <trkpt lat="54.528301" lon="-3.167060"><ele>207.0</ele></trkpt>
      <trkpt lat="54.528777" lon="-3.166762"><ele>212.0</ele></trkpt>
      <trkpt lat="54.529088" lon="-3.166771"><ele>217.0</ele></trkpt>
      <trkpt lat="54.530046" lon="-3.165586"><ele>219.0</ele></trkpt>
      <trkpt lat="54.530384" lon="-3.165371"><ele>222.0</ele></trkpt>
      <trkpt lat="54.530733" lon="-3.164683"><ele>217.0</ele></trkpt>
      <trkpt lat="54.530940" lon="-3.163852"><ele>224.0</ele></trkpt>
      <trkpt lat="54.531451" lon="-3.162557"><ele>226.0</ele></trkpt>
      <trkpt lat="54.531701" lon="-3.162447"><ele>227.0</ele></trkpt>
      <trkpt lat="54.531772" lon="-3.162180"><ele>232.0</ele></trkpt>
      <trkpt lat="54.532095" lon="-3.161664"><ele>245.0</ele></trkpt>
      <trkpt lat="54.532301" lon="-3.161616"><ele>251.0</ele></trkpt>
      <trkpt lat="54.532484" lon="-3.161289"><ele>260.0</ele></trkpt>
      <trkpt lat="54.533114" lon="-3.161167"><ele>268.0</ele></trkpt>
      <trkpt lat="54.533192" lon="-3.161513"><ele>260.0</ele></trkpt>
      <trkpt lat="54.533108" lon="-3.161167"><ele>268.0</ele></trkpt>
      <trkpt lat="54.532484" lon="-3.161289"><ele>260.0</ele></trkpt>
      <trkpt lat="54.532301" lon="-3.161616"><ele>251.0</ele></trkpt>
      <trkpt lat="54.532095" lon="-3.161664"><ele>245.0</ele></trkpt>
      <trkpt lat="54.531736" lon="-3.162040"><ele>232.0</ele></trkpt>
      <trkpt lat="54.531504" lon="-3.161604"><ele>228.0</ele></trkpt>
      <trkpt lat="54.531508" lon="-3.160542"><ele>213.0</ele></trkpt>
      <trkpt lat="54.531398" lon="-3.160303"><ele>203.0</ele></trkpt>
      <trkpt lat="54.531175" lon="-3.160157"><ele>194.0</ele></trkpt>
      <trkpt lat="54.531348" lon="-3.159690"><ele>188.0</ele></trkpt>
      <trkpt lat="54.531326" lon="-3.159356"><ele>181.0</ele></trkpt>
      <trkpt lat="54.530687" lon="-3.158501"><ele>139.0</ele></trkpt>
      <trkpt lat="54.530420" lon="-3.158343"><ele>126.0</ele></trkpt>
      <trkpt lat="54.529534" lon="-3.158586"><ele>106.0</ele></trkpt>
      <trkpt lat="54.529348" lon="-3.158463"><ele>101.0</ele></trkpt>
      <trkpt lat="54.528679" lon="-3.157500"><ele>89.0</ele></trkpt>
      <trkpt lat="54.528098" lon="-3.157075"><ele>87.0</ele></trkpt>
      <trkpt lat="54.527704" lon="-3.157225"><ele>87.0</ele></trkpt>
      <trkpt lat="54.527005" lon="-3.157999"><ele>87.0</ele></trkpt>
      <trkpt lat="54.526661" lon="-3.158226"><ele>88.0</ele></trkpt>
      <trkpt lat="54.526213" lon="-3.158159"><ele>89.0</ele></trkpt>
      <trkpt lat="54.525658" lon="-3.157596"><ele>88.0</ele></trkpt>
      <trkpt lat="54.525717" lon="-3.157233"><ele>87.0</ele></trkpt>
      <trkpt lat="54.525265" lon="-3.156995"><ele>89.0</ele></trkpt>
      <trkpt lat="54.523787" lon="-3.155236"><ele>90.0</ele></trkpt>
      <trkpt lat="54.523722" lon="-3.154955"><ele>89.0</ele></trkpt>
      <trkpt lat="54.523555" lon="-3.154757"><ele>90.0</ele></trkpt>
      <trkpt lat="54.523580" lon="-3.153438"><ele>90.0</ele></trkpt>
      <trkpt lat="54.523027" lon="-3.150021"><ele>94.0</ele></trkpt>
      <trkpt lat="54.523031" lon="-3.149656"><ele>94.0</ele></trkpt>
      <trkpt lat="54.522957" lon="-3.149525"><ele>95.0</ele></trkpt>
      <trkpt lat="54.522985" lon="-3.149247"><ele>96.0</ele></trkpt>
      <trkpt lat="54.524003" lon="-3.147275"><ele>90.0</ele></trkpt>
      <trkpt lat="54.524291" lon="-3.147733"><ele>90.0</ele></trkpt>
      <trkpt lat="54.524610" lon="-3.146283"><ele>93.0</ele></trkpt>
      <trkpt lat="54.524233" lon="-3.145983"><ele>93.0</ele></trkpt>
      <trkpt lat="54.523364" lon="-3.145663"><ele>95.0</ele></trkpt>
      <trkpt lat="54.523105" lon="-3.145484"><ele>98.0</ele></trkpt>
      <trkpt lat="54.521208" lon="-3.145130"><ele>95.0</ele></trkpt>
      <trkpt lat="54.521211" lon="-3.144841"><ele>94.0</ele></trkpt>
      <trkpt lat="54.521114" lon="-3.144580"><ele>94.0</ele></trkpt>
      <trkpt lat="54.520690" lon="-3.143925"><ele>96.0</ele></trkpt>
      <trkpt lat="54.520511" lon="-3.143791"><ele>97.0</ele></trkpt>
      <trkpt lat="54.520475" lon="-3.143629"><ele>98.0</ele></trkpt>
      <trkpt lat="54.520547" lon="-3.143277"><ele>99.0</ele></trkpt>
      <trkpt lat="54.520519" lon="-3.142954"><ele>102.0</ele></trkpt>
      <trkpt lat="54.520348" lon="-3.142628"><ele>104.0</ele></trkpt>
      <trkpt lat="54.519411" lon="-3.142279"><ele>104.0</ele></trkpt>
      <trkpt lat="54.519320" lon="-3.142652"><ele>100.0</ele></trkpt>
      <trkpt lat="54.518694" lon="-3.142766"><ele>99.0</ele></trkpt>
      <trkpt lat="54.518050" lon="-3.142362"><ele>99.0</ele></trkpt>
      <trkpt lat="54.516975" lon="-3.141463"><ele>102.0</ele></trkpt>
      <trkpt lat="54.516214" lon="-3.140272"><ele>111.0</ele></trkpt>
      <trkpt lat="54.515798" lon="-3.140142"><ele>103.0</ele></trkpt>
      <trkpt lat="54.515175" lon="-3.139470"><ele>102.0</ele></trkpt>
      <trkpt lat="54.514917" lon="-3.139098"><ele>103.0</ele></trkpt>
      <trkpt lat="54.514728" lon="-3.138653"><ele>104.0</ele></trkpt>
      <trkpt lat="54.513976" lon="-3.140456"><ele>99.0</ele></trkpt>
      <trkpt lat="54.513781" lon="-3.140676"><ele>101.0</ele></trkpt>
      <trkpt lat="54.513406" lon="-3.140762"><ele>102.0</ele></trkpt>
      <trkpt lat="54.513251" lon="-3.140682"><ele>103.0</ele></trkpt>
      <trkpt lat="54.512779" lon="-3.139875"><ele>103.0</ele></trkpt>
      <trkpt lat="54.512500" lon="-3.139803"><ele>106.0</ele></trkpt>
      <trkpt lat="54.512316" lon="-3.139465"><ele>106.0</ele></trkpt>
      <trkpt lat="54.511600" lon="-3.138748"><ele>116.0</ele></trkpt>
      <trkpt lat="54.511279" lon="-3.137762"><ele>114.0</ele></trkpt>
      <trkpt lat="54.511095" lon="-3.136824"><ele>110.0</ele></trkpt>
      <trkpt lat="54.510181" lon="-3.135274"><ele>115.0</ele></trkpt>
      <trkpt lat="54.509639" lon="-3.134615"><ele>118.0</ele></trkpt>
      <trkpt lat="54.509420" lon="-3.134051"><ele>114.0</ele></trkpt>
      <trkpt lat="54.509295" lon="-3.133457"><ele>117.0</ele></trkpt>
      <trkpt lat="54.509309" lon="-3.131955"><ele>117.0</ele></trkpt>
      <trkpt lat="54.508959" lon="-3.130733"><ele>124.0</ele></trkpt>
      <trkpt lat="54.508924" lon="-3.129809"><ele>125.0</ele></trkpt>
      <trkpt lat="54.508804" lon="-3.129323"><ele>126.0</ele></trkpt>
      <trkpt lat="54.508484" lon="-3.128853"><ele>123.0</ele></trkpt>
      <trkpt lat="54.507924" lon="-3.128816"><ele>125.0</ele></trkpt>
      <trkpt lat="54.507566" lon="-3.128473"><ele>124.0</ele></trkpt>
      <trkpt lat="54.507547" lon="-3.126498"><ele>124.0</ele></trkpt>
      <trkpt lat="54.507595" lon="-3.125352"><ele>126.0</ele></trkpt>
      <trkpt lat="54.507326" lon="-3.124786"><ele>130.0</ele></trkpt>
      <trkpt lat="54.507184" lon="-3.124632"><ele>131.0</ele></trkpt>
      <trkpt lat="54.507059" lon="-3.124677"><ele>132.0</ele></trkpt>
      <trkpt lat="54.506787" lon="-3.124498"><ele>134.0</ele></trkpt>
      <trkpt lat="54.506466" lon="-3.124113"><ele>137.0</ele></trkpt>
      <trkpt lat="54.505949" lon="-3.124142"><ele>144.0</ele></trkpt>
      <trkpt lat="54.505811" lon="-3.124246"><ele>145.0</ele></trkpt>
      <trkpt lat="54.505465" lon="-3.125245"><ele>151.0</ele></trkpt>
      <trkpt lat="54.505294" lon="-3.125530"><ele>154.0</ele></trkpt>
      <trkpt lat="54.504187" lon="-3.126025"><ele>151.0</ele></trkpt>
      <trkpt lat="54.503552" lon="-3.126630"><ele>151.0</ele></trkpt>
      <trkpt lat="54.503101" lon="-3.126896"><ele>150.0</ele></trkpt>
      <trkpt lat="54.502198" lon="-3.128407"><ele>159.0</ele></trkpt>
      <trkpt lat="54.501602" lon="-3.128884"><ele>154.0</ele></trkpt>
      <trkpt lat="54.501173" lon="-3.129451"><ele>157.0</ele></trkpt>
      <trkpt lat="54.500867" lon="-3.130115"><ele>165.0</ele></trkpt>
      <trkpt lat="54.500427" lon="-3.130575"><ele>168.0</ele></trkpt>
      <trkpt lat="54.499901" lon="-3.130765"><ele>169.0</ele></trkpt>
      <trkpt lat="54.499725" lon="-3.130942"><ele>171.0</ele></trkpt>
      <trkpt lat="54.499118" lon="-3.131215"><ele>171.0</ele></trkpt>
      <trkpt lat="54.497620" lon="-3.131533"><ele>171.0</ele></trkpt>
      <trkpt lat="54.497177" lon="-3.131501"><ele>170.0</ele></trkpt>
      <trkpt lat="54.496714" lon="-3.131606"><ele>170.0</ele></trkpt>
      <trkpt lat="54.496060" lon="-3.132286"><ele>177.0</ele></trkpt>
      <trkpt lat="54.495112" lon="-3.133053"><ele>180.0</ele></trkpt>
      <trkpt lat="54.494128" lon="-3.133584"><ele>179.0</ele></trkpt>
      <trkpt lat="54.493186" lon="-3.133786"><ele>182.0</ele></trkpt>
      <trkpt lat="54.492979" lon="-3.133941"><ele>183.0</ele></trkpt>
      <trkpt lat="54.492754" lon="-3.133999"><ele>183.0</ele></trkpt>
      <trkpt lat="54.492276" lon="-3.133836"><ele>183.0</ele></trkpt>
      <trkpt lat="54.491930" lon="-3.133536"><ele>183.0</ele></trkpt>
      <trkpt lat="54.491728" lon="-3.133123"><ele>184.0</ele></trkpt>
      <trkpt lat="54.491624" lon="-3.133581"><ele>183.0</ele></trkpt>
      <trkpt lat="54.491011" lon="-3.134433"><ele>183.0</ele></trkpt>
      <trkpt lat="54.490314" lon="-3.135036"><ele>186.0</ele></trkpt>
      <trkpt lat="54.490184" lon="-3.135559"><ele>191.0</ele></trkpt>
      <trkpt lat="54.489045" lon="-3.136063"><ele>196.0</ele></trkpt>
      <trkpt lat="54.487947" lon="-3.137226"><ele>200.0</ele></trkpt>
      <trkpt lat="54.487477" lon="-3.137503"><ele>198.0</ele></trkpt>
      <trkpt lat="54.487281" lon="-3.137819"><ele>199.0</ele></trkpt>
      <trkpt lat="54.486855" lon="-3.138011"><ele>200.0</ele></trkpt>
      <trkpt lat="54.485578" lon="-3.137965"><ele>198.0</ele></trkpt>
      <trkpt lat="54.484555" lon="-3.138033"><ele>201.0</ele></trkpt>
      <trkpt lat="54.484354" lon="-3.138156"><ele>202.0</ele></trkpt>
      <trkpt lat="54.483737" lon="-3.138117"><ele>200.0</ele></trkpt>
      <trkpt lat="54.483296" lon="-3.137933"><ele>198.0</ele></trkpt>
      <trkpt lat="54.482775" lon="-3.138305"><ele>203.0</ele></trkpt>
      <trkpt lat="54.481774" lon="-3.138084"><ele>206.0</ele></trkpt>
      <trkpt lat="54.480988" lon="-3.138127"><ele>208.0</ele></trkpt>
      <trkpt lat="54.479916" lon="-3.137485"><ele>212.0</ele></trkpt>
      <trkpt lat="54.479850" lon="-3.137194"><ele>212.0</ele></trkpt>
      <trkpt lat="54.479463" lon="-3.137172"><ele>213.0</ele></trkpt>
      <trkpt lat="54.479210" lon="-3.136993"><ele>215.0</ele></trkpt>
      <trkpt lat="54.478546" lon="-3.135977"><ele>228.0</ele></trkpt>
      <trkpt lat="54.478052" lon="-3.136060"><ele>236.0</ele></trkpt>
      <trkpt lat="54.477918" lon="-3.135788"><ele>239.0</ele></trkpt>
      <trkpt lat="54.477701" lon="-3.135664"><ele>243.0</ele></trkpt>
      <trkpt lat="54.477506" lon="-3.135852"><ele>245.0</ele></trkpt>
      <trkpt lat="54.476971" lon="-3.135731"><ele>259.0</ele></trkpt>
      <trkpt lat="54.476445" lon="-3.135255"><ele>276.0</ele></trkpt>
      <trkpt lat="54.476386" lon="-3.134899"><ele>280.0</ele></trkpt>
      <trkpt lat="54.476414" lon="-3.134578"><ele>282.0</ele></trkpt>
      <trkpt lat="54.475991" lon="-3.134545"><ele>295.0</ele></trkpt>
      <trkpt lat="54.475484" lon="-3.134069"><ele>320.0</ele></trkpt>
      <trkpt lat="54.475213" lon="-3.133729"><ele>335.0</ele></trkpt>
      <trkpt lat="54.474895" lon="-3.133066"><ele>352.0</ele></trkpt>
      <trkpt lat="54.474555" lon="-3.133410"><ele>366.0</ele></trkpt>
      <trkpt lat="54.474376" lon="-3.133148"><ele>376.0</ele></trkpt>
      <trkpt lat="54.474165" lon="-3.133056"><ele>388.0</ele></trkpt>
      <trkpt lat="54.474113" lon="-3.133312"><ele>394.0</ele></trkpt>
      <trkpt lat="54.473971" lon="-3.133169"><ele>400.0</ele></trkpt>
      <trkpt lat="54.473393" lon="-3.133056"><ele>422.0</ele></trkpt>
      <trkpt lat="54.473301" lon="-3.132850"><ele>424.0</ele></trkpt>
      <trkpt lat="54.473054" lon="-3.132596"><ele>431.0</ele></trkpt>
      <trkpt lat="54.472756" lon="-3.132491"><ele>444.0</ele></trkpt>
      <trkpt lat="54.472394" lon="-3.132481"><ele>451.0</ele></trkpt>
      <trkpt lat="54.472292" lon="-3.132725"><ele>453.0</ele></trkpt>
      <trkpt lat="54.471831" lon="-3.133313"><ele>458.0</ele></trkpt>
      <trkpt lat="54.471709" lon="-3.133707"><ele>463.0</ele></trkpt>
      <trkpt lat="54.471118" lon="-3.134087"><ele>464.0</ele></trkpt>
      <trkpt lat="54.470879" lon="-3.134360"><ele>467.0</ele></trkpt>
      <trkpt lat="54.469889" lon="-3.134783"><ele>469.0</ele></trkpt>
      <trkpt lat="54.469563" lon="-3.135053"><ele>472.0</ele></trkpt>
      <trkpt lat="54.469326" lon="-3.135626"><ele>477.0</ele></trkpt>
      <trkpt lat="54.468620" lon="-3.135144"><ele>478.0</ele></trkpt>
      <trkpt lat="54.468233" lon="-3.135187"><ele>480.0</ele></trkpt>
      <trkpt lat="54.468247" lon="-3.135303"><ele>479.0</ele></trkpt>
      <trkpt lat="54.468247" lon="-3.135303"><ele>479.0</ele></trkpt>
      <trkpt lat="54.467997" lon="-3.135217"><ele>479.0</ele></trkpt>
      <trkpt lat="54.467822" lon="-3.135241"><ele>480.8</ele></trkpt>
      <trkpt lat="54.467695" lon="-3.134931"><ele>483.8</ele></trkpt>
      <trkpt lat="54.467465" lon="-3.134835"><ele>486.3</ele></trkpt>
      <trkpt lat="54.467252" lon="-3.134598"><ele>489.5</ele></trkpt>
      <trkpt lat="54.466800" lon="-3.134606"><ele>496.3</ele></trkpt>
      <trkpt lat="54.466646" lon="-3.134374"><ele>500.5</ele></trkpt>
      <trkpt lat="54.466435" lon="-3.133758"><ele>506.5</ele></trkpt>
      <trkpt lat="54.466158" lon="-3.133361"><ele>512.0</ele></trkpt>
      <trkpt lat="54.465838" lon="-3.133040"><ele>520.0</ele></trkpt>
      <trkpt lat="54.465680" lon="-3.133010"><ele>523.0</ele></trkpt>
      <trkpt lat="54.465560" lon="-3.132883"><ele>526.0</ele></trkpt>
      <trkpt lat="54.465425" lon="-3.132559"><ele>530.8</ele></trkpt>
      <trkpt lat="54.464869" lon="-3.131901"><ele>537.0</ele></trkpt>
      <trkpt lat="54.464700" lon="-3.131588"><ele>539.8</ele></trkpt>
      <trkpt lat="54.464495" lon="-3.130995"><ele>543.5</ele></trkpt>
      <trkpt lat="54.464316" lon="-3.130862"><ele>543.5</ele></trkpt>
      <trkpt lat="54.464215" lon="-3.130575"><ele>542.8</ele></trkpt>
      <trkpt lat="54.464154" lon="-3.128945"><ele>536.3</ele></trkpt>
      <trkpt lat="54.464065" lon="-3.128698"><ele>537.3</ele></trkpt>
      <trkpt lat="54.464070" lon="-3.128470"><ele>538.0</ele></trkpt>
      <trkpt lat="54.463952" lon="-3.128054"><ele>539.3</ele></trkpt>
      <trkpt lat="54.463424" lon="-3.128010"><ele>544.3</ele></trkpt>
      <trkpt lat="54.462801" lon="-3.126999"><ele>556.3</ele></trkpt>
      <trkpt lat="54.462625" lon="-3.126249"><ele>567.0</ele></trkpt>
      <trkpt lat="54.462429" lon="-3.124027"><ele>599.0</ele></trkpt>
      <trkpt lat="54.462276" lon="-3.123423"><ele>609.0</ele></trkpt>
      <trkpt lat="54.462208" lon="-3.122116"><ele>627.0</ele></trkpt>
      <trkpt lat="54.461964" lon="-3.120119"><ele>652.8</ele></trkpt>
      <trkpt lat="54.461867" lon="-3.118729"><ele>666.8</ele></trkpt>
      <trkpt lat="54.461739" lon="-3.118217"><ele>670.8</ele></trkpt>
      <trkpt lat="54.461591" lon="-3.116664"><ele>681.8</ele></trkpt>
      <trkpt lat="54.461654" lon="-3.116127"><ele>686.5</ele></trkpt>
      <trkpt lat="54.461579" lon="-3.115899"><ele>688.3</ele></trkpt>
      <trkpt lat="54.461425" lon="-3.114659"><ele>700.0</ele></trkpt>
      <trkpt lat="54.461487" lon="-3.114197"><ele>705.8</ele></trkpt>
      <trkpt lat="54.461874" lon="-3.112879"><ele>718.8</ele></trkpt>
      <trkpt lat="54.461502" lon="-3.112967"><ele>714.0</ele></trkpt>
      <trkpt lat="54.461361" lon="-3.112655"><ele>713.3</ele></trkpt>
      <trkpt lat="54.461247" lon="-3.112533"><ele>711.3</ele></trkpt>
      <trkpt lat="54.460619" lon="-3.112361"><ele>700.3</ele></trkpt>
      <trkpt lat="54.460506" lon="-3.112412"><ele>699.0</ele></trkpt>
      <trkpt lat="54.459961" lon="-3.111960"><ele>697.5</ele></trkpt>
      <trkpt lat="54.459753" lon="-3.112083"><ele>695.3</ele></trkpt>
      <trkpt lat="54.459488" lon="-3.111979"><ele>695.5</ele></trkpt>
      <trkpt lat="54.459031" lon="-3.111940"><ele>695.0</ele></trkpt>
      <trkpt lat="54.458780" lon="-3.111727"><ele>696.5</ele></trkpt>
      <trkpt lat="54.458691" lon="-3.111766"><ele>696.3</ele></trkpt>
      <trkpt lat="54.458450" lon="-3.111609"><ele>698.5</ele></trkpt>
      <trkpt lat="54.457995" lon="-3.111213"><ele>705.8</ele></trkpt>
      <trkpt lat="54.457789" lon="-3.111147"><ele>705.8</ele></trkpt>
      <trkpt lat="54.457686" lon="-3.110990"><ele>705.0</ele></trkpt>
      <trkpt lat="54.457789" lon="-3.111147"><ele>705.8</ele></trkpt>
      <trkpt lat="54.457995" lon="-3.111213"><ele>705.8</ele></trkpt>
      <trkpt lat="54.458450" lon="-3.111609"><ele>698.5</ele></trkpt>
      <trkpt lat="54.458691" lon="-3.111766"><ele>696.3</ele></trkpt>
      <trkpt lat="54.458780" lon="-3.111727"><ele>696.5</ele></trkpt>
      <trkpt lat="54.459031" lon="-3.111940"><ele>695.0</ele></trkpt>
      <trkpt lat="54.459488" lon="-3.111979"><ele>695.5</ele></trkpt>
      <trkpt lat="54.459753" lon="-3.112083"><ele>695.3</ele></trkpt>
      <trkpt lat="54.459961" lon="-3.111960"><ele>697.5</ele></trkpt>
      <trkpt lat="54.460506" lon="-3.112412"><ele>699.0</ele></trkpt>
      <trkpt lat="54.460619" lon="-3.112361"><ele>700.3</ele></trkpt>
      <trkpt lat="54.461247" lon="-3.112533"><ele>711.3</ele></trkpt>
      <trkpt lat="54.461361" lon="-3.112655"><ele>713.3</ele></trkpt>
      <trkpt lat="54.461502" lon="-3.112967"><ele>714.0</ele></trkpt>
      <trkpt lat="54.461874" lon="-3.112879"><ele>718.8</ele></trkpt>
      <trkpt lat="54.461487" lon="-3.114197"><ele>705.8</ele></trkpt>
      <trkpt lat="54.461425" lon="-3.114659"><ele>700.0</ele></trkpt>
      <trkpt lat="54.461579" lon="-3.115899"><ele>688.3</ele></trkpt>
      <trkpt lat="54.461654" lon="-3.116127"><ele>686.5</ele></trkpt>
      <trkpt lat="54.461591" lon="-3.116664"><ele>681.8</ele></trkpt>
      <trkpt lat="54.461739" lon="-3.118217"><ele>670.8</ele></trkpt>
      <trkpt lat="54.461867" lon="-3.118729"><ele>666.8</ele></trkpt>
      <trkpt lat="54.461964" lon="-3.120119"><ele>652.8</ele></trkpt>
      <trkpt lat="54.462208" lon="-3.122116"><ele>627.0</ele></trkpt>
      <trkpt lat="54.462276" lon="-3.123423"><ele>609.0</ele></trkpt>
      <trkpt lat="54.462429" lon="-3.124027"><ele>599.0</ele></trkpt>
      <trkpt lat="54.462625" lon="-3.126249"><ele>567.0</ele></trkpt>
      <trkpt lat="54.462801" lon="-3.126999"><ele>556.3</ele></trkpt>
      <trkpt lat="54.463424" lon="-3.128010"><ele>544.3</ele></trkpt>
      <trkpt lat="54.463952" lon="-3.128054"><ele>539.3</ele></trkpt>
      <trkpt lat="54.464070" lon="-3.128470"><ele>538.0</ele></trkpt>
      <trkpt lat="54.464065" lon="-3.128698"><ele>537.3</ele></trkpt>
      <trkpt lat="54.464154" lon="-3.128945"><ele>536.3</ele></trkpt>
      <trkpt lat="54.464215" lon="-3.130575"><ele>542.8</ele></trkpt>
      <trkpt lat="54.464316" lon="-3.130862"><ele>543.5</ele></trkpt>
      <trkpt lat="54.464495" lon="-3.130995"><ele>543.5</ele></trkpt>
      <trkpt lat="54.464700" lon="-3.131588"><ele>539.8</ele></trkpt>
      <trkpt lat="54.464869" lon="-3.131901"><ele>537.0</ele></trkpt>
      <trkpt lat="54.465425" lon="-3.132559"><ele>530.8</ele></trkpt>
      <trkpt lat="54.465560" lon="-3.132883"><ele>526.0</ele></trkpt>
      <trkpt lat="54.465680" lon="-3.133010"><ele>523.0</ele></trkpt>
      <trkpt lat="54.465838" lon="-3.133040"><ele>520.0</ele></trkpt>
      <trkpt lat="54.466158" lon="-3.133361"><ele>512.0</ele></trkpt>
      <trkpt lat="54.466435" lon="-3.133758"><ele>506.5</ele></trkpt>
      <trkpt lat="54.466646" lon="-3.134374"><ele>500.5</ele></trkpt>
      <trkpt lat="54.466800" lon="-3.134606"><ele>496.3</ele></trkpt>
      <trkpt lat="54.467252" lon="-3.134598"><ele>489.5</ele></trkpt>
      <trkpt lat="54.467465" lon="-3.134835"><ele>486.3</ele></trkpt>
      <trkpt lat="54.467695" lon="-3.134931"><ele>483.8</ele></trkpt>
      <trkpt lat="54.467822" lon="-3.135241"><ele>480.8</ele></trkpt>
      <trkpt lat="54.467997" lon="-3.135217"><ele>479.0</ele></trkpt>
      <trkpt lat="54.468247" lon="-3.135303"><ele>479.0</ele></trkpt>
      <trkpt lat="54.467997" lon="-3.135217"><ele>479.0</ele></trkpt>
      <trkpt lat="54.467822" lon="-3.135241"><ele>480.8</ele></trkpt>
      <trkpt lat="54.467695" lon="-3.134931"><ele>483.8</ele></trkpt>
      <trkpt lat="54.467465" lon="-3.134835"><ele>486.3</ele></trkpt>
      <trkpt lat="54.467252" lon="-3.134598"><ele>489.5</ele></trkpt>
      <trkpt lat="54.466800" lon="-3.134606"><ele>496.3</ele></trkpt>
      <trkpt lat="54.466646" lon="-3.134374"><ele>500.5</ele></trkpt>
      <trkpt lat="54.466435" lon="-3.133758"><ele>506.5</ele></trkpt>
      <trkpt lat="54.466158" lon="-3.133361"><ele>512.0</ele></trkpt>
      <trkpt lat="54.465838" lon="-3.133040"><ele>520.0</ele></trkpt>
      <trkpt lat="54.465680" lon="-3.133010"><ele>523.0</ele></trkpt>
      <trkpt lat="54.465560" lon="-3.132883"><ele>526.0</ele></trkpt>
      <trkpt lat="54.465425" lon="-3.132559"><ele>530.8</ele></trkpt>
      <trkpt lat="54.464869" lon="-3.131901"><ele>537.0</ele></trkpt>
      <trkpt lat="54.464700" lon="-3.131588"><ele>539.8</ele></trkpt>
      <trkpt lat="54.464495" lon="-3.130995"><ele>543.5</ele></trkpt>
      <trkpt lat="54.464316" lon="-3.130862"><ele>543.5</ele></trkpt>
      <trkpt lat="54.464215" lon="-3.130575"><ele>542.8</ele></trkpt>
      <trkpt lat="54.464154" lon="-3.128945"><ele>536.3</ele></trkpt>
      <trkpt lat="54.464065" lon="-3.128698"><ele>537.3</ele></trkpt>
      <trkpt lat="54.464070" lon="-3.128470"><ele>538.0</ele></trkpt>
      <trkpt lat="54.463952" lon="-3.128054"><ele>539.3</ele></trkpt>
      <trkpt lat="54.463424" lon="-3.128010"><ele>544.3</ele></trkpt>
      <trkpt lat="54.462801" lon="-3.126999"><ele>556.3</ele></trkpt>
      <trkpt lat="54.462625" lon="-3.126249"><ele>567.0</ele></trkpt>
      <trkpt lat="54.462429" lon="-3.124027"><ele>599.0</ele></trkpt>
      <trkpt lat="54.462276" lon="-3.123423"><ele>609.0</ele></trkpt>
      <trkpt lat="54.462208" lon="-3.122116"><ele>627.0</ele></trkpt>
      <trkpt lat="54.461964" lon="-3.120119"><ele>652.8</ele></trkpt>
      <trkpt lat="54.461867" lon="-3.118729"><ele>666.8</ele></trkpt>
      <trkpt lat="54.461739" lon="-3.118217"><ele>670.8</ele></trkpt>
      <trkpt lat="54.461591" lon="-3.116664"><ele>681.8</ele></trkpt>
      <trkpt lat="54.461654" lon="-3.116127"><ele>686.5</ele></trkpt>
      <trkpt lat="54.461579" lon="-3.115899"><ele>688.3</ele></trkpt>
      <trkpt lat="54.461425" lon="-3.114659"><ele>700.0</ele></trkpt>
      <trkpt lat="54.461487" lon="-3.114197"><ele>705.8</ele></trkpt>
      <trkpt lat="54.461874" lon="-3.112879"><ele>718.8</ele></trkpt>
      <trkpt lat="54.461502" lon="-3.112967"><ele>714.0</ele></trkpt>
      <trkpt lat="54.461361" lon="-3.112655"><ele>713.3</ele></trkpt>
      <trkpt lat="54.461247" lon="-3.112533"><ele>711.3</ele></trkpt>
      <trkpt lat="54.460619" lon="-3.112361"><ele>700.3</ele></trkpt>
      <trkpt lat="54.460506" lon="-3.112412"><ele>699.0</ele></trkpt>
      <trkpt lat="54.459961" lon="-3.111960"><ele>697.5</ele></trkpt>
      <trkpt lat="54.459753" lon="-3.112083"><ele>695.3</ele></trkpt>
      <trkpt lat="54.459488" lon="-3.111979"><ele>695.5</ele></trkpt>
      <trkpt lat="54.459031" lon="-3.111940"><ele>695.0</ele></trkpt>
      <trkpt lat="54.458780" lon="-3.111727"><ele>696.5</ele></trkpt>
      <trkpt lat="54.458691" lon="-3.111766"><ele>696.3</ele></trkpt>
      <trkpt lat="54.458450" lon="-3.111609"><ele>698.5</ele></trkpt>
      <trkpt lat="54.457995" lon="-3.111213"><ele>705.8</ele></trkpt>
      <trkpt lat="54.457789" lon="-3.111147"><ele>705.8</ele></trkpt>
      <trkpt lat="54.457311" lon="-3.110543"><ele>709.8</ele></trkpt>
      <trkpt lat="54.457150" lon="-3.110245"><ele>717.0</ele></trkpt>
      <trkpt lat="54.456866" lon="-3.109463"><ele>732.3</ele></trkpt>
      <trkpt lat="54.456680" lon="-3.109462"><ele>731.8</ele></trkpt>
      <trkpt lat="54.456665" lon="-3.109100"><ele>724.0</ele></trkpt>
      <trkpt lat="54.456723" lon="-3.108961"><ele>718.8</ele></trkpt>
      <trkpt lat="54.456890" lon="-3.108945"><ele>713.3</ele></trkpt>
      <trkpt lat="54.456723" lon="-3.108961"><ele>718.8</ele></trkpt>
      <trkpt lat="54.456665" lon="-3.109100"><ele>724.0</ele></trkpt>
      <trkpt lat="54.456680" lon="-3.109462"><ele>731.8</ele></trkpt>
      <trkpt lat="54.456866" lon="-3.109463"><ele>732.3</ele></trkpt>
      <trkpt lat="54.457150" lon="-3.110245"><ele>717.0</ele></trkpt>
      <trkpt lat="54.457311" lon="-3.110543"><ele>709.8</ele></trkpt>
      <trkpt lat="54.457789" lon="-3.111147"><ele>705.8</ele></trkpt>
      <trkpt lat="54.457995" lon="-3.111213"><ele>705.8</ele></trkpt>
      <trkpt lat="54.458450" lon="-3.111609"><ele>698.5</ele></trkpt>
      <trkpt lat="54.458691" lon="-3.111766"><ele>696.3</ele></trkpt>
      <trkpt lat="54.458780" lon="-3.111727"><ele>696.5</ele></trkpt>
      <trkpt lat="54.459031" lon="-3.111940"><ele>695.0</ele></trkpt>
      <trkpt lat="54.459488" lon="-3.111979"><ele>695.5</ele></trkpt>
      <trkpt lat="54.459753" lon="-3.112083"><ele>695.3</ele></trkpt>
      <trkpt lat="54.459961" lon="-3.111960"><ele>697.5</ele></trkpt>
      <trkpt lat="54.460506" lon="-3.112412"><ele>699.0</ele></trkpt>
      <trkpt lat="54.460619" lon="-3.112361"><ele>700.3</ele></trkpt>
      <trkpt lat="54.461247" lon="-3.112533"><ele>711.3</ele></trkpt>
      <trkpt lat="54.461361" lon="-3.112655"><ele>713.3</ele></trkpt>
      <trkpt lat="54.461502" lon="-3.112967"><ele>714.0</ele></trkpt>
      <trkpt lat="54.461874" lon="-3.112879"><ele>718.8</ele></trkpt>
      <trkpt lat="54.461487" lon="-3.114197"><ele>705.8</ele></trkpt>
      <trkpt lat="54.461425" lon="-3.114659"><ele>700.0</ele></trkpt>
      <trkpt lat="54.461579" lon="-3.115899"><ele>688.3</ele></trkpt>
      <trkpt lat="54.461654" lon="-3.116127"><ele>686.5</ele></trkpt>
      <trkpt lat="54.461591" lon="-3.116664"><ele>681.8</ele></trkpt>
      <trkpt lat="54.461739" lon="-3.118217"><ele>670.8</ele></trkpt>
      <trkpt lat="54.461867" lon="-3.118729"><ele>666.8</ele></trkpt>
      <trkpt lat="54.461964" lon="-3.120119"><ele>652.8</ele></trkpt>
      <trkpt lat="54.462208" lon="-3.122116"><ele>627.0</ele></trkpt>
      <trkpt lat="54.462276" lon="-3.123423"><ele>609.0</ele></trkpt>
      <trkpt lat="54.462429" lon="-3.124027"><ele>599.0</ele></trkpt>
      <trkpt lat="54.462625" lon="-3.126249"><ele>567.0</ele></trkpt>
      <trkpt lat="54.462801" lon="-3.126999"><ele>556.3</ele></trkpt>
      <trkpt lat="54.463424" lon="-3.128010"><ele>544.3</ele></trkpt>
      <trkpt lat="54.463952" lon="-3.128054"><ele>539.3</ele></trkpt>
      <trkpt lat="54.464070" lon="-3.128470"><ele>538.0</ele></trkpt>
      <trkpt lat="54.464065" lon="-3.128698"><ele>537.3</ele></trkpt>
      <trkpt lat="54.464154" lon="-3.128945"><ele>536.3</ele></trkpt>
      <trkpt lat="54.464215" lon="-3.130575"><ele>542.8</ele></trkpt>
      <trkpt lat="54.464316" lon="-3.130862"><ele>543.5</ele></trkpt>
      <trkpt lat="54.464495" lon="-3.130995"><ele>543.5</ele></trkpt>
      <trkpt lat="54.464700" lon="-3.131588"><ele>539.8</ele></trkpt>
      <trkpt lat="54.464869" lon="-3.131901"><ele>537.0</ele></trkpt>
      <trkpt lat="54.465425" lon="-3.132559"><ele>530.8</ele></trkpt>
      <trkpt lat="54.465560" lon="-3.132883"><ele>526.0</ele></trkpt>
      <trkpt lat="54.465680" lon="-3.133010"><ele>523.0</ele></trkpt>
      <trkpt lat="54.465838" lon="-3.133040"><ele>520.0</ele></trkpt>
      <trkpt lat="54.466158" lon="-3.133361"><ele>512.0</ele></trkpt>
      <trkpt lat="54.466435" lon="-3.133758"><ele>506.5</ele></trkpt>
      <trkpt lat="54.466646" lon="-3.134374"><ele>500.5</ele></trkpt>
      <trkpt lat="54.466800" lon="-3.134606"><ele>496.3</ele></trkpt>
      <trkpt lat="54.467252" lon="-3.134598"><ele>489.5</ele></trkpt>
      <trkpt lat="54.467465" lon="-3.134835"><ele>486.3</ele></trkpt>
      <trkpt lat="54.467695" lon="-3.134931"><ele>483.8</ele></trkpt>
      <trkpt lat="54.467822" lon="-3.135241"><ele>480.8</ele></trkpt>
      <trkpt lat="54.467997" lon="-3.135217"><ele>479.0</ele></trkpt>
      <trkpt lat="54.468247" lon="-3.135303"><ele>479.0</ele></trkpt>
      <trkpt lat="54.468200" lon="-3.135390"><ele>479.0</ele></trkpt>
      <trkpt lat="54.468405" lon="-3.136169"><ele>479.0</ele></trkpt>
      <trkpt lat="54.468953" lon="-3.136871"><ele>478.0</ele></trkpt>
      <trkpt lat="54.469061" lon="-3.137303"><ele>479.0</ele></trkpt>
      <trkpt lat="54.469160" lon="-3.137434"><ele>481.0</ele></trkpt>
      <trkpt lat="54.469058" lon="-3.137625"><ele>479.0</ele></trkpt>
      <trkpt lat="54.469094" lon="-3.137819"><ele>480.0</ele></trkpt>
      <trkpt lat="54.469203" lon="-3.138112"><ele>480.0</ele></trkpt>
      <trkpt lat="54.469512" lon="-3.138431"><ele>481.0</ele></trkpt>
      <trkpt lat="54.469595" lon="-3.138895"><ele>481.0</ele></trkpt>
      <trkpt lat="54.469779" lon="-3.139179"><ele>482.0</ele></trkpt>
      <trkpt lat="54.469782" lon="-3.140220"><ele>483.0</ele></trkpt>
      <trkpt lat="54.469629" lon="-3.140581"><ele>482.0</ele></trkpt>
      <trkpt lat="54.469428" lon="-3.141401"><ele>488.0</ele></trkpt>
      <trkpt lat="54.469093" lon="-3.143130"><ele>498.0</ele></trkpt>
      <trkpt lat="54.468915" lon="-3.143554"><ele>504.0</ele></trkpt>
      <trkpt lat="54.468682" lon="-3.143741"><ele>507.0</ele></trkpt>
      <trkpt lat="54.468401" lon="-3.144463"><ele>516.0</ele></trkpt>
      <trkpt lat="54.467592" lon="-3.145642"><ele>534.0</ele></trkpt>
      <trkpt lat="54.466329" lon="-3.146583"><ele>556.0</ele></trkpt>
      <trkpt lat="54.465235" lon="-3.147561"><ele>569.0</ele></trkpt>
      <trkpt lat="54.465038" lon="-3.147888"><ele>572.0</ele></trkpt>
      <trkpt lat="54.465028" lon="-3.148381"><ele>575.0</ele></trkpt>
      <trkpt lat="54.464868" lon="-3.148731"><ele>572.0</ele></trkpt>
      <trkpt lat="54.464468" lon="-3.149061"><ele>570.0</ele></trkpt>
      <trkpt lat="54.463824" lon="-3.149912"><ele>569.0</ele></trkpt>
      <trkpt lat="54.463485" lon="-3.150782"><ele>567.0</ele></trkpt>
      <trkpt lat="54.462711" lon="-3.152102"><ele>560.0</ele></trkpt>
      <trkpt lat="54.462513" lon="-3.152611"><ele>556.0</ele></trkpt>
      <trkpt lat="54.462376" lon="-3.153230"><ele>553.0</ele></trkpt>
      <trkpt lat="54.462336" lon="-3.154141"><ele>553.0</ele></trkpt>
      <trkpt lat="54.462221" lon="-3.154470"><ele>553.0</ele></trkpt>
      <trkpt lat="54.462104" lon="-3.155583"><ele>554.0</ele></trkpt>
      <trkpt lat="54.461708" lon="-3.156548"><ele>559.0</ele></trkpt>
      <trkpt lat="54.461587" lon="-3.157457"><ele>555.0</ele></trkpt>
      <trkpt lat="54.461367" lon="-3.158362"><ele>557.0</ele></trkpt>
      <trkpt lat="54.460847" lon="-3.159850"><ele>563.0</ele></trkpt>
      <trkpt lat="54.460708" lon="-3.160726"><ele>560.0</ele></trkpt>
      <trkpt lat="54.460277" lon="-3.162012"><ele>558.0</ele></trkpt>
      <trkpt lat="54.460087" lon="-3.162318"><ele>565.0</ele></trkpt>
      <trkpt lat="54.460076" lon="-3.162310"><ele>565.8</ele></trkpt>
      <trkpt lat="54.460061" lon="-3.162541"><ele>564.8</ele></trkpt>
      <trkpt lat="54.459998" lon="-3.162694"><ele>565.5</ele></trkpt>
      <trkpt lat="54.460027" lon="-3.162936"><ele>563.3</ele></trkpt>
      <trkpt lat="54.459965" lon="-3.163248"><ele>561.3</ele></trkpt>
      <trkpt lat="54.459948" lon="-3.163920"><ele>561.3</ele></trkpt>
      <trkpt lat="54.459791" lon="-3.164754"><ele>564.5</ele></trkpt>
      <trkpt lat="54.459783" lon="-3.165102"><ele>562.3</ele></trkpt>
      <trkpt lat="54.459641" lon="-3.165020"><ele>566.3</ele></trkpt>
      <trkpt lat="54.459503" lon="-3.165040"><ele>568.8</ele></trkpt>
      <trkpt lat="54.459371" lon="-3.164585"><ele>575.0</ele></trkpt>
      <trkpt lat="54.459144" lon="-3.164330"><ele>581.0</ele></trkpt>
      <trkpt lat="54.459027" lon="-3.164381"><ele>582.5</ele></trkpt>
      <trkpt lat="54.458614" lon="-3.164306"><ele>593.3</ele></trkpt>
      <trkpt lat="54.458368" lon="-3.164204"><ele>600.5</ele></trkpt>
      <trkpt lat="54.458219" lon="-3.164042"><ele>605.3</ele></trkpt>
      <trkpt lat="54.458177" lon="-3.163859"><ele>607.8</ele></trkpt>
      <trkpt lat="54.458084" lon="-3.163721"><ele>610.0</ele></trkpt>
      <trkpt lat="54.458082" lon="-3.163568"><ele>611.0</ele></trkpt>
      <trkpt lat="54.458280" lon="-3.162221"><ele>616.3</ele></trkpt>
      <trkpt lat="54.458223" lon="-3.161730"><ele>617.8</ele></trkpt>
      <trkpt lat="54.458284" lon="-3.161203"><ele>626.5</ele></trkpt>
      <trkpt lat="54.458146" lon="-3.161024"><ele>630.8</ele></trkpt>
      <trkpt lat="54.458035" lon="-3.160661"><ele>636.5</ele></trkpt>
      <trkpt lat="54.457949" lon="-3.159875"><ele>644.0</ele></trkpt>
      <trkpt lat="54.458035" lon="-3.160661"><ele>636.5</ele></trkpt>
      <trkpt lat="54.458146" lon="-3.161024"><ele>630.8</ele></trkpt>
      <trkpt lat="54.458284" lon="-3.161203"><ele>626.5</ele></trkpt>
      <trkpt lat="54.458223" lon="-3.161730"><ele>617.8</ele></trkpt>
      <trkpt lat="54.458280" lon="-3.162221"><ele>616.3</ele></trkpt>
      <trkpt lat="54.458082" lon="-3.163568"><ele>611.0</ele></trkpt>
      <trkpt lat="54.458084" lon="-3.163721"><ele>610.0</ele></trkpt>
      <trkpt lat="54.458177" lon="-3.163859"><ele>607.8</ele></trkpt>
      <trkpt lat="54.458219" lon="-3.164042"><ele>605.3</ele></trkpt>
      <trkpt lat="54.458368" lon="-3.164204"><ele>600.5</ele></trkpt>
      <trkpt lat="54.458614" lon="-3.164306"><ele>593.3</ele></trkpt>
      <trkpt lat="54.459027" lon="-3.164381"><ele>582.5</ele></trkpt>
      <trkpt lat="54.459144" lon="-3.164330"><ele>581.0</ele></trkpt>
      <trkpt lat="54.459371" lon="-3.164585"><ele>575.0</ele></trkpt>
      <trkpt lat="54.459503" lon="-3.165040"><ele>568.8</ele></trkpt>
      <trkpt lat="54.459641" lon="-3.165020"><ele>566.3</ele></trkpt>
      <trkpt lat="54.459783" lon="-3.165102"><ele>562.3</ele></trkpt>
      <trkpt lat="54.459791" lon="-3.164754"><ele>564.5</ele></trkpt>
      <trkpt lat="54.459948" lon="-3.163920"><ele>561.3</ele></trkpt>
      <trkpt lat="54.459965" lon="-3.163248"><ele>561.3</ele></trkpt>
      <trkpt lat="54.460027" lon="-3.162936"><ele>563.3</ele></trkpt>
      <trkpt lat="54.459998" lon="-3.162694"><ele>565.5</ele></trkpt>
      <trkpt lat="54.460061" lon="-3.162541"><ele>564.8</ele></trkpt>
      <trkpt lat="54.460076" lon="-3.162310"><ele>565.8</ele></trkpt>
      <trkpt lat="54.460007" lon="-3.162841"><ele>564.0</ele></trkpt>
    </trkseg>
  </trk>
</gpx>
