<?xml version="1.0" encoding="UTF-8"?>
<gpx version="1.1" creator="route-planner"
  xmlns="http://www.topografix.com/GPX/1/1"
  xmlns:xsi="http://www.w3.org/2001/XMLSchema-instance"
  xsi:schemaLocation="http://www.topografix.com/GPX/1/1 http://www.topografix.com/GPX/1/1/gpx.xsd">
  <metadata>
    <name>Lakeland Way — Anticlockwise day 7 (2026-09-06)</name>
    <desc>Base 14.5km, +277m; with 1 detour(s): +1.9km, +125m ascent. Total 16.4km.</desc>
  </metadata>
  <wpt lat="54.555089" lon="-2.977156">
    <ele>675.0</ele>
    <name>Sheffield Pike 675m</name>
    <desc>A 675m fell between Glencoyne and Glenridding, above old lead workings. Detour: +1.9km, +125m ascent.</desc>
    <type>peaks</type>
  </wpt>
  <wpt lat="54.600984" lon="-3.018955">
    <name>Night 5 — camp</name>
    <type>camp</type>
  </wpt>
  <trk>
    <name>Day 7</name>
    <trkseg>
      <trkpt lat="54.556807" lon="-2.989121"><ele>621.0</ele></trkpt>
      <trkpt lat="54.557057" lon="-2.988955"><ele>617.0</ele></trkpt>
      <trkpt lat="54.557054" lon="-2.988974"><ele>620.8</ele></trkpt>
      <trkpt lat="54.556876" lon="-2.988990"><ele>622.5</ele></trkpt>
      <trkpt lat="54.556746" lon="-2.989115"><ele>622.0</ele></trkpt>
      <trkpt lat="54.556178" lon="-2.988157"><ele>608.3</ele></trkpt>
      <trkpt lat="54.555817" lon="-2.987655"><ele>596.3</ele></trkpt>
      <trkpt lat="54.555447" lon="-2.987267"><ele>587.5</ele></trkpt>
      <trkpt lat="54.555445" lon="-2.987133"><ele>585.8</ele></trkpt>
      <trkpt lat="54.555166" lon="-2.986943"><ele>583.8</ele></trkpt>
      <trkpt lat="54.555074" lon="-2.986600"><ele>588.5</ele></trkpt>
      <trkpt lat="54.554840" lon="-2.986148"><ele>596.0</ele></trkpt>
      <trkpt lat="54.554776" lon="-2.985631"><ele>601.5</ele></trkpt>
      <trkpt lat="54.554850" lon="-2.984403"><ele>609.3</ele></trkpt>
      <trkpt lat="54.554751" lon="-2.983565"><ele>611.3</ele></trkpt>
      <trkpt lat="54.554794" lon="-2.983205"><ele>614.0</ele></trkpt>
      <trkpt lat="54.554816" lon="-2.981686"><ele>625.3</ele></trkpt>
      <trkpt lat="54.554949" lon="-2.980453"><ele>641.0</ele></trkpt>
      <trkpt lat="54.555004" lon="-2.980348"><ele>641.0</ele></trkpt>
      <trkpt lat="54.554996" lon="-2.979695"><ele>643.3</ele></trkpt>
      <trkpt lat="54.554944" lon="-2.979553"><ele>645.0</ele></trkpt>
      <trkpt lat="54.554994" lon="-2.979382"><ele>646.3</ele></trkpt>
      <trkpt lat="54.554960" lon="-2.978933"><ele>650.0</ele></trkpt>
      <trkpt lat="54.555004" lon="-2.978731"><ele>652.5</ele></trkpt>
      <trkpt lat="54.554914" lon="-2.978331"><ele>657.3</ele></trkpt>
      <trkpt lat="54.554885" lon="-2.977769"><ele>662.5</ele></trkpt>
      <trkpt lat="54.555014" lon="-2.977090"><ele>670.8</ele></trkpt>
      <trkpt lat="54.554885" lon="-2.977769"><ele>662.5</ele></trkpt>
      <trkpt lat="54.554914" lon="-2.978331"><ele>657.3</ele></trkpt>
      <trkpt lat="54.555004" lon="-2.978731"><ele>652.5</ele></trkpt>
      <trkpt lat="54.554960" lon="-2.978933"><ele>650.0</ele></trkpt>
      <trkpt lat="54.554994" lon="-2.979382"><ele>646.3</ele></trkpt>
      <trkpt lat="54.554944" lon="-2.979553"><ele>645.0</ele></trkpt>
      <trkpt lat="54.554996" lon="-2.979695"><ele>643.3</ele></trkpt>
      <trkpt lat="54.555004" lon="-2.980348"><ele>641.0</ele></trkpt>
      <trkpt lat="54.554949" lon="-2.980453"><ele>641.0</ele></trkpt>
      <trkpt lat="54.554816" lon="-2.981686"><ele>625.3</ele></trkpt>
      <trkpt lat="54.554794" lon="-2.983205"><ele>614.0</ele></trkpt>
      <trkpt lat="54.554751" lon="-2.983565"><ele>611.3</ele></trkpt>
      <trkpt lat="54.554850" lon="-2.984403"><ele>609.3</ele></trkpt>
      <trkpt lat="54.554776" lon="-2.985631"><ele>601.5</ele></trkpt>
      <trkpt lat="54.554840" lon="-2.986148"><ele>596.0</ele></trkpt>
      <trkpt lat="54.555074" lon="-2.986600"><ele>588.5</ele></trkpt>
      <trkpt lat="54.555166" lon="-2.986943"><ele>583.8</ele></trkpt>
      <trkpt lat="54.555445" lon="-2.987133"><ele>585.8</ele></trkpt>
      <trkpt lat="54.555447" lon="-2.987267"><ele>587.5</ele></trkpt>
      <trkpt lat="54.555817" lon="-2.987655"><ele>596.3</ele></trkpt>
      <trkpt lat="54.556178" lon="-2.988157"><ele>608.3</ele></trkpt>
      <trkpt lat="54.556746" lon="-2.989115"><ele>622.0</ele></trkpt>
      <trkpt lat="54.556876" lon="-2.988990"><ele>622.5</ele></trkpt>
      <trkpt lat="54.557054" lon="-2.988974"><ele>620.8</ele></trkpt>
      <trkpt lat="54.558193" lon="-2.989369"><ele>613.0</ele></trkpt>
      <trkpt lat="54.558772" lon="-2.989254"><ele>598.0</ele></trkpt>
      <trkpt lat="54.558904" lon="-2.989107"><ele>591.0</ele></trkpt>
      <trkpt lat="54.559121" lon="-2.989145"><ele>588.0</ele></trkpt>
      <trkpt lat="54.559432" lon="-2.989936"><ele>599.0</ele></trkpt>
      <trkpt lat="54.559807" lon="-2.990470"><ele>597.0</ele></trkpt>
      <trkpt lat="54.560210" lon="-2.990706"><ele>592.0</ele></trkpt>
      <trkpt lat="54.560876" lon="-2.991473"><ele>590.0</ele></trkpt>
      <trkpt lat="54.561507" lon="-2.991842"><ele>587.0</ele></trkpt>
      <trkpt lat="54.561900" lon="-2.991777"><ele>586.0</ele></trkpt>
      <trkpt lat="54.562176" lon="-2.991494"><ele>584.0</ele></trkpt>
      <trkpt lat="54.562360" lon="-2.991069"><ele>577.0</ele></trkpt>
      <trkpt lat="54.562636" lon="-2.990700"><ele>578.0</ele></trkpt>
      <trkpt lat="54.562885" lon="-2.989987"><ele>571.0</ele></trkpt>
      <trkpt lat="54.563005" lon="-2.988155"><ele>569.0</ele></trkpt>
      <trkpt lat="54.563163" lon="-2.987086"><ele>571.0</ele></trkpt>
      <trkpt lat="54.563209" lon="-2.986079"><ele>556.0</ele></trkpt>
      <trkpt lat="54.563338" lon="-2.985459"><ele>555.0</ele></trkpt>
      <trkpt lat="54.563383" lon="-2.984559"><ele>550.0</ele></trkpt>
      <trkpt lat="54.563493" lon="-2.984100"><ele>553.0</ele></trkpt>
      <trkpt lat="54.563509" lon="-2.983586"><ele>550.0</ele></trkpt>
      <trkpt lat="54.563737" lon="-2.983162"><ele>563.0</ele></trkpt>
      <trkpt lat="54.563539" lon="-2.982985"><ele>550.0</ele></trkpt>
      <trkpt lat="54.563470" lon="-2.982308"><ele>543.0</ele></trkpt>
      <trkpt lat="54.563507" lon="-2.980742"><ele>541.0</ele></trkpt>
      <trkpt lat="54.563692" lon="-2.977882"><ele>549.0</ele></trkpt>
      <trkpt lat="54.563628" lon="-2.974221"><ele>545.0</ele></trkpt>
      <trkpt lat="54.563693" lon="-2.973890"><ele>547.0</ele></trkpt>
      <trkpt lat="54.563727" lon="-2.972045"><ele>544.0</ele></trkpt>
      <trkpt lat="54.563866" lon="-2.970171"><ele>547.0</ele></trkpt>
      <trkpt lat="54.564131" lon="-2.968965"><ele>542.0</ele></trkpt>
      <trkpt lat="54.564110" lon="-2.968449"><ele>539.0</ele></trkpt>
      <trkpt lat="54.564296" lon="-2.967735"><ele>537.0</ele></trkpt>
      <trkpt lat="54.564561" lon="-2.964951"><ele>530.0</ele></trkpt>
      <trkpt lat="54.564568" lon="-2.964061"><ele>524.0</ele></trkpt>
      <trkpt lat="54.564651" lon="-2.963730"><ele>521.0</ele></trkpt>
      <trkpt lat="54.565595" lon="-2.962336"><ele>518.0</ele></trkpt>
      <trkpt lat="54.565593" lon="-2.961886"><ele>505.0</ele></trkpt>
      <trkpt lat="54.565810" lon="-2.961097"><ele>489.0</ele></trkpt>
      <trkpt lat="54.566436" lon="-2.959845"><ele>468.0</ele></trkpt>
      <trkpt lat="54.566612" lon="-2.958916"><ele>447.0</ele></trkpt>
      <trkpt lat="54.566540" lon="-2.958474"><ele>431.0</ele></trkpt>
      <trkpt lat="54.566317" lon="-2.958437"><ele>422.0</ele></trkpt>
      <trkpt lat="54.566200" lon="-2.958295"><ele>413.0</ele></trkpt>
      <trkpt lat="54.566252" lon="-2.958006"><ele>407.0</ele></trkpt>
      <trkpt lat="54.567309" lon="-2.955638"><ele>361.0</ele></trkpt>
      <trkpt lat="54.567957" lon="-2.954666"><ele>351.0</ele></trkpt>
      <trkpt lat="54.568935" lon="-2.952940"><ele>326.0</ele></trkpt>
      <trkpt lat="54.569718" lon="-2.952228"><ele>324.0</ele></trkpt>
      <trkpt lat="54.569930" lon="-2.952158"><ele>326.0</ele></trkpt>
      <trkpt lat="54.570119" lon="-2.951831"><ele>320.0</ele></trkpt>
      <trkpt lat="54.570331" lon="-2.951685"><ele>319.0</ele></trkpt>
      <trkpt lat="54.570408" lon="-2.951462"><ele>317.0</ele></trkpt>
      <trkpt lat="54.570703" lon="-2.951082"><ele>317.0</ele></trkpt>
      <trkpt lat="54.570900" lon="-2.950583"><ele>313.0</ele></trkpt>
      <trkpt lat="54.571081" lon="-2.950426"><ele>315.0</ele></trkpt>
      <trkpt lat="54.571265" lon="-2.949969"><ele>313.0</ele></trkpt>
      <trkpt lat="54.571739" lon="-2.949230"><ele>314.0</ele></trkpt>
      <trkpt lat="54.572521" lon="-2.946276"><ele>282.0</ele></trkpt>
      <trkpt lat="54.574127" lon="-2.942086"><ele>259.0</ele></trkpt>
      <trkpt lat="54.574231" lon="-2.940693"><ele>245.0</ele></trkpt>
      <trkpt lat="54.574364" lon="-2.940407"><ele>246.0</ele></trkpt>
      <trkpt lat="54.574576" lon="-2.940283"><ele>251.0</ele></trkpt>
      <trkpt lat="54.574582" lon="-2.939553"><ele>247.0</ele></trkpt>
      <trkpt lat="54.574802" lon="-2.938421"><ele>245.0</ele></trkpt>
      <trkpt lat="54.574891" lon="-2.937447"><ele>238.0</ele></trkpt>
      <trkpt lat="54.575357" lon="-2.935880"><ele>237.0</ele></trkpt>
      <trkpt lat="54.575881" lon="-2.934862"><ele>235.0</ele></trkpt>
      <trkpt lat="54.576199" lon="-2.933872"><ele>232.0</ele></trkpt>
      <trkpt lat="54.576007" lon="-2.933739"><ele>227.0</ele></trkpt>
      <trkpt lat="54.576194" lon="-2.932917"><ele>225.0</ele></trkpt>
      <trkpt lat="54.576429" lon="-2.932235"><ele>220.0</ele></trkpt>
      <trkpt lat="54.575974" lon="-2.931635"><ele>204.0</ele></trkpt>
      <trkpt lat="54.576314" lon="-2.931020"><ele>201.0</ele></trkpt>
      <trkpt lat="54.576465" lon="-2.930873"><ele>201.0</ele></trkpt>
      <trkpt lat="54.576430" lon="-2.930561"><ele>198.0</ele></trkpt>
      <trkpt lat="54.576469" lon="-2.930348"><ele>200.0</ele></trkpt>
      <trkpt lat="54.576743" lon="-2.930295"><ele>203.0</ele></trkpt>
      <trkpt lat="54.576858" lon="-2.930662"><ele>203.0</ele></trkpt>
      <trkpt lat="54.577011" lon="-2.930215"><ele>204.0</ele></trkpt>
      <trkpt lat="54.577173" lon="-2.930122"><ele>205.0</ele></trkpt>
      <trkpt lat="54.577490" lon="-2.930216"><ele>211.0</ele></trkpt>
      <trkpt lat="54.577995" lon="-2.929980"><ele>213.0</ele></trkpt>
      <trkpt lat="54.578649" lon="-2.929888"><ele>220.0</ele></trkpt>
      <trkpt lat="54.578912" lon="-2.929647"><ele>225.0</ele></trkpt>
      <trkpt lat="54.579118" lon="-2.929176"><ele>231.0</ele></trkpt>
      <trkpt lat="54.579592" lon="-2.928962"><ele>237.0</ele></trkpt>
      <trkpt lat="54.580155" lon="-2.929328"><ele>238.0</ele></trkpt>
      <trkpt lat="54.581557" lon="-2.929811"><ele>248.0</ele></trkpt>
      <trkpt lat="54.581913" lon="-2.929615"><ele>256.0</ele></trkpt>
      <trkpt lat="54.582367" lon="-2.929658"><ele>260.0</ele></trkpt>
      <trkpt lat="54.582805" lon="-2.930033"><ele>262.0</ele></trkpt>
      <trkpt lat="54.584693" lon="-2.931117"><ele>275.0</ele></trkpt>
      <trkpt lat="54.585749" lon="-2.931543"><ele>279.0</ele></trkpt>
      <trkpt lat="54.585923" lon="-2.932330"><ele>274.0</ele></trkpt>
      <trkpt lat="54.586581" lon="-2.933268"><ele>273.0</ele></trkpt>
      <trkpt lat="54.586712" lon="-2.934001"><ele>271.0</ele></trkpt>
      <trkpt lat="54.586609" lon="-2.934439"><ele>272.0</ele></trkpt>
      <trkpt lat="54.586408" lon="-2.934659"><ele>275.0</ele></trkpt>
      <trkpt lat="54.586248" lon="-2.935235"><ele>275.0</ele></trkpt>
      <trkpt lat="54.586490" lon="-2.936153"><ele>277.0</ele></trkpt>
      <trkpt lat="54.586485" lon="-2.937569"><ele>288.0</ele></trkpt>
      <trkpt lat="54.586593" lon="-2.938076"><ele>289.0</ele></trkpt>
      <trkpt lat="54.586039" lon="-2.939758"><ele>289.0</ele></trkpt>
      <trkpt lat="54.586111" lon="-2.940092"><ele>289.0</ele></trkpt>
      <trkpt lat="54.586080" lon="-2.940400"><ele>290.0</ele></trkpt>
      <trkpt lat="54.586150" lon="-2.940690"><ele>291.0</ele></trkpt>
      <trkpt lat="54.586190" lon="-2.940600"><ele>290.0</ele></trkpt>
      <trkpt lat="54.586080" lon="-2.940940"><ele>291.0</ele></trkpt>
      <trkpt lat="54.588174" lon="-2.940673"><ele>295.0</ele></trkpt>
      <trkpt lat="54.589859" lon="-2.940610"><ele>301.0</ele></trkpt>
      <trkpt lat="54.590429" lon="-2.940128"><ele>299.0</ele></trkpt>
      <trkpt lat="54.591984" lon="-2.939847"><ele>304.0</ele></trkpt>
      <trkpt lat="54.592708" lon="-2.939483"><ele>305.0</ele></trkpt>
      <trkpt lat="54.593570" lon="-2.939299"><ele>311.0</ele></trkpt>
      <trkpt lat="54.593204" lon="-2.940002"><ele>316.0</ele></trkpt>
      <trkpt lat="54.592874" lon="-2.940870"><ele>324.0</ele></trkpt>
      <trkpt lat="54.591989" lon="-2.942018"><ele>325.0</ele></trkpt>
      <trkpt lat="54.591792" lon="-2.942801"><ele>333.0</ele></trkpt>
      <trkpt lat="54.591168" lon="-2.943548"><ele>342.0</ele></trkpt>
      <trkpt lat="54.590891" lon="-2.944100"><ele>345.0</ele></trkpt>
      <trkpt lat="54.590680" lon="-2.944730"><ele>346.0</ele></trkpt>
      <trkpt lat="54.590295" lon="-2.945089"><ele>345.0</ele></trkpt>
      <trkpt lat="54.589533" lon="-2.947458"><ele>358.0</ele></trkpt>
      <trkpt lat="54.589272" lon="-2.948011"><ele>356.0</ele></trkpt>
      <trkpt lat="54.588945" lon="-2.948321"><ele>353.0</ele></trkpt>
      <trkpt lat="54.588640" lon="-2.948834"><ele>350.0</ele></trkpt>
      <trkpt lat="54.588896" lon="-2.949869"><ele>357.0</ele></trkpt>
      <trkpt lat="54.588898" lon="-2.951570"><ele>368.0</ele></trkpt>
      <trkpt lat="54.588986" lon="-2.953388"><ele>377.0</ele></trkpt>
      <trkpt lat="54.589124" lon="-2.954598"><ele>387.0</ele></trkpt>
      <trkpt lat="54.589254" lon="-2.954867"><ele>391.0</ele></trkpt>
      <trkpt lat="54.589255" lon="-2.955654"><ele>394.0</ele></trkpt>
      <trkpt lat="54.589243" lon="-2.957203"><ele>400.0</ele></trkpt>
      <trkpt lat="54.589157" lon="-2.958814"><ele>408.0</ele></trkpt>
      <trkpt lat="54.588810" lon="-2.960723"><ele>416.0</ele></trkpt>
      <trkpt lat="54.588629" lon="-2.961303"><ele>417.0</ele></trkpt>
      <trkpt lat="54.588656" lon="-2.961570"><ele>417.0</ele></trkpt>
      <trkpt lat="54.588908" lon="-2.962325"><ele>420.0</ele></trkpt>
      <trkpt lat="54.589476" lon="-2.963113"><ele>422.0</ele></trkpt>
      <trkpt lat="54.589696" lon="-2.964045"><ele>421.0</ele></trkpt>
      <trkpt lat="54.590005" lon="-2.964954"><ele>423.0</ele></trkpt>
      <trkpt lat="54.589950" lon="-2.965359"><ele>424.0</ele></trkpt>
      <trkpt lat="54.589600" lon="-2.965922"><ele>425.0</ele></trkpt>
      <trkpt lat="54.590510" lon="-2.969893"><ele>425.0</ele></trkpt>
      <trkpt lat="54.590604" lon="-2.970892"><ele>432.0</ele></trkpt>
      <trkpt lat="54.590784" lon="-2.970929"><ele>433.0</ele></trkpt>
      <trkpt lat="54.591140" lon="-2.970648"><ele>431.0</ele></trkpt>
      <trkpt lat="54.592076" lon="-2.970284"><ele>429.0</ele></trkpt>
      <trkpt lat="54.593465" lon="-2.970746"><ele>434.0</ele></trkpt>
      <trkpt lat="54.594247" lon="-2.970851"><ele>431.0</ele></trkpt>
      <trkpt lat="54.595455" lon="-2.972200"><ele>432.0</ele></trkpt>
      <trkpt lat="54.595778" lon="-2.973678"><ele>438.0</ele></trkpt>
      <trkpt lat="54.595723" lon="-2.976702"><ele>433.0</ele></trkpt>
      <trkpt lat="54.595494" lon="-2.978810"><ele>428.0</ele></trkpt>
      <trkpt lat="54.595065" lon="-2.980421"><ele>433.0</ele></trkpt>
      <trkpt lat="54.594940" lon="-2.981255"><ele>432.0</ele></trkpt>
      <trkpt lat="54.594787" lon="-2.981713"><ele>437.0</ele></trkpt>
      <trkpt lat="54.594747" lon="-2.982034"><ele>437.0</ele></trkpt>
      <trkpt lat="54.594755" lon="-2.982645"><ele>431.0</ele></trkpt>
      <trkpt lat="54.594472" lon="-2.985267"><ele>427.0</ele></trkpt>
      <trkpt lat="54.594479" lon="-2.986662"><ele>425.0</ele></trkpt>
      <trkpt lat="54.594402" lon="-2.987004"><ele>426.0</ele></trkpt>
      <trkpt lat="54.594433" lon="-2.987777"><ele>422.0</ele></trkpt>
      <trkpt lat="54.594374" lon="-2.988881"><ele>422.0</ele></trkpt>
      <trkpt lat="54.594434" lon="-2.989966"><ele>415.0</ele></trkpt>
      <trkpt lat="54.595185" lon="-2.990789"><ele>412.0</ele></trkpt>
      <trkpt lat="54.595503" lon="-2.991430"><ele>410.0</ele></trkpt>
      <trkpt lat="54.595587" lon="-2.991829"><ele>410.0</ele></trkpt>
      <trkpt lat="54.595871" lon="-2.994368"><ele>411.0</ele></trkpt>
      <trkpt lat="54.595837" lon="-2.996245"><ele>410.0</ele></trkpt>
      <trkpt lat="54.595853" lon="-2.996578"><ele>408.0</ele></trkpt>
      <trkpt lat="54.596002" lon="-2.997258"><ele>407.0</ele></trkpt>
      <trkpt lat="54.595963" lon="-2.998276"><ele>407.0</ele></trkpt>
      <trkpt lat="54.596031" lon="-2.998997"><ele>406.0</ele></trkpt>
      <trkpt lat="54.595345" lon="-3.000847"><ele>398.0</ele></trkpt>
      <trkpt lat="54.594917" lon="-3.002231"><ele>404.0</ele></trkpt>
      <trkpt lat="54.594854" lon="-3.003806"><ele>405.0</ele></trkpt>
      <trkpt lat="54.594714" lon="-3.004940"><ele>402.0</ele></trkpt>
      <trkpt lat="54.594755" lon="-3.005263"><ele>401.0</ele></trkpt>
      <trkpt lat="54.595413" lon="-3.007608"><ele>394.0</ele></trkpt>
      <trkpt lat="54.595610" lon="-3.008525"><ele>395.0</ele></trkpt>
      <trkpt lat="54.595781" lon="-3.008948"><ele>396.0</ele></trkpt>
      <trkpt lat="54.597296" lon="-3.010616"><ele>408.0</ele></trkpt>
      <trkpt lat="54.597874" lon="-3.010556"><ele>411.0</ele></trkpt>
      <trkpt lat="54.598494" lon="-3.010754"><ele>417.0</ele></trkpt>
      <trkpt lat="54.598910" lon="-3.010904"><ele>419.0</ele></trkpt>
      <trkpt lat="54.599490" lon="-3.011326"><ele>414.0</ele></trkpt>
      <trkpt lat="54.599688" lon="-3.012168"><ele>417.0</ele></trkpt>
      <trkpt lat="54.599738" lon="-3.012963"><ele>419.0</ele></trkpt>
      <trkpt lat="54.599852" lon="-3.013363"><ele>418.0</ele></trkpt>
      <trkpt lat="54.599831" lon="-3.014425"><ele>426.0</ele></trkpt>
      <trkpt lat="54.600072" lon="-3.016126"><ele>433.0</ele></trkpt>
      <trkpt lat="54.600230" lon="-3.016473"><ele>433.0</ele></trkpt>
      <trkpt lat="54.600341" lon="-3.017335"><ele>436.0</ele></trkpt>
      <trkpt lat="54.600349" lon="-3.017854"><ele>439.0</ele></trkpt>
      <trkpt lat="54.600811" lon="-3.018540"><ele>436.0</ele></trkpt>
      <trkpt lat="54.600984" lon="-3.018955"><ele>436.0</ele></trkpt>
    </trkseg>
  </trk>
</gpx>
