<?xml version="1.0" encoding="UTF-8"?>
<gpx version="1.1" creator="route-planner"
  xmlns="http://www.topografix.com/GPX/1/1"
  xmlns:xsi="http://www.w3.org/2001/XMLSchema-instance"
  xsi:schemaLocation="http://www.topografix.com/GPX/1/1 http://www.topografix.com/GPX/1/1/gpx.xsd">
  <metadata>
    <name>Lakeland Way — Anticlockwise day 2 (2026-09-01)</name>
    <desc>Base 13.8km, +403m; with 1 detour(s): +2.0km, +142m ascent. Total 15.7km.</desc>
  </metadata>
  <wpt lat="54.410317" lon="-3.186340">
    <ele>549.0</ele>
    <name>Hard Knott 549m</name>
    <desc>A 549m rocky fell above the pass, with the remains of the Roman fort of Mediobogdum on its shoulder. Detour: +2.0km, +142m ascent.</desc>
    <type>peaks</type>
  </wpt>
  <wpt lat="54.402838" lon="-3.185492">
    <name>Night 10 — camp</name>
    <type>camp</type>
  </wpt>
  <trk>
    <name>Day 2</name>
    <trkseg>
      <trkpt lat="54.359690" lon="-3.293832"><ele>234.0</ele></trkpt>
      <trkpt lat="54.359954" lon="-3.293089"><ele>235.0</ele></trkpt>
      <trkpt lat="54.360084" lon="-3.291998"><ele>236.0</ele></trkpt>
      <trkpt lat="54.360283" lon="-3.291500"><ele>233.0</ele></trkpt>
      <trkpt lat="54.360386" lon="-3.290667"><ele>237.0</ele></trkpt>
      <trkpt lat="54.360551" lon="-3.290489"><ele>237.0</ele></trkpt>
      <trkpt lat="54.361002" lon="-3.290418"><ele>237.0</ele></trkpt>
      <trkpt lat="54.361169" lon="-3.289940"><ele>240.0</ele></trkpt>
      <trkpt lat="54.362076" lon="-3.289936"><ele>244.0</ele></trkpt>
      <trkpt lat="54.362277" lon="-3.289814"><ele>242.0</ele></trkpt>
      <trkpt lat="54.362766" lon="-3.289164"><ele>243.0</ele></trkpt>
      <trkpt lat="54.364116" lon="-3.288026"><ele>242.0</ele></trkpt>
      <trkpt lat="54.364283" lon="-3.287623"><ele>244.0</ele></trkpt>
      <trkpt lat="54.364615" lon="-3.287505"><ele>244.0</ele></trkpt>
      <trkpt lat="54.364912" lon="-3.287193"><ele>247.0</ele></trkpt>
      <trkpt lat="54.365148" lon="-3.286760"><ele>249.0</ele></trkpt>
      <trkpt lat="54.365462" lon="-3.286083"><ele>252.0</ele></trkpt>
      <trkpt lat="54.366876" lon="-3.281878"><ele>252.0</ele></trkpt>
      <trkpt lat="54.368081" lon="-3.277838"><ele>237.0</ele></trkpt>
      <trkpt lat="54.368749" lon="-3.276711"><ele>231.0</ele></trkpt>
      <trkpt lat="54.368918" lon="-3.276115"><ele>228.0</ele></trkpt>
      <trkpt lat="54.369672" lon="-3.274636"><ele>225.0</ele></trkpt>
      <trkpt lat="54.370491" lon="-3.273838"><ele>218.0</ele></trkpt>
      <trkpt lat="54.370683" lon="-3.273479"><ele>216.0</ele></trkpt>
      <trkpt lat="54.370882" lon="-3.273549"><ele>215.0</ele></trkpt>
      <trkpt lat="54.371048" lon="-3.273780"><ele>214.0</ele></trkpt>
      <trkpt lat="54.371176" lon="-3.274159"><ele>214.0</ele></trkpt>
      <trkpt lat="54.371246" lon="-3.274569"><ele>216.0</ele></trkpt>
      <trkpt lat="54.371242" lon="-3.274966"><ele>218.0</ele></trkpt>
      <trkpt lat="54.371345" lon="-3.275259"><ele>216.0</ele></trkpt>
      <trkpt lat="54.371724" lon="-3.274938"><ele>212.0</ele></trkpt>
      <trkpt lat="54.371853" lon="-3.274492"><ele>209.0</ele></trkpt>
      <trkpt lat="54.371842" lon="-3.273772"><ele>204.0</ele></trkpt>
      <trkpt lat="54.372458" lon="-3.273469"><ele>200.0</ele></trkpt>
      <trkpt lat="54.372887" lon="-3.273129"><ele>197.0</ele></trkpt>
      <trkpt lat="54.373575" lon="-3.273096"><ele>194.0</ele></trkpt>
      <trkpt lat="54.373689" lon="-3.272918"><ele>192.0</ele></trkpt>
      <trkpt lat="54.373689" lon="-3.272338"><ele>190.0</ele></trkpt>
      <trkpt lat="54.373979" lon="-3.272068"><ele>188.0</ele></trkpt>
      <trkpt lat="54.374488" lon="-3.271783"><ele>187.0</ele></trkpt>
      <trkpt lat="54.375011" lon="-3.270845"><ele>184.0</ele></trkpt>
      <trkpt lat="54.375599" lon="-3.270187"><ele>184.0</ele></trkpt>
      <trkpt lat="54.376209" lon="-3.269852"><ele>182.0</ele></trkpt>
      <trkpt lat="54.377024" lon="-3.269641"><ele>179.0</ele></trkpt>
      <trkpt lat="54.377512" lon="-3.270128"><ele>175.0</ele></trkpt>
      <trkpt lat="54.378085" lon="-3.270919"><ele>176.0</ele></trkpt>
      <trkpt lat="54.378444" lon="-3.271885"><ele>182.0</ele></trkpt>
      <trkpt lat="54.378852" lon="-3.271661"><ele>181.0</ele></trkpt>
      <trkpt lat="54.379240" lon="-3.271609"><ele>178.0</ele></trkpt>
      <trkpt lat="54.380158" lon="-3.271691"><ele>178.0</ele></trkpt>
      <trkpt lat="54.380385" lon="-3.271494"><ele>177.0</ele></trkpt>
      <trkpt lat="54.381164" lon="-3.271712"><ele>176.0</ele></trkpt>
      <trkpt lat="54.381664" lon="-3.271738"><ele>171.0</ele></trkpt>
      <trkpt lat="54.382085" lon="-3.272062"><ele>167.0</ele></trkpt>
      <trkpt lat="54.382270" lon="-3.272347"><ele>166.0</ele></trkpt>
      <trkpt lat="54.382519" lon="-3.272977"><ele>162.0</ele></trkpt>
      <trkpt lat="54.383161" lon="-3.273716"><ele>154.0</ele></trkpt>
      <trkpt lat="54.383660" lon="-3.273839"><ele>150.0</ele></trkpt>
      <trkpt lat="54.384121" lon="-3.273338"><ele>152.0</ele></trkpt>
      <trkpt lat="54.384363" lon="-3.273528"><ele>149.0</ele></trkpt>
      <trkpt lat="54.384763" lon="-3.273573"><ele>142.0</ele></trkpt>
      <trkpt lat="54.385011" lon="-3.273742"><ele>138.0</ele></trkpt>
      <trkpt lat="54.385125" lon="-3.274196"><ele>137.0</ele></trkpt>
      <trkpt lat="54.385368" lon="-3.273678"><ele>133.0</ele></trkpt>
      <trkpt lat="54.385419" lon="-3.273003"><ele>130.0</ele></trkpt>
      <trkpt lat="54.385626" lon="-3.272881"><ele>123.0</ele></trkpt>
      <trkpt lat="54.385836" lon="-3.272555"><ele>117.0</ele></trkpt>
      <trkpt lat="54.386028" lon="-3.272711"><ele>112.0</ele></trkpt>
      <trkpt lat="54.386199" lon="-3.272480"><ele>107.0</ele></trkpt>
      <trkpt lat="54.386823" lon="-3.272553"><ele>94.0</ele></trkpt>
      <trkpt lat="54.387109" lon="-3.272691"><ele>88.0</ele></trkpt>
      <trkpt lat="54.387415" lon="-3.273301"><ele>83.0</ele></trkpt>
      <trkpt lat="54.387898" lon="-3.273681"><ele>82.0</ele></trkpt>
      <trkpt lat="54.388331" lon="-3.273555"><ele>75.0</ele></trkpt>
      <trkpt lat="54.388849" lon="-3.274172"><ele>75.0</ele></trkpt>
      <trkpt lat="54.389643" lon="-3.274637"><ele>69.0</ele></trkpt>
      <trkpt lat="54.390089" lon="-3.275059"><ele>63.0</ele></trkpt>
      <trkpt lat="54.390413" lon="-3.275133"><ele>61.0</ele></trkpt>
      <trkpt lat="54.390459" lon="-3.274920"><ele>61.0</ele></trkpt>
      <trkpt lat="54.390308" lon="-3.273778"><ele>59.0</ele></trkpt>
      <trkpt lat="54.390702" lon="-3.270775"><ele>52.0</ele></trkpt>
      <trkpt lat="54.390687" lon="-3.269830"><ele>52.0</ele></trkpt>
      <trkpt lat="54.390806" lon="-3.268020"><ele>54.0</ele></trkpt>
      <trkpt lat="54.390587" lon="-3.267466"><ele>56.0</ele></trkpt>
      <trkpt lat="54.390003" lon="-3.266568"><ele>64.0</ele></trkpt>
      <trkpt lat="54.389963" lon="-3.266218"><ele>64.0</ele></trkpt>
      <trkpt lat="54.390274" lon="-3.266378"><ele>61.0</ele></trkpt>
      <trkpt lat="54.390718" lon="-3.266886"><ele>57.0</ele></trkpt>
      <trkpt lat="54.390896" lon="-3.267202"><ele>57.0</ele></trkpt>
      <trkpt lat="54.391180" lon="-3.268134"><ele>57.0</ele></trkpt>
      <trkpt lat="54.391412" lon="-3.268603"><ele>55.0</ele></trkpt>
      <trkpt lat="54.392631" lon="-3.270400"><ele>52.0</ele></trkpt>
      <trkpt lat="54.392772" lon="-3.270018"><ele>56.0</ele></trkpt>
      <trkpt lat="54.393104" lon="-3.269932"><ele>58.0</ele></trkpt>
      <trkpt lat="54.393793" lon="-3.270340"><ele>58.0</ele></trkpt>
      <trkpt lat="54.393928" lon="-3.270633"><ele>55.0</ele></trkpt>
      <trkpt lat="54.394095" lon="-3.270746"><ele>55.0</ele></trkpt>
      <trkpt lat="54.394551" lon="-3.270782"><ele>56.0</ele></trkpt>
      <trkpt lat="54.395317" lon="-3.270387"><ele>55.0</ele></trkpt>
      <trkpt lat="54.395981" lon="-3.270794"><ele>54.0</ele></trkpt>
      <trkpt lat="54.396241" lon="-3.271081"><ele>54.0</ele></trkpt>
      <trkpt lat="54.396596" lon="-3.271113"><ele>53.0</ele></trkpt>
      <trkpt lat="54.397368" lon="-3.270842"><ele>58.0</ele></trkpt>
      <trkpt lat="54.397697" lon="-3.270370"><ele>60.0</ele></trkpt>
      <trkpt lat="54.398106" lon="-3.270093"><ele>61.0</ele></trkpt>
      <trkpt lat="54.398388" lon="-3.270080"><ele>62.0</ele></trkpt>
      <trkpt lat="54.398100" lon="-3.270082"><ele>61.0</ele></trkpt>
      <trkpt lat="54.397704" lon="-3.270359"><ele>60.0</ele></trkpt>
      <trkpt lat="54.396704" lon="-3.269738"><ele>54.0</ele></trkpt>
      <trkpt lat="54.397127" lon="-3.268184"><ele>60.0</ele></trkpt>
      <trkpt lat="54.397479" lon="-3.266199"><ele>66.0</ele></trkpt>
      <trkpt lat="54.397354" lon="-3.264994"><ele>70.0</ele></trkpt>
      <trkpt lat="54.397450" lon="-3.264160"><ele>69.0</ele></trkpt>
      <trkpt lat="54.397361" lon="-3.263685"><ele>74.0</ele></trkpt>
      <trkpt lat="54.397233" lon="-3.263423"><ele>78.0</ele></trkpt>
      <trkpt lat="54.396432" lon="-3.263516"><ele>98.0</ele></trkpt>
      <trkpt lat="54.396059" lon="-3.263333"><ele>104.0</ele></trkpt>
      <trkpt lat="54.395657" lon="-3.262956"><ele>109.0</ele></trkpt>
      <trkpt lat="54.395218" lon="-3.263114"><ele>110.0</ele></trkpt>
      <trkpt lat="54.394831" lon="-3.263070"><ele>109.0</ele></trkpt>
      <trkpt lat="54.394415" lon="-3.263476"><ele>107.0</ele></trkpt>
      <trkpt lat="54.393801" lon="-3.263585"><ele>106.0</ele></trkpt>
      <trkpt lat="54.392957" lon="-3.264246"><ele>92.0</ele></trkpt>
      <trkpt lat="54.392596" lon="-3.264149"><ele>91.0</ele></trkpt>
      <trkpt lat="54.392247" lon="-3.263484"><ele>99.0</ele></trkpt>
      <trkpt lat="54.391838" lon="-3.263772"><ele>95.0</ele></trkpt>
      <trkpt lat="54.391328" lon="-3.263541"><ele>87.0</ele></trkpt>
      <trkpt lat="54.391381" lon="-3.263221"><ele>87.0</ele></trkpt>
      <trkpt lat="54.391241" lon="-3.263442"><ele>85.0</ele></trkpt>
      <trkpt lat="54.390446" lon="-3.263064"><ele>67.0</ele></trkpt>
      <trkpt lat="54.390896" lon="-3.261843"><ele>70.0</ele></trkpt>
      <trkpt lat="54.391458" lon="-3.259457"><ele>72.0</ele></trkpt>
      <trkpt lat="54.393069" lon="-3.256545"><ele>67.0</ele></trkpt>
      <trkpt lat="54.393364" lon="-3.255771"><ele>68.0</ele></trkpt>
      <trkpt lat="54.393482" lon="-3.254626"><ele>66.0</ele></trkpt>
      <trkpt lat="54.394164" lon="-3.253316"><ele>72.0</ele></trkpt>
      <trkpt lat="54.394479" lon="-3.251266"><ele>66.0</ele></trkpt>
      <trkpt lat="54.394701" lon="-3.250940"><ele>67.0</ele></trkpt>
      <trkpt lat="54.395640" lon="-3.250132"><ele>66.0</ele></trkpt>
      <trkpt lat="54.395990" lon="-3.246537"><ele>70.0</ele></trkpt>
      <trkpt lat="54.395978" lon="-3.244648"><ele>74.0</ele></trkpt>
      <trkpt lat="54.395244" lon="-3.244357"><ele>82.0</ele></trkpt>
      <trkpt lat="54.395355" lon="-3.242676"><ele>81.0</ele></trkpt>
      <trkpt lat="54.395493" lon="-3.242004"><ele>78.0</ele></trkpt>
      <trkpt lat="54.395449" lon="-3.241381"><ele>80.0</ele></trkpt>
      <trkpt lat="54.395203" lon="-3.240440"><ele>83.0</ele></trkpt>
      <trkpt lat="54.395115" lon="-3.239879"><ele>82.0</ele></trkpt>
      <trkpt lat="54.395115" lon="-3.239278"><ele>79.0</ele></trkpt>
      <trkpt lat="54.394975" lon="-3.238898"><ele>77.0</ele></trkpt>
      <trkpt lat="54.394753" lon="-3.238623"><ele>79.0</ele></trkpt>
      <trkpt lat="54.394790" lon="-3.238056"><ele>79.0</ele></trkpt>
      <trkpt lat="54.394751" lon="-3.237647"><ele>81.0</ele></trkpt>
      <trkpt lat="54.394046" lon="-3.232657"><ele>87.0</ele></trkpt>
      <trkpt lat="54.393917" lon="-3.231183"><ele>95.0</ele></trkpt>
      <trkpt lat="54.394065" lon="-3.230136"><ele>97.0</ele></trkpt>
      <trkpt lat="54.393989" lon="-3.229662"><ele>101.0</ele></trkpt>
      <trkpt lat="54.393967" lon="-3.227474"><ele>112.0</ele></trkpt>
      <trkpt lat="54.394237" lon="-3.227321"><ele>107.0</ele></trkpt>
      <trkpt lat="54.394340" lon="-3.227077"><ele>109.0</ele></trkpt>
      <trkpt lat="54.394715" lon="-3.227067"><ele>102.0</ele></trkpt>
      <trkpt lat="54.394906" lon="-3.226718"><ele>103.0</ele></trkpt>
      <trkpt lat="54.395631" lon="-3.224208"><ele>99.0</ele></trkpt>
      <trkpt lat="54.395700" lon="-3.223577"><ele>101.0</ele></trkpt>
      <trkpt lat="54.395912" lon="-3.222982"><ele>98.0</ele></trkpt>
      <trkpt lat="54.396170" lon="-3.221563"><ele>104.0</ele></trkpt>
      <trkpt lat="54.396374" lon="-3.221075"><ele>105.0</ele></trkpt>
      <trkpt lat="54.396455" lon="-3.220487"><ele>107.0</ele></trkpt>
      <trkpt lat="54.396682" lon="-3.219732"><ele>107.0</ele></trkpt>
      <trkpt lat="54.396834" lon="-3.218825"><ele>110.0</ele></trkpt>
      <trkpt lat="54.397195" lon="-3.218342"><ele>105.0</ele></trkpt>
      <trkpt lat="54.398030" lon="-3.216145"><ele>111.0</ele></trkpt>
      <trkpt lat="54.398180" lon="-3.215452"><ele>112.0</ele></trkpt>
      <trkpt lat="54.398932" lon="-3.214026"><ele>114.0</ele></trkpt>
      <trkpt lat="54.399119" lon="-3.213409"><ele>119.0</ele></trkpt>
      <trkpt lat="54.399412" lon="-3.213482"><ele>118.0</ele></trkpt>
      <trkpt lat="54.399474" lon="-3.212840"><ele>124.0</ele></trkpt>
      <trkpt lat="54.399652" lon="-3.211987"><ele>131.0</ele></trkpt>
      <trkpt lat="54.400126" lon="-3.212055"><ele>130.0</ele></trkpt>
      <trkpt lat="54.400421" lon="-3.210679"><ele>151.0</ele></trkpt>
      <trkpt lat="54.400922" lon="-3.209857"><ele>169.0</ele></trkpt>
      <trkpt lat="54.401233" lon="-3.208750"><ele>194.0</ele></trkpt>
      <trkpt lat="54.401310" lon="-3.207937"><ele>208.0</ele></trkpt>
      <trkpt lat="54.401479" lon="-3.207277"><ele>220.0</ele></trkpt>
      <trkpt lat="54.401761" lon="-3.206598"><ele>230.0</ele></trkpt>
      <trkpt lat="54.402052" lon="-3.206188"><ele>238.0</ele></trkpt>
      <trkpt lat="54.402335" lon="-3.206036"><ele>245.0</ele></trkpt>
      <trkpt lat="54.403053" lon="-3.204791"><ele>257.0</ele></trkpt>
      <trkpt lat="54.403571" lon="-3.204216"><ele>263.0</ele></trkpt>
      <trkpt lat="54.403921" lon="-3.203582"><ele>268.0</ele></trkpt>
      <trkpt lat="54.404243" lon="-3.202605"><ele>277.0</ele></trkpt>
      <trkpt lat="54.404917" lon="-3.200113"><ele>296.0</ele></trkpt>
      <trkpt lat="54.404693" lon="-3.198744"><ele>304.0</ele></trkpt>
      <trkpt lat="54.404355" lon="-3.197564"><ele>314.0</ele></trkpt>
      <trkpt lat="54.404221" lon="-3.196638"><ele>321.0</ele></trkpt>
      <trkpt lat="54.403233" lon="-3.194162"><ele>320.0</ele></trkpt>
      <trkpt lat="54.403139" lon="-3.192979"><ele>337.0</ele></trkpt>
      <trkpt lat="54.402950" lon="-3.192470"><ele>336.0</ele></trkpt>
      <trkpt lat="54.402926" lon="-3.191117"><ele>361.0</ele></trkpt>
      <trkpt lat="54.402726" lon="-3.189255"><ele>384.0</ele></trkpt>
      <trkpt lat="54.402800" lon="-3.186746"><ele>392.0</ele></trkpt>
      <trkpt lat="54.402876" lon="-3.186072"><ele>398.0</ele></trkpt>
      <trkpt lat="54.402848" lon="-3.186073"><ele>393.0</ele></trkpt>
      <trkpt lat="54.402841" lon="-3.185762"><ele>394.0</ele></trkpt>
      <trkpt lat="54.403071" lon="-3.185006"><ele>392.5</ele></trkpt>
      <trkpt lat="54.403309" lon="-3.184857"><ele>400.5</ele></trkpt>
      <trkpt lat="54.403477" lon="-3.184873"><ele>407.8</ele></trkpt>
      <trkpt lat="54.403567" lon="-3.184964"><ele>412.0</ele></trkpt>
      <trkpt lat="54.403860" lon="-3.184909"><ele>422.8</ele></trkpt>
      <trkpt lat="54.404169" lon="-3.184995"><ele>433.0</ele></trkpt>
      <trkpt lat="54.404422" lon="-3.184928"><ele>438.3</ele></trkpt>
      <trkpt lat="54.404674" lon="-3.185122"><ele>446.5</ele></trkpt>
      <trkpt lat="54.404853" lon="-3.185715"><ele>460.8</ele></trkpt>
      <trkpt lat="54.405019" lon="-3.185769"><ele>463.0</ele></trkpt>
      <trkpt lat="54.405101" lon="-3.185877"><ele>465.8</ele></trkpt>
      <trkpt lat="54.405683" lon="-3.185898"><ele>475.5</ele></trkpt>
      <trkpt lat="54.406333" lon="-3.186209"><ele>485.3</ele></trkpt>
      <trkpt lat="54.406581" lon="-3.186236"><ele>488.3</ele></trkpt>
      <trkpt lat="54.406863" lon="-3.186007"><ele>488.0</ele></trkpt>
      <trkpt lat="54.407314" lon="-3.186021"><ele>489.0</ele></trkpt>
      <trkpt lat="54.407479" lon="-3.186156"><ele>489.0</ele></trkpt>
      <trkpt lat="54.407608" lon="-3.186398"><ele>492.3</ele></trkpt>
      <trkpt lat="54.408047" lon="-3.186641"><ele>492.8</ele></trkpt>
      <trkpt lat="54.408108" lon="-3.186763"><ele>494.3</ele></trkpt>
      <trkpt lat="54.408136" lon="-3.187122"><ele>497.0</ele></trkpt>
      <trkpt lat="54.408482" lon="-3.187182"><ele>499.8</ele></trkpt>
      <trkpt lat="54.408697" lon="-3.187421"><ele>505.8</ele></trkpt>
      <trkpt lat="54.408863" lon="-3.187447"><ele>512.8</ele></trkpt>
      <trkpt lat="54.409275" lon="-3.187392"><ele>524.3</ele></trkpt>
      <trkpt lat="54.409734" lon="-3.186809"><ele>537.3</ele></trkpt>
      <trkpt lat="54.409882" lon="-3.186746"><ele>535.5</ele></trkpt>
      <trkpt lat="54.410213" lon="-3.186185"><ele>530.8</ele></trkpt>
      <trkpt lat="54.409882" lon="-3.186746"><ele>535.5</ele></trkpt>
      <trkpt lat="54.409734" lon="-3.186809"><ele>537.3</ele></trkpt>
      <trkpt lat="54.409275" lon="-3.187392"><ele>524.3</ele></trkpt>
      <trkpt lat="54.408863" lon="-3.187447"><ele>512.8</ele></trkpt>
      <trkpt lat="54.408697" lon="-3.187421"><ele>505.8</ele></trkpt>
      <trkpt lat="54.408482" lon="-3.187182"><ele>499.8</ele></trkpt>
      <trkpt lat="54.408136" lon="-3.187122"><ele>497.0</ele></trkpt>
      <trkpt lat="54.408108" lon="-3.186763"><ele>494.3</ele></trkpt>
      <trkpt lat="54.408047" lon="-3.186641"><ele>492.8</ele></trkpt>
      <trkpt lat="54.407608" lon="-3.186398"><ele>492.3</ele></trkpt>
      <trkpt lat="54.407479" lon="-3.186156"><ele>489.0</ele></trkpt>
      <trkpt lat="54.407314" lon="-3.186021"><ele>489.0</ele></trkpt>
      <trkpt lat="54.406863" lon="-3.186007"><ele>488.0</ele></trkpt>
      <trkpt lat="54.406581" lon="-3.186236"><ele>488.3</ele></trkpt>
      <trkpt lat="54.406333" lon="-3.186209"><ele>485.3</ele></trkpt>
      <trkpt lat="54.405683" lon="-3.185898"><ele>475.5</ele></trkpt>
      <trkpt lat="54.405101" lon="-3.185877"><ele>465.8</ele></trkpt>
      <trkpt lat="54.405019" lon="-3.185769"><ele>463.0</ele></trkpt>
      <trkpt lat="54.404853" lon="-3.185715"><ele>460.8</ele></trkpt>
      <trkpt lat="54.404674" lon="-3.185122"><ele>446.5</ele></trkpt>
      <trkpt lat="54.404422" lon="-3.184928"><ele>438.3</ele></trkpt>
      <trkpt lat="54.404169" lon="-3.184995"><ele>433.0</ele></trkpt>
      <trkpt lat="54.403860" lon="-3.184909"><ele>422.8</ele></trkpt>
      <trkpt lat="54.403567" lon="-3.184964"><ele>412.0</ele></trkpt>
      <trkpt lat="54.403477" lon="-3.184873"><ele>407.8</ele></trkpt>
      <trkpt lat="54.403309" lon="-3.184857"><ele>400.5</ele></trkpt>
      <trkpt lat="54.403071" lon="-3.185006"><ele>392.5</ele></trkpt>
      <trkpt lat="54.402841" lon="-3.185762"><ele>394.0</ele></trkpt>
      <trkpt lat="54.402848" lon="-3.186073"><ele>393.0</ele></trkpt>
      <trkpt lat="54.402838" lon="-3.185492"><ele>398.0</ele></trkpt>
    </trkseg>
  </trk>
</gpx>
